{"version": 0.6, "generator": "Overpass API 0.7.62.1 084b4234", "osm3s": {"timestamp_osm_base": "2024-05-29T15:17:00Z", "copyright": "The data included in this document is from www.openstreetmap.org. The data is made available under ODbL."}, "elements": [{"type": "node", "id": 308980549, "lat": 44.3025237, "lon": 23.8028617}, {"type": "node", "id": 2082226179, "lat": 44.3033653, "lon": 23.802652}, {"type": "node", "id": 2306683057, "lat": 44.3028758, "lon": 23.8005237}, {"type": "node", "id": 2331596506, "lat": 44.3022666, "lon": 23.8010626}, {"type": "node", "id": 2507035715, "lat": 44.3022607, "lon": 23.8195968}, {"type": "node", "id": 2507035716, "lat": 44.3008589, "lon": 23.8187704}, {"type": "node", "id": 2507035717, "lat": 44.3001686, "lon": 23.8181324}, {"type": "node", "id": 2507035720, "lat": 44.3006198, "lon": 23.816839}, {"type": "node", "id": 2507035721, "lat": 44.3014701, "lon": 23.8169478}, {"type": "node", "id": 2507035722, "lat": 44.3016358, "lon": 23.8164473}, {"type": "node", "id": 2507035724, "lat": 44.3029012, "lon": 23.8174632}, {"type": "node", "id": 2507305865, "lat": 44.3149227, "lon": 23.8246033}, {"type": "node", "id": 2507305866, "lat": 44.314662, "lon": 23.8259141}, {"type": "node", "id": 2507305868, "lat": 44.3120623, "lon": 23.8234661}, {"type": "node", "id": 2514059092, "lat": 44.314555, "lon": 23.7937217}, {"type": "node", "id": 2514059096, "lat": 44.3145591, "lon": 23.7938419}, {"type": "node", "id": 2514059098, "lat": 44.3146025, "lon": 23.7943006}, {"type": "node", "id": 2514059102, "lat": 44.3137942, "lon": 23.7944269}, {"type": "node", "id": 2514059104, "lat": 44.3137295, "lon": 23.7938196}, {"type": "node", "id": 2524166789, "lat": 44.3222887, "lon": 23.7943}, {"type": "node", "id": 2524166793, "lat": 44.3226844, "lon": 23.7943308}, {"type": "node", "id": 2524166795, "lat": 44.3226996, "lon": 23.7942568}, {"type": "node", "id": 2607709605, "lat": 44.3060747, "lon": 23.8178054}, {"type": "node", "id": 2607710330, "lat": 44.3062227, "lon": 23.8175597}, {"type": "node", "id": 2607710331, "lat": 44.3062577, "lon": 23.81769}, {"type": "node", "id": 2607710333, "lat": 44.3060462, "lon": 23.817669}, {"type": "node", "id": 2962411367, "lat": 44.3121667, "lon": 23.824389}, {"type": "node", "id": 2962411368, "lat": 44.3128517, "lon": 23.8247012}, {"type": "node", "id": 2962468443, "lat": 44.3066944, "lon": 23.792401}, {"type": "node", "id": 2962468444, "lat": 44.3066075, "lon": 23.792415}, {"type": "node", "id": 2962468445, "lat": 44.3061985, "lon": 23.7913117}, {"type": "node", "id": 2962468446, "lat": 44.3061664, "lon": 23.7910981}, {"type": "node", "id": 2962468447, "lat": 44.3042454, "lon": 23.7890222}, {"type": "node", "id": 2962468448, "lat": 44.3035389, "lon": 23.7897069}, {"type": "node", "id": 2962468449, "lat": 44.3041487, "lon": 23.7913481}, {"type": "node", "id": 2962468450, "lat": 44.3037773, "lon": 23.7916246}, {"type": "node", "id": 2962468451, "lat": 44.3046692, "lon": 23.7941663}, {"type": "node", "id": 2962468452, "lat": 44.3053115, "lon": 23.7940623}, {"type": "node", "id": 2962468453, "lat": 44.3055582, "lon": 23.7939935}, {"type": "node", "id": 2962468454, "lat": 44.3056685, "lon": 23.794255}, {"type": "node", "id": 2962468455, "lat": 44.3070086, "lon": 23.793279}, {"type": "node", "id": 2962480841, "lat": 44.304584, "lon": 23.7939316}, {"type": "node", "id": 2963393556, "lat": 44.3174294, "lon": 23.8154514}, {"type": "node", "id": 2963393557, "lat": 44.317252, "lon": 23.8154273}, {"type": "node", "id": 2963393558, "lat": 44.3171498, "lon": 23.8159548}, {"type": "node", "id": 2963393559, "lat": 44.316966, "lon": 23.8169401}, {"type": "node", "id": 2963393560, "lat": 44.3181595, "lon": 23.81735}, {"type": "node", "id": 2963393561, "lat": 44.3183456, "lon": 23.816332}, {"type": "node", "id": 2963393562, "lat": 44.3180151, "lon": 23.8162143}, {"type": "node", "id": 2963393563, "lat": 44.3180623, "lon": 23.8155353}, {"type": "node", "id": 2963925746, "lat": 44.3215714, "lon": 23.7924603}, {"type": "node", "id": 2963925747, "lat": 44.3219974, "lon": 23.7924496}, {"type": "node", "id": 2963925748, "lat": 44.3222181, "lon": 23.7924281}, {"type": "node", "id": 2963925749, "lat": 44.3223793, "lon": 23.7928063}, {"type": "node", "id": 2963925750, "lat": 44.3227765, "lon": 23.7925193}, {"type": "node", "id": 2963925751, "lat": 44.3223332, "lon": 23.7909878}, {"type": "node", "id": 2963925752, "lat": 44.3218074, "lon": 23.7911326}, {"type": "node", "id": 2963925754, "lat": 44.3218036, "lon": 23.7910307}, {"type": "node", "id": 2963925755, "lat": 44.3215119, "lon": 23.79102}, {"type": "node", "id": 2963925756, "lat": 44.3215062, "lon": 23.7915832}, {"type": "node", "id": 2963925757, "lat": 44.321629, "lon": 23.7916074}, {"type": "node", "id": 2963960366, "lat": 44.2959654, "lon": 23.8053568}, {"type": "node", "id": 2963960368, "lat": 44.2948311, "lon": 23.8051804, "tags": {"barrier": "gate"}}, {"type": "node", "id": 2963960369, "lat": 44.295971, "lon": 23.8055316}, {"type": "node", "id": 2963960370, "lat": 44.2959547, "lon": 23.8050376}, {"type": "node", "id": 2963960371, "lat": 44.2958549, "lon": 23.8043939}, {"type": "node", "id": 2963960372, "lat": 44.295732, "lon": 23.8039111}, {"type": "node", "id": 2963965239, "lat": 44.3023204, "lon": 23.8004939}, {"type": "node", "id": 2963965240, "lat": 44.3022287, "lon": 23.8005491}, {"type": "node", "id": 2963966680, "lat": 44.3027657, "lon": 23.8011055}, {"type": "node", "id": 2963966681, "lat": 44.3029423, "lon": 23.8012128}, {"type": "node", "id": 2963966682, "lat": 44.3029461, "lon": 23.8013415}, {"type": "node", "id": 2963966683, "lat": 44.3032897, "lon": 23.8014703}, {"type": "node", "id": 3166981767, "lat": 44.3064905, "lon": 23.791116, "tags": {"amenity": "clinic", "name": "Synevo"}}, {"type": "node", "id": 3217141720, "lat": 44.3083872, "lon": 23.8028627, "tags": {"amenity": "clinic", "name": "Centrul Medical de Nefrologie \u0219i Dializ\u0103"}}, {"type": "node", "id": 3217141728, "lat": 44.3098349, "lon": 23.7963748, "tags": {"addr:city": "Craiova", "addr:street": "Calea Unirii", "amenity": "clinic", "healthcare": "clinic", "name": "Policlinica Bunavestire"}}, {"type": "node", "id": 3217141729, "lat": 44.3129928, "lon": 23.7959135, "tags": {"amenity": "clinic", "name": "Policlinica Medsan"}}, {"type": "node", "id": 3218834789, "lat": 44.312365, "lon": 23.7929271, "tags": {"addr:city": "Craiova", "addr:street": "Strada Gheorghe Doja", "amenity": "clinic", "healthcare": "clinic", "name": "SPAD"}}, {"type": "node", "id": 3226299140, "lat": 44.3129057, "lon": 23.8017601, "tags": {"amenity": "clinic", "name": "Centrul Medical Rena\u0219terea"}}, {"type": "node", "id": 3226299145, "lat": 44.3087652, "lon": 23.8049993, "tags": {"amenity": "clinic", "name": "Policlinica Medaura"}}, {"type": "node", "id": 3226299147, "lat": 44.3138242, "lon": 23.8018177, "tags": {"amenity": "clinic", "name": "Signal Iduna"}}, {"type": "node", "id": 3227962058, "lat": 44.3261593, "lon": 23.7873051, "tags": {"addr:city": "Craiova", "addr:housenumber": "52", "addr:street": "Bulevardul Nicolae Titulescu", "amenity": "clinic", "healthcare": "clinic", "healthcare:speciality": "internal;dermatology;ophthalmology;paediatrics;psychiatry;cardiology;neurology;diabetology;stomatology;pulmonology;urology;endocrinology;gastroenterology;surgery;rheumatology;orthodontics;dental_oral_maxillo_facial_surgery;occupational", "name": "Centrul Medical Camen", "name:en": "Camen Medical Center", "name:ro": "Centrul Medical Camen", "opening_hours": "Mo-Fr 08:00-20:00", "phone": "0351420130;0251563328;0371340667", "website": "https://camen.ro"}}, {"type": "node", "id": 3229736257, "lat": 44.3256942, "lon": 23.7885, "tags": {"addr:city": "Craiova", "addr:street": "Bulevardul Nicolae Titulescu", "amenity": "clinic", "healthcare": "clinic", "name": "Clinica Dr. Camelia P\u0103tru"}}, {"type": "node", "id": 3229749680, "lat": 44.310012, "lon": 23.803804, "tags": {"addr:housenumber": "23A", "addr:street": "Strada Caracal", "amenity": "clinic", "name": "Centrul de Oncologie Sf\u00e2ntul Nectarie Craiova"}}, {"type": "node", "id": 3243467309, "lat": 44.3178498, "lon": 23.7900822, "tags": {"amenity": "clinic", "healthcare": "clinic", "name": "Terrapsi"}}, {"type": "node", "id": 3243467626, "lat": 44.3257971, "lon": 23.7782146, "tags": {"addr:city": "Craiova", "addr:street": "Strada Maria T\u0103nase", "amenity": "clinic", "name": "ENDOlife"}}, {"type": "node", "id": 3244664004, "lat": 44.3100597, "lon": 23.8201461, "tags": {"amenity": "clinic"}}, {"type": "node", "id": 3252797041, "lat": 44.3259849, "lon": 23.8092712, "tags": {"addr:city": "Craiova", "addr:housenumber": "99", "addr:street": "Bulevardul Carol I", "amenity": "clinic", "healthcare": "clinic", "name": "Centrul Medical Dr. Iano\u0219i"}}, {"type": "node", "id": 3252797056, "lat": 44.3248117, "lon": 23.8059194, "tags": {"addr:city": "Craiova", "addr:housenumber": "71", "addr:street": "Bulevardul Carol I", "amenity": "clinic", "healthcare": "clinic", "name": "Policlinica Sf\u00e2ntul Ilie"}}, {"type": "node", "id": 3252797057, "lat": 44.3231112, "lon": 23.8040071, "tags": {"addr:city": "Craiova", "addr:housenumber": "50", "addr:street": "Bulevardul Carol I", "amenity": "clinic", "healthcare": "clinic", "name": "Policlinica Tommed"}}, {"type": "node", "id": 3253648703, "lat": 44.3027497, "lon": 23.7983132, "tags": {"amenity": "clinic", "name": "Maternitate Alpha Medical"}}, {"type": "node", "id": 3253648712, "lat": 44.3060249, "lon": 23.7976378, "tags": {"addr:city": "Craiova", "addr:housenumber": "143", "addr:street": "Calea Unirii", "amenity": "clinic", "healthcare": "clinic", "name": "Renamed Dialcare"}}, {"type": "node", "id": 3323207834, "lat": 44.3180977, "lon": 23.8034179, "tags": {"amenity": "clinic", "name": "Regina Maria"}}, {"type": "node", "id": 3334259322, "lat": 44.3180633, "lon": 23.8119719, "tags": {"addr:city": "Craiova", "addr:country": "RO", "addr:housename": "Bloc A13", "addr:housenumber": "85", "addr:postcode": "200473", "addr:street": "Calea Bucure\u0219ti", "amenity": "clinic", "name": "Synlab"}}, {"type": "node", "id": 3334259404, "lat": 44.3173637, "lon": 23.8150286}, {"type": "node", "id": 3334259405, "lat": 44.317367, "lon": 23.8152163}, {"type": "node", "id": 3334259406, "lat": 44.3173738, "lon": 23.8149731}, {"type": "node", "id": 3334259407, "lat": 44.3173809, "lon": 23.8151415}, {"type": "node", "id": 3334259409, "lat": 44.3173969, "lon": 23.8151473}, {"type": "node", "id": 3334259410, "lat": 44.3174052, "lon": 23.8150631}, {"type": "node", "id": 3334259411, "lat": 44.3174086, "lon": 23.8150446}, {"type": "node", "id": 3334259413, "lat": 44.3174133, "lon": 23.815066}, {"type": "node", "id": 3334259414, "lat": 44.317419, "lon": 23.8149892}, {"type": "node", "id": 3334259416, "lat": 44.3174286, "lon": 23.8149379}, {"type": "node", "id": 3334259418, "lat": 44.3174924, "lon": 23.8152617}, {"type": "node", "id": 3334259419, "lat": 44.3175028, "lon": 23.8152055}, {"type": "node", "id": 3334259421, "lat": 44.3175588, "lon": 23.8150982}, {"type": "node", "id": 3334259425, "lat": 44.3175786, "lon": 23.8149926}, {"type": "node", "id": 3334259429, "lat": 44.3177337, "lon": 23.8152873}, {"type": "node", "id": 3334259433, "lat": 44.3177554, "lon": 23.8151678}, {"type": "node", "id": 3336744768, "lat": 44.3203274, "lon": 23.8080822, "tags": {"addr:city": "Craiova", "addr:country": "RO", "addr:housenumber": "24", "addr:postcode": "200467", "addr:street": "Strada Fra\u021bii Gole\u0219ti", "amenity": "clinic", "name": "Tiens", "website": "http://ro.tiens.com"}}, {"type": "node", "id": 3360142444, "lat": 44.3202813, "lon": 23.8217572, "tags": {"amenity": "clinic", "name": "OB-GYN"}}, {"type": "node", "id": 3387591359, "lat": 44.3236378, "lon": 23.7940368, "tags": {"amenity": "clinic", "name": "Centrul medical MaDonna Maria"}}, {"type": "node", "id": 3423250863, "lat": 44.3361739, "lon": 23.7779572, "tags": {"addr:city": "Craiova", "addr:street": "Strada George Enescu", "amenity": "clinic", "healthcare": "clinic", "name": "Medical Center"}}, {"type": "node", "id": 3446956589, "lat": 44.3254082, "lon": 23.806708, "tags": {"addr:city": "Craiova", "addr:housenumber": "111", "addr:street": "Strada \u0218tefan cel Mare", "amenity": "clinic", "healthcare": "clinic", "name": "Policlinica Sf\u00e2ntul Ilie"}}, {"type": "node", "id": 3531496089, "lat": 44.3141254, "lon": 23.7937882}, {"type": "node", "id": 3538379512, "lat": 44.3254883, "lon": 23.7888162}, {"type": "node", "id": 3538379513, "lat": 44.3258863, "lon": 23.789117}, {"type": "node", "id": 3538379514, "lat": 44.3254677, "lon": 23.789982}, {"type": "node", "id": 3538379515, "lat": 44.325126, "lon": 23.7896785}, {"type": "node", "id": 3544925121, "lat": 44.3058413, "lon": 23.7941409, "tags": {"access": "permissive", "barrier": "lift_gate", "lift_gate:type": "single"}}, {"type": "node", "id": 3586693970, "lat": 44.300194, "lon": 23.7971368}, {"type": "node", "id": 3586693971, "lat": 44.3000916, "lon": 23.7971411}, {"type": "node", "id": 3586693972, "lat": 44.3000935, "lon": 23.7972316}, {"type": "node", "id": 3586693973, "lat": 44.3001186, "lon": 23.7972306}, {"type": "node", "id": 3586693974, "lat": 44.3001192, "lon": 23.7972555}, {"type": "node", "id": 3586693975, "lat": 44.3001474, "lon": 23.7972543}, {"type": "node", "id": 3586693976, "lat": 44.300147, "lon": 23.7972355}, {"type": "node", "id": 3586693977, "lat": 44.3001726, "lon": 23.7972345}, {"type": "node", "id": 3586693978, "lat": 44.3001719, "lon": 23.7972025}, {"type": "node", "id": 3586693979, "lat": 44.3001953, "lon": 23.7972015}, {"type": "node", "id": 3807220142, "lat": 44.3092358, "lon": 23.8049514, "tags": {"addr:city": "Craiova", "addr:country": "RO", "addr:housenumber": "33", "addr:postcode": "200347", "addr:postcode:source": "Date de la Po\u0219ta Rom\u00e2n\u0103, publicate sub Licen\u021ba pentru Guvernare Deschis\u0103 v1.0 la http://date.gov.ro/organization/posta-romana", "addr:street": "Strada Caracal", "amenity": "clinic", "name": "Clinica Medisof"}}, {"type": "node", "id": 3822711552, "lat": 44.3153897, "lon": 23.8091356, "tags": {"addr:city": "Craiova", "addr:country": "RO", "addr:housenumber": "69", "addr:postcode": "200530", "addr:street": "Strada \u00cemp\u0103ratul Traian", "amenity": "clinic", "email": "office@sanatateacraiova.ro", "name": "Centrul Medical \"S\u0103n\u0103tatea\"", "opening_hours": "Mo-Fr 10:00-20:00", "phone": "0351458808", "website": "https://www.sanatateacraiova.ro/"}}, {"type": "node", "id": 4015377108, "lat": 44.3144882, "lon": 23.8106346, "tags": {"addr:city": "Craiova", "addr:country": "RO", "addr:housenumber": "93", "addr:postcode": "200487", "addr:street": "Strada \u00cemp\u0103ratul Traian", "amenity": "clinic", "name": "Centrul Medical \"Sf\u00e2ntul Nicolae\"", "opening_hours": "Mo-Fr 08:00-20:00", "phone": "0351401577"}}, {"type": "node", "id": 4028841526, "lat": 44.3199162, "lon": 23.807533, "tags": {"addr:city": "Craiova", "addr:country": "RO", "addr:housenumber": "9", "addr:postcode": "200467", "addr:street": "Strada Fra\u021bii Gole\u0219ti", "amenity": "clinic", "email": "centrulmedicalbataiosu@uv.ro", "name": "Centrul medical dr. B\u0103t\u0103iosu", "opening_hours": "Mo-Fr 08:00-20:00; Sa-Su off", "phone": "0251544445", "website": "http://centrulmedicalbataiosu.uv.ro"}}, {"type": "node", "id": 4067089668, "lat": 44.3155858, "lon": 23.8239672, "tags": {"addr:city": "Craiova", "addr:country": "RO", "addr:housenumber": "109", "addr:place": "Bloc R2", "addr:postcode": "200516", "addr:street": "Calea Bucure\u0219ti", "amenity": "clinic", "email": "office@phoenix-hospital.ro", "name": "Centrul Medical Phoenix", "phone": "0351466211", "website": "https://phoenix-hospital.ro/"}}, {"type": "node", "id": 4199118079, "lat": 44.3202117, "lon": 23.8008593, "tags": {"addr:city": "Craiova", "addr:country": "RO", "addr:housename": "Bloc 17A", "addr:housenumber": "25", "addr:postcode": "200678", "addr:street": "Calea Bucure\u0219ti", "amenity": "clinic", "email": "contact@medeeaclinic.ro", "name": "Medeea Clinic", "opening_hours": "Mo-Fr 13:00-19:00; Sa-Su off", "phone": "0351421843", "website": "http://www.medeeaclinic.ro"}}, {"type": "node", "id": 4270186989, "lat": 44.3272012, "lon": 23.781625, "tags": {"addr:city": "Craiova", "addr:housenumber": "104", "addr:street": "Bulevardul Nicolae Titulescu", "amenity": "clinic", "name": "Neurolife"}}, {"type": "node", "id": 4383509594, "lat": 44.3171173, "lon": 23.8187571, "tags": {"addr:housenumber": "2", "addr:street": "Strada \u0218tefan Velovan", "amenity": "clinic", "email": "edy.bondoc@yahoo.com", "healthcare": "clinic", "name": "Cabinet Psihologie Eduard Bondoc", "opening_hours": "Mo-Fr 14:00-19:00", "phone": "0723948913", "website": "https://www.psihoterapie-craiova.ro/"}}, {"type": "node", "id": 4428547790, "lat": 44.3229665, "lon": 23.7896766, "tags": {"addr:city": "Craiova", "addr:country": "RO", "addr:housenumber": "18", "addr:postcode": "200217", "addr:street": "Strada Constantin Lecca", "amenity": "clinic", "email": "office@prioritymedical.ro", "healthcare": "clinic", "healthcare:speciality": "general", "name": "Priority Medical", "opening_hours": "Mo-Fr 08:00-14:00; Sa 08:00-12:00; Su off", "phone": "0351408366", "website": "https://prioritymedical.ro/"}}, {"type": "node", "id": 4748107403, "lat": 44.326288, "lon": 23.7875653}, {"type": "node", "id": 4748107404, "lat": 44.3261556, "lon": 23.7874514}, {"type": "node", "id": 4748107407, "lat": 44.3262214, "lon": 23.7875328}, {"type": "node", "id": 4748107410, "lat": 44.3262324, "lon": 23.7874889}, {"type": "node", "id": 4748107411, "lat": 44.3263212, "lon": 23.7874322}, {"type": "node", "id": 4748107412, "lat": 44.3261779, "lon": 23.7873622}, {"type": "node", "id": 4940021027, "lat": 44.3139553, "lon": 23.8196844}, {"type": "node", "id": 4940021028, "lat": 44.3139614, "lon": 23.8199386}, {"type": "node", "id": 4940021029, "lat": 44.3138193, "lon": 23.8199453}, {"type": "node", "id": 4940021030, "lat": 44.3138131, "lon": 23.8196911}, {"type": "node", "id": 6009346394, "lat": 44.3139433, "lon": 23.8256429}, {"type": "node", "id": 6009346395, "lat": 44.3140178, "lon": 23.8252024}, {"type": "node", "id": 6009346396, "lat": 44.3131072, "lon": 23.8238445}, {"type": "node", "id": 6009346397, "lat": 44.314432, "lon": 23.8244001}, {"type": "node", "id": 6129238212, "lat": 44.3261754, "lon": 23.7872686}, {"type": "node", "id": 6129238213, "lat": 44.3262677, "lon": 23.7873228}, {"type": "node", "id": 6129238214, "lat": 44.3261313, "lon": 23.7873252}, {"type": "node", "id": 6129238215, "lat": 44.3262685, "lon": 23.7874057}, {"type": "node", "id": 6129238216, "lat": 44.3262895, "lon": 23.7873356}, {"type": "node", "id": 6129238217, "lat": 44.3261523, "lon": 23.7872551}, {"type": "node", "id": 6129238218, "lat": 44.3261938, "lon": 23.7872082}, {"type": "node", "id": 6129238219, "lat": 44.3262859, "lon": 23.7872632}, {"type": "node", "id": 6325953221, "lat": 44.3036101, "lon": 23.7895985}, {"type": "node", "id": 6325953222, "lat": 44.3039425, "lon": 23.7893579}, {"type": "node", "id": 6325953223, "lat": 44.3039682, "lon": 23.7892442}, {"type": "node", "id": 6325953224, "lat": 44.3052603, "lon": 23.7900301}, {"type": "node", "id": 6325953225, "lat": 44.3056097, "lon": 23.7903898}, {"type": "node", "id": 6325953299, "lat": 44.3050774, "lon": 23.7939589}, {"type": "node", "id": 6325953300, "lat": 44.30518, "lon": 23.7941525}, {"type": "node", "id": 6325953301, "lat": 44.3052506, "lon": 23.794006}, {"type": "node", "id": 6355254683, "lat": 44.3212748, "lon": 23.7910545}, {"type": "node", "id": 6391729012, "lat": 44.3024606, "lon": 23.7998575}, {"type": "node", "id": 6391787597, "lat": 44.3138056, "lon": 23.794425}, {"type": "node", "id": 6423815624, "lat": 44.3290858, "lon": 23.8012577}, {"type": "node", "id": 6423815625, "lat": 44.3288604, "lon": 23.8015344}, {"type": "node", "id": 6423815626, "lat": 44.328897, "lon": 23.801626}, {"type": "node", "id": 6423815627, "lat": 44.3291528, "lon": 23.8014173}, {"type": "node", "id": 6470432972, "lat": 44.3231175, "lon": 23.7960525}, {"type": "node", "id": 6470432973, "lat": 44.3230315, "lon": 23.796063}, {"type": "node", "id": 6470432974, "lat": 44.3230358, "lon": 23.7961317}, {"type": "node", "id": 6470432975, "lat": 44.323135, "lon": 23.7963328}, {"type": "node", "id": 6470432976, "lat": 44.3228827, "lon": 23.7963636}, {"type": "node", "id": 6470432977, "lat": 44.3228694, "lon": 23.796152}, {"type": "node", "id": 6470432978, "lat": 44.3231218, "lon": 23.7961212}, {"type": "node", "id": 6542588627, "lat": 44.3057383, "lon": 23.8099612}, {"type": "node", "id": 6542588628, "lat": 44.3057949, "lon": 23.8104521}, {"type": "node", "id": 6542588629, "lat": 44.3061855, "lon": 23.8103581}, {"type": "node", "id": 6542588630, "lat": 44.3061221, "lon": 23.8095978}, {"type": "node", "id": 6542588631, "lat": 44.3059737, "lon": 23.8094721}, {"type": "node", "id": 6603820254, "lat": 44.3175195, "lon": 23.8154633, "tags": {"access": "permit", "barrier": "lift_gate", "foot": "permissive"}}, {"type": "node", "id": 6781399124, "lat": 44.3168253, "lon": 23.8113285, "tags": {"addr:city": "Craiova", "addr:street": "Strada \u00cenfr\u0103\u021birii", "amenity": "clinic", "healthcare": "clinic", "name": "MedLife Sama"}}, {"type": "node", "id": 6860077812, "lat": 44.3061657, "lon": 23.7976576}, {"type": "node", "id": 6860077813, "lat": 44.3060008, "lon": 23.7976851}, {"type": "node", "id": 6860077814, "lat": 44.3060476, "lon": 23.7981769}, {"type": "node", "id": 6860077815, "lat": 44.3060894, "lon": 23.7981666}, {"type": "node", "id": 6860077816, "lat": 44.3060919, "lon": 23.7983729}, {"type": "node", "id": 6860077817, "lat": 44.3060451, "lon": 23.7983764}, {"type": "node", "id": 6860077818, "lat": 44.3060377, "lon": 23.7985861}, {"type": "node", "id": 6860077819, "lat": 44.3061509, "lon": 23.7985827}, {"type": "node", "id": 6860077820, "lat": 44.3061559, "lon": 23.7981563}, {"type": "node", "id": 6860077821, "lat": 44.3061774, "lon": 23.7981363}, {"type": "node", "id": 7041544634, "lat": 44.3143267, "lon": 23.8257957, "tags": {"barrier": "gate"}}, {"type": "node", "id": 7041544657, "lat": 44.3121045, "lon": 23.8237569, "tags": {"barrier": "gate"}}, {"type": "node", "id": 7041544658, "lat": 44.3120866, "lon": 23.8236115}, {"type": "node", "id": 7041544671, "lat": 44.3134747, "lon": 23.8254419}, {"type": "node", "id": 7041544672, "lat": 44.3127543, "lon": 23.8251192}, {"type": "node", "id": 7358540556, "lat": 44.3026002, "lon": 23.8172881}, {"type": "node", "id": 7358540557, "lat": 44.3026654, "lon": 23.8170843}, {"type": "node", "id": 7358540558, "lat": 44.3010699, "lon": 23.8169229}, {"type": "node", "id": 7358540559, "lat": 44.300643, "lon": 23.8184485}, {"type": "node", "id": 7358540572, "lat": 44.3024323, "lon": 23.8190251, "tags": {"barrier": "lift_gate"}}, {"type": "node", "id": 7470510355, "lat": 44.3060717, "lon": 23.7929466, "tags": {"amenity": "hospital", "healthcare": "hospital", "name": "Unitatea de Primiri Urgen\u021be"}}, {"type": "node", "id": 7842989276, "lat": 44.3210016, "lon": 23.8100349, "tags": {"addr:city": "Craiova", "addr:housenumber": "74", "addr:postcode": "200463", "addr:street": "Strada Vasile Alecsandri", "amenity": "hospital", "healthcare": "Psychology", "healthcare:speciality": "Psychology;Psychotherapy_and_Counselling", "name": "Cabinet psiholog Daniela Iano\u0219", "operator": "iCare", "operator:type": "private"}}, {"type": "node", "id": 8179628043, "lat": 44.306189, "lon": 23.7912355, "tags": {"access": "permissive", "barrier": "lift_gate", "lift_gate:type": "single"}}, {"type": "node", "id": 8325562446, "lat": 44.3175745, "lon": 23.8144178, "tags": {"addr:city": "Craiova", "addr:country": "RO", "addr:housename": "Bloc A11", "addr:housenumber": "95", "addr:postcode": "200473", "addr:street": "Calea Bucure\u0219ti", "amenity": "clinic", "name": "Synevo"}}, {"type": "node", "id": 8440456155, "lat": 44.3291042, "lon": 23.7768119}, {"type": "node", "id": 8440456156, "lat": 44.3289823, "lon": 23.7765987}, {"type": "node", "id": 8440456157, "lat": 44.3289175, "lon": 23.7766711}, {"type": "node", "id": 8440456158, "lat": 44.3290393, "lon": 23.7768844}, {"type": "node", "id": 8729052203, "lat": 44.2957281, "lon": 23.8055596}, {"type": "node", "id": 8729052204, "lat": 44.2956544, "lon": 23.8053951}, {"type": "node", "id": 8729060633, "lat": 44.2952425, "lon": 23.8040389}, {"type": "node", "id": 8729060634, "lat": 44.2953369, "lon": 23.8038024}, {"type": "node", "id": 8729060635, "lat": 44.2949169, "lon": 23.8045621}, {"type": "node", "id": 8729060636, "lat": 44.2950639, "lon": 23.804332}, {"type": "node", "id": 8729060637, "lat": 44.2947013, "lon": 23.8050343}, {"type": "node", "id": 8729060638, "lat": 44.2947291, "lon": 23.8048439}, {"type": "node", "id": 8853766287, "lat": 44.3224722, "lon": 23.7938064}, {"type": "node", "id": 8853766288, "lat": 44.3223801, "lon": 23.7932512}, {"type": "node", "id": 8853766289, "lat": 44.3224511, "lon": 23.7935664}, {"type": "node", "id": 8853766290, "lat": 44.3223187, "lon": 23.793848}, {"type": "node", "id": 8853766291, "lat": 44.3228482, "lon": 23.7942729}, {"type": "node", "id": 8853766292, "lat": 44.3228503, "lon": 23.7938091}, {"type": "node", "id": 8853766293, "lat": 44.3228387, "lon": 23.7933612}, {"type": "node", "id": 8853766294, "lat": 44.3227889, "lon": 23.7929803}, {"type": "node", "id": 8853766300, "lat": 44.3223072, "lon": 23.7940921}, {"type": "node", "id": 8853798641, "lat": 44.3215991, "lon": 23.7910545}, {"type": "node", "id": 8853798643, "lat": 44.3212979, "lon": 23.7914059}, {"type": "node", "id": 8853798644, "lat": 44.3215109, "lon": 23.7914354}, {"type": "node", "id": 8881293391, "lat": 44.2954066, "lon": 23.8037521}, {"type": "node", "id": 8884046704, "lat": 44.3125775, "lon": 23.8245821}, {"type": "node", "id": 8889987544, "lat": 44.3062205, "lon": 23.808288}, {"type": "node", "id": 8889987545, "lat": 44.3062041, "lon": 23.8083782}, {"type": "node", "id": 8889987546, "lat": 44.3060581, "lon": 23.8083266}, {"type": "node", "id": 8889987547, "lat": 44.3060744, "lon": 23.8082364}, {"type": "node", "id": 9438378467, "lat": 44.2997719, "lon": 23.8291629, "tags": {"access": "customers", "barrier": "gate"}}, {"type": "node", "id": 9438378468, "lat": 44.3009267, "lon": 23.8284123}, {"type": "node", "id": 9438378469, "lat": 44.3011033, "lon": 23.8298298}, {"type": "node", "id": 9438378470, "lat": 44.299725, "lon": 23.8294905}, {"type": "node", "id": 9438378471, "lat": 44.2997845, "lon": 23.8290748}, {"type": "node", "id": 9438378472, "lat": 44.2997595, "lon": 23.828887}, {"type": "node", "id": 9438378473, "lat": 44.2999419, "lon": 23.8281521}, {"type": "node", "id": 9438378474, "lat": 44.3008987, "lon": 23.8284044}, {"type": "node", "id": 9438378481, "lat": 44.300142, "lon": 23.8282215}, {"type": "node", "id": 9552968095, "lat": 44.3049118, "lon": 23.7944514, "tags": {"addr:city": "Craiova", "addr:housenumber": "66", "addr:postcode": "200638", "addr:street": "Bulevardul 1 Mai", "amenity": "hospital", "email": "imagistica@umfcv.ro", "healthcare": "hospital", "healthcare:speciality": "radiology", "name": "UMF - Centrul de Imagistic\u0103", "phone": "+40770245996", "website": "https://www.umfcv.ro/imagistica"}}, {"type": "node", "id": 9626674502, "lat": 44.3167901, "lon": 23.802621, "tags": {"addr:city": "Craiova", "addr:housenumber": "10", "addr:street": "Strada \u00cemp\u0103ratul Traian", "amenity": "hospital", "healthcare": "hospital", "healthcare:speciality": "dentist;dentistry;paediatric_dentistry;dental_oral_maxillo_facial_surgery;dental", "name": "Dental32- Stomatologie Copii si Adulti", "operator": "Dental 32", "operator:type": "public"}}, {"type": "node", "id": 9645292488, "lat": 44.2954978, "lon": 23.8040417}, {"type": "node", "id": 10132658184, "lat": 44.3124538, "lon": 23.7982643, "tags": {"addr:city": "Craiova", "addr:housenumber": "7", "addr:street": "Strada Bujorului", "amenity": "clinic", "name": "Oncolab"}}, {"type": "node", "id": 10827888890, "lat": 44.303211, "lon": 23.8016358}, {"type": "node", "id": 10827888891, "lat": 44.3032935, "lon": 23.8019738}, {"type": "node", "id": 10827888892, "lat": 44.3032897, "lon": 23.8016331}, {"type": "node", "id": 10827888893, "lat": 44.3033127, "lon": 23.8022768}, {"type": "node", "id": 11461048803, "lat": 44.3001608, "lon": 23.8180174}, {"type": "node", "id": 11694763167, "lat": 44.3001909, "lon": 23.8287155, "tags": {"addr:city": "Craiova", "addr:housenumber": "109", "addr:street": "Strada Caracal", "amenity": "hospital", "emergency": "no", "healthcare": "hospital", "name": "Centrul de Oncologie \"Sf\u00e2ntul Nectarie\""}}, {"type": "node", "id": 11696660562, "lat": 44.3011526, "lon": 23.829469}, {"type": "node", "id": 11696660563, "lat": 44.3008049, "lon": 23.8293822}, {"type": "node", "id": 11696734345, "lat": 44.3010986, "lon": 23.8295763}, {"type": "node", "id": 11696734346, "lat": 44.3008711, "lon": 23.82952}, {"type": "node", "id": 11696734347, "lat": 44.3008461, "lon": 23.8297131}, {"type": "node", "id": 11696734348, "lat": 44.3010734, "lon": 23.8297701}, {"type": "way", "id": 243278055, "nodes": [2507035715, 2507035716, 7358540559, 2507035717, 11461048803, 2507035720, 7358540558, 2507035721, 2507035722, 7358540557, 7358540556, 2507035724, 7358540572, 2507035715], "tags": {"addr:city": "Craiova", "addr:country": "RO", "addr:housenumber": "150", "addr:postcode": "200746", "addr:street": "Strada Caracal", "amenity": "hospital", "email": "smu_craiova@yahoo.com", "fax": "0251581444", "healthcare": "hospital", "name": "Spitalul Clinic de Urgen\u021b\u0103 Militar \"Dr. \u0218tefan Odobleja\"", "phone": "0251581081", "website": "http://www.smucraiova.ro/"}}, {"type": "way", "id": 243304401, "nodes": [2507305865, 2507305866, 7041544634, 6009346394, 6009346395, 2962411368, 8884046704, 2962411367, 7041544657, 7041544658, 2507305868, 6009346396, 6009346397, 2507305865], "tags": {"addr:city": "Craiova", "addr:housenumber": "126", "addr:street": "Calea Bucure\u0219ti", "alt_name": "Spitalul de Boli Infec\u021bioase", "amenity": "hospital", "barrier": "fence", "emergency": "yes", "healthcare": "hospital", "name": "Spitalul Clinic de Boli Infec\u021bioase \u0219i Pneumoftiziologie Dr. Victor Babe\u0219", "wheelchair": "yes"}}, {"type": "way", "id": 244050538, "nodes": [2514059092, 2514059096, 2514059098, 6391787597, 2514059102, 2514059104, 3531496089, 2514059092], "tags": {"addr:city": "Craiova", "addr:housenumber": "6", "addr:street": "Bulevardul \u0218tirbei Vod\u0103", "amenity": "hospital", "healthcare": "hospital", "name": "Spitalul CFR"}}, {"type": "way", "id": 255018015, "nodes": [2607710330, 2607710331, 2607709605, 2607710333, 2607710330], "tags": {"amenity": "clinic", "building": "house"}}, {"type": "way", "id": 292713534, "nodes": [2962468443, 2962468444, 2962468445, 8179628043, 2962468446, 6325953225, 6325953224, 2962468447, 6325953223, 6325953222, 6325953221, 2962468448, 2962468449, 2962468450, 2962480841, 2962468451, 6325953299, 6325953300, 6325953301, 2962468452, 2962468453, 2962468454, 3544925121, 2962468455, 2962468443], "tags": {"addr:city": "Craiova", "addr:housenumber": "1", "addr:postcode": "200642", "addr:street": "Strada Tabaci", "amenity": "hospital", "emergency": "yes", "healthcare": "hospital", "name": "Spitalul Clinic Jude\u021bean de Urgen\u021b\u0103", "wheelchair": "yes", "wikidata": "Q30296144"}}, {"type": "way", "id": 292801570, "nodes": [2963393556, 2963393557, 2963393558, 2963393559, 2963393560, 2963393561, 2963393562, 2963393563, 6603820254, 2963393556], "tags": {"addr:city": "Craiova", "addr:country": "RO", "addr:housenumber": "99", "addr:postcode": "200473", "addr:street": "Calea Bucure\u0219ti", "amenity": "hospital", "email": "contact@scnpc.ro", "healthcare": "hospital", "name": "Spitalul Clinic de Neuropsihiatrie", "phone": "0251431189", "website": "https://scnpc.ro/"}}, {"type": "way", "id": 292831967, "nodes": [2963925746, 2963925747, 2963925748, 2963925749, 2963925750, 2963925751, 2963925752, 2963925754, 8853798641, 2963925755, 6355254683, 8853798643, 8853798644, 2963925756, 2963925757, 2963925746], "tags": {"addr:city": "Craiova", "addr:housenumber": "1", "addr:postcode": "200143", "addr:postcode:source": "Date de la Po\u0219ta Rom\u00e2n\u0103, publicate sub Licen\u021ba pentru Guvernare Deschis\u0103 v1.0 la http://date.gov.ro/organization/posta-romana", "addr:street": "Strada Filantropiei", "amenity": "hospital", "healthcare": "hospital", "name": "Spitalul Clinic Nr.2 Filantropia"}}, {"type": "way", "id": 292835946, "nodes": [2082226179, 308980549, 2331596506, 2963965240, 2963965239, 6391729012, 2306683057, 2963966680, 2963966681, 2963966682, 2963966683, 10827888892, 10827888890, 10827888891, 10827888893, 2082226179], "tags": {"addr:city": "Craiova", "addr:street": "Strada Corneliu Coposu", "amenity": "hospital", "name": "Clinica de Pediatrie"}}, {"type": "way", "id": 292836418, "nodes": [2963960366, 2963960369, 8729052203, 8729052204, 2963960368, 8729060637, 8729060638, 8729060635, 8729060636, 8729060633, 8729060634, 8881293391, 9645292488, 2963960372, 2963960371, 2963960370, 2963960366], "tags": {"addr:housenumber": "24", "addr:street": "Aleea Potelu", "amenity": "hospital", "healthcare": "hospital", "name": "Clinica de Neuropsihiatrie"}}, {"type": "way", "id": 326761079, "nodes": [3334259404, 3334259406, 3334259414, 3334259416, 3334259425, 3334259421, 3334259433, 3334259429, 3334259419, 3334259418, 3334259405, 3334259407, 3334259409, 3334259413, 3334259410, 3334259411, 3334259404], "tags": {"addr:city": "Craiova", "addr:country": "RO", "addr:housenumber": "97", "addr:postcode": "200473", "addr:street": "Calea Bucure\u0219ti", "amenity": "clinic", "building": "yes", "name": "Stomatologie"}}, {"type": "way", "id": 347589011, "nodes": [3538379512, 3538379513, 3538379514, 3538379515, 3538379512], "tags": {"addr:city": "Craiova", "addr:housenumber": "40", "addr:postcode": "200142", "addr:street": "Bulevardul Nicolae Titulescu", "amenity": "hospital", "healthcare": "hospital", "healthcare:speciality": "general", "name": "Policlinica Spitalului Filantropia"}}, {"type": "way", "id": 352882485, "nodes": [3586693970, 3586693971, 3586693972, 3586693973, 3586693974, 3586693975, 3586693976, 3586693977, 3586693978, 3586693979, 3586693970], "tags": {"addr:city": "Craiova", "addr:housenumber": "19A", "addr:street": "Strada Doctor Nicolae Ionescu-Sise\u0219ti", "amenity": "clinic", "building": "yes", "building:levels": "3", "name": "Policlinica M&M"}}, {"type": "way", "id": 481924198, "nodes": [4748107411, 4748107412, 4748107404, 4748107410, 4748107407, 4748107403, 4748107411], "tags": {"addr:city": "Craiova", "addr:housenumber": "52", "addr:street": "Bulevardul Nicolae Titulescu", "amenity": "clinic", "building": "yes", "building:levels": "2", "healthcare": "clinic", "name": "CM Camen 2"}}, {"type": "way", "id": 503719153, "nodes": [4940021027, 4940021028, 4940021029, 4940021030, 4940021027], "tags": {"addr:city": "Craiova", "addr:housenumber": "35A", "addr:postcode": "200513", "addr:street": "Strada Spania", "amenity": "clinic", "building": "yes", "name": "CardioMed", "opening_hours": "Mo-Th 07:30-20:00; Fr 07:30-17:00", "phone": "+40 351 414 733", "website": "http://www.cardiom.ro"}}, {"type": "way", "id": 654052498, "nodes": [6129238214, 6129238217, 6129238212, 6129238218, 6129238219, 6129238213, 6129238216, 6129238215, 6129238214], "tags": {"addr:city": "Craiova", "addr:housenumber": "52", "addr:street": "Bulevardul Nicolae Titulescu", "amenity": "clinic", "building": "yes", "building:levels": "2", "healthcare": "clinic", "name": "CM Camen 1"}}, {"type": "way", "id": 685474163, "nodes": [6423815624, 6423815625, 6423815626, 6423815627, 6423815624], "tags": {"addr:city": "Craiova", "addr:housenumber": "35", "addr:street": "Strada Doljului", "amenity": "hospital", "building:levels": "2", "healthcare": "hospital", "name": "medical center"}}, {"type": "way", "id": 689699939, "nodes": [6470432974, 6470432973, 6470432972, 6470432978, 6470432975, 6470432976, 6470432977, 6470432974], "tags": {"addr:city": "Craiova", "addr:housenumber": "1", "addr:street": "Strada P\u0103ltini\u0219", "amenity": "hospital", "building": "house", "name": "Centru de Imagistic\u0103 Regina Maria"}}, {"type": "way", "id": 696688369, "nodes": [6542588627, 6542588628, 6542588629, 6542588630, 6542588631, 6542588627], "tags": {"addr:city": "Craiova", "addr:housenumber": "100", "addr:street": "Strada Anul 1848", "amenity": "clinic", "healthcare": "clinic", "name": "Vitaplus"}}, {"type": "way", "id": 732586374, "nodes": [6860077812, 6860077813, 6860077814, 6860077815, 6860077816, 6860077817, 6860077818, 6860077819, 6860077820, 6860077821, 6860077812], "tags": {"amenity": "clinic", "building": "yes", "healthcare": "clinic", "name": "Renamed"}}, {"type": "way", "id": 753659225, "nodes": [6009346394, 7041544671, 7041544672, 2962411368, 6009346395, 6009346394], "tags": {"addr:city": "Craiova", "addr:housenumber": "28", "addr:street": "Strada S\u0103rarilor", "amenity": "hospital", "healthcare": "hospital", "name": "Spitalul Municipal Filantropia"}}, {"type": "way", "id": 909026548, "nodes": [8440456158, 8440456157, 8440456156, 8440456155, 8440456158], "tags": {"addr:city": "Craiova", "addr:country": "RO", "addr:housenumber": "2G", "addr:street": "Calea Severinului", "amenity": "clinic", "building": "yes", "name": "Phoenix", "opening_hours": "Mo-Su 07:30-20:00", "operator": "Medicover", "phone": "+40351421122", "website": "https://www.medicover.ro/clinici/phoenix-severinului,63,d,178"}}, {"type": "way", "id": 956670249, "nodes": [8853766294, 8853766293, 8853766292, 8853766291, 2524166795, 2524166793, 2524166789, 8853766300, 8853766290, 8853766287, 8853766289, 8853766288, 8853766294], "tags": {"addr:city": "Craiova", "addr:housenumber": "6", "addr:street": "Bulevardul Nicolae Titulescu", "amenity": "hospital", "name": "Spitalul Clinic Municipal Filantropia"}}, {"type": "way", "id": 961017674, "nodes": [8889987547, 8889987546, 8889987545, 8889987544, 8889987547], "tags": {"addr:city": "Craiova", "addr:housenumber": "86", "addr:street": "Strada Caracal", "amenity": "clinic", "building": "yes", "name": "Centrul Medical Irina"}}, {"type": "way", "id": 1023471956, "nodes": [9438378473, 9438378472, 9438378471, 9438378467, 9438378470, 9438378469, 11696660562, 11696660563, 9438378468, 9438378474, 9438378481, 9438378473], "tags": {"addr:city": "Craiova", "addr:housenumber": "109", "addr:postcode": "200746", "addr:street": "Strada Caracal", "amenity": "hospital", "barrier": "fence", "healthcare": "hospital", "opening_hours": "Mo-Fr 08:00-20:00; Sa,Su off"}}, {"type": "way", "id": 1258141679, "nodes": [11696734345, 11696734346, 11696734347, 11696734348, 11696734345], "tags": {"addr:city": "Craiova", "addr:housenumber": "109", "addr:street": "Strada Caracal", "amenity": "hospital", "healthcare": "hospital", "name": "Centrul de Recuperare \"Sf\u00e2ntul Nectarie\""}}]}