{"version": 0.6, "generator": "Overpass API 0.7.62.1 084b4234", "osm3s": {"timestamp_osm_base": "2024-05-24T08:17:19Z", "copyright": "The data included in this document is from www.openstreetmap.org. The data is made available under ODbL."}, "elements": [{"type": "node", "id": 4418877590, "lat": 16.9199996, "lon": -15.6616491, "tags": {"addr:city": "\u0627\u0644\u0645\u0630\u0631\u0630\u0631\u0629", "amenity": "clinic", "name": "\u0645\u0631\u0643\u0632 \u0627\u0644\u0635\u062d\u0629 \u0627\u0644\u0645\u0630\u0631\u0630\u0631\u0629", "name:ar": "\u0645\u0631\u0643\u0632 \u0627\u0644\u0635\u062d\u0629 \u0627\u0644\u0645\u0630\u0631\u0630\u0631\u0629", "name:fr": "Centre de sante Mederdra"}}, {"type": "node", "id": 9659613046, "lat": 16.5107737, "lon": -15.5131268, "tags": {"addr:full": "Saint Louis", "amenity": "hospital", "contact:phone": "339531124", "electricity": "grid", "emergency": "yes", "healthcare": "hospital", "healthcare:equipment": "laboratory", "insurance:health": "public", "name": "centre de sante de dagana", "opening_hours": "24/7", "operational_status": "operational", "operator": "Minist\u00e8re de la sant\u00e9 et de l'action sociale", "operator:type": "public", "osm_id": "8eeafc2a-be28-4df6-9abe-1989acc60ceb", "source": "#senegal #covid-19 #emergency-health-data-validation #healthsites", "water_source": "powered pump", "wheelchair": "yes"}}]}