{"version": 0.6, "generator": "Overpass API 0.7.62.1 084b4234", "osm3s": {"timestamp_osm_base": "2024-05-16T16:25:45Z", "copyright": "The data included in this document is from www.openstreetmap.org. The data is made available under ODbL."}, "elements": [{"type": "node", "id": 3091961985, "lat": 46.1861146, "lon": 21.3246407}, {"type": "node", "id": 3091961986, "lat": 46.1860549, "lon": 21.3246153}, {"type": "node", "id": 3091961987, "lat": 46.1860149, "lon": 21.3248115}, {"type": "node", "id": 3091961988, "lat": 46.1860474, "lon": 21.3248935}, {"type": "node", "id": 3091961989, "lat": 46.1861691, "lon": 21.3249432}, {"type": "node", "id": 3091961990, "lat": 46.1861947, "lon": 21.3248126}, {"type": "node", "id": 3091961991, "lat": 46.1861343, "lon": 21.324788}, {"type": "node", "id": 3091961992, "lat": 46.1861169, "lon": 21.3247345}, {"type": "node", "id": 3091982345, "lat": 46.1891155, "lon": 21.3217789}, {"type": "node", "id": 3091982346, "lat": 46.1888211, "lon": 21.3220214}, {"type": "node", "id": 3091982347, "lat": 46.1887377, "lon": 21.3218101}, {"type": "node", "id": 3091982348, "lat": 46.189032, "lon": 21.3215675}, {"type": "node", "id": 3095210205, "lat": 46.19601, "lon": 21.3011337}, {"type": "node", "id": 3095210206, "lat": 46.1956239, "lon": 21.3007958}, {"type": "node", "id": 3095210207, "lat": 46.1956151, "lon": 21.3008168}, {"type": "node", "id": 3095210208, "lat": 46.1955772, "lon": 21.3007836}, {"type": "node", "id": 3095210209, "lat": 46.1955278, "lon": 21.3009012}, {"type": "node", "id": 3095210210, "lat": 46.1955761, "lon": 21.3009434}, {"type": "node", "id": 3095210211, "lat": 46.1955697, "lon": 21.3009586}, {"type": "node", "id": 3095210212, "lat": 46.1959456, "lon": 21.3012875}, {"type": "node", "id": 3096012367, "lat": 46.1829539, "lon": 21.3065646}, {"type": "node", "id": 3096012368, "lat": 46.1828554, "lon": 21.306463}, {"type": "node", "id": 3096012369, "lat": 46.1828042, "lon": 21.3065666}, {"type": "node", "id": 3096012370, "lat": 46.1827635, "lon": 21.3065247}, {"type": "node", "id": 3096012371, "lat": 46.1826894, "lon": 21.3066747}, {"type": "node", "id": 3096012372, "lat": 46.182699, "lon": 21.3066846}, {"type": "node", "id": 3096012373, "lat": 46.1826456, "lon": 21.3067926}, {"type": "node", "id": 3096012374, "lat": 46.18263, "lon": 21.3067766}, {"type": "node", "id": 3096012375, "lat": 46.1825884, "lon": 21.3068607}, {"type": "node", "id": 3096012376, "lat": 46.1827448, "lon": 21.3070219}, {"type": "node", "id": 3096012377, "lat": 46.1828158, "lon": 21.3068782}, {"type": "node", "id": 3096012378, "lat": 46.1828047, "lon": 21.3068668}, {"type": "node", "id": 3096072316, "lat": 46.1931639, "lon": 21.2984348}, {"type": "node", "id": 3096072317, "lat": 46.1930415, "lon": 21.2985153}, {"type": "node", "id": 3096072318, "lat": 46.1930888, "lon": 21.2986652}, {"type": "node", "id": 3096072319, "lat": 46.1931384, "lon": 21.298701}, {"type": "node", "id": 3096072320, "lat": 46.1931824, "lon": 21.298701}, {"type": "node", "id": 3096072321, "lat": 46.1932366, "lon": 21.2986654}, {"type": "node", "id": 3096079931, "lat": 46.1979526, "lon": 21.2990784}, {"type": "node", "id": 3096079932, "lat": 46.1977883, "lon": 21.2992469}, {"type": "node", "id": 3096079933, "lat": 46.1977718, "lon": 21.2992135}, {"type": "node", "id": 3096079934, "lat": 46.1977044, "lon": 21.2992828}, {"type": "node", "id": 3096079935, "lat": 46.1977275, "lon": 21.2993297}, {"type": "node", "id": 3096079936, "lat": 46.197646, "lon": 21.2994135}, {"type": "node", "id": 3096079937, "lat": 46.1976204, "lon": 21.2993617}, {"type": "node", "id": 3096079938, "lat": 46.1976071, "lon": 21.2993755}, {"type": "node", "id": 3096079939, "lat": 46.1975226, "lon": 21.2992047}, {"type": "node", "id": 3096079940, "lat": 46.1975356, "lon": 21.2991913}, {"type": "node", "id": 3096079941, "lat": 46.1974965, "lon": 21.2991125}, {"type": "node", "id": 3096079942, "lat": 46.1975753, "lon": 21.2990311}, {"type": "node", "id": 3096079943, "lat": 46.1976747, "lon": 21.2992316}, {"type": "node", "id": 3096079944, "lat": 46.1977585, "lon": 21.2991448}, {"type": "node", "id": 3096079945, "lat": 46.1977368, "lon": 21.299101}, {"type": "node", "id": 3096079946, "lat": 46.1977224, "lon": 21.2991159}, {"type": "node", "id": 3096079947, "lat": 46.1976436, "lon": 21.298957}, {"type": "node", "id": 3096079948, "lat": 46.1976228, "lon": 21.2989785}, {"type": "node", "id": 3096079949, "lat": 46.1976016, "lon": 21.2989358}, {"type": "node", "id": 3096079950, "lat": 46.1976222, "lon": 21.2989145}, {"type": "node", "id": 3096079951, "lat": 46.1975899, "lon": 21.2988495}, {"type": "node", "id": 3096079952, "lat": 46.1976484, "lon": 21.2987889}, {"type": "node", "id": 3096079953, "lat": 46.1977029, "lon": 21.2988988}, {"type": "node", "id": 3096079954, "lat": 46.1977697, "lon": 21.298797}, {"type": "node", "id": 3096079955, "lat": 46.197927, "lon": 21.2990263}, {"type": "node", "id": 3096079956, "lat": 46.1979646, "lon": 21.2989878}, {"type": "node", "id": 3096079957, "lat": 46.1979403, "lon": 21.2989382}, {"type": "node", "id": 3096079958, "lat": 46.1979206, "lon": 21.2989583}, {"type": "node", "id": 3096079959, "lat": 46.1979045, "lon": 21.2989254}, {"type": "node", "id": 3096079960, "lat": 46.1979196, "lon": 21.29891}, {"type": "node", "id": 3096079961, "lat": 46.1978519, "lon": 21.2987716}, {"type": "node", "id": 3096079962, "lat": 46.1978225, "lon": 21.2988016}, {"type": "node", "id": 3096079963, "lat": 46.1978034, "lon": 21.2987626}, {"type": "node", "id": 3096079964, "lat": 46.1977753, "lon": 21.2988239}, {"type": "node", "id": 3096079989, "lat": 46.1980819, "lon": 21.2988151}, {"type": "node", "id": 3096079990, "lat": 46.1979527, "lon": 21.2985712}, {"type": "node", "id": 3096079991, "lat": 46.197974, "lon": 21.2985477}, {"type": "node", "id": 3096079992, "lat": 46.1979193, "lon": 21.2984444}, {"type": "node", "id": 3096079993, "lat": 46.1977367, "lon": 21.2986462}, {"type": "node", "id": 3096079994, "lat": 46.1977843, "lon": 21.2987361}, {"type": "node", "id": 3096079995, "lat": 46.1978233, "lon": 21.298693}, {"type": "node", "id": 3096079996, "lat": 46.1978809, "lon": 21.2988019}, {"type": "node", "id": 3096079997, "lat": 46.197939, "lon": 21.2987377}, {"type": "node", "id": 3096079998, "lat": 46.1980176, "lon": 21.2988862}, {"type": "node", "id": 3096099065, "lat": 46.1794403, "lon": 21.3214316}, {"type": "node", "id": 3096099066, "lat": 46.1792121, "lon": 21.3212493}, {"type": "node", "id": 3096099067, "lat": 46.1791448, "lon": 21.3212453}, {"type": "node", "id": 3096099068, "lat": 46.1790025, "lon": 21.3216348}, {"type": "node", "id": 3096099069, "lat": 46.1790658, "lon": 21.3216962}, {"type": "node", "id": 3096099070, "lat": 46.1791108, "lon": 21.3217434}, {"type": "node", "id": 3096099071, "lat": 46.1791676, "lon": 21.3217941}, {"type": "node", "id": 3096099072, "lat": 46.1792114, "lon": 21.3215543}, {"type": "node", "id": 3096099073, "lat": 46.1791787, "lon": 21.3215308}, {"type": "node", "id": 3096099074, "lat": 46.1792544, "lon": 21.3215084}, {"type": "node", "id": 3096099075, "lat": 46.1793819, "lon": 21.3215847}, {"type": "node", "id": 3099970728, "lat": 46.1820378, "lon": 21.319326}, {"type": "node", "id": 3099974129, "lat": 46.1819312, "lon": 21.3192448}, {"type": "node", "id": 3099974130, "lat": 46.18187, "lon": 21.3194179}, {"type": "node", "id": 3099974131, "lat": 46.1819732, "lon": 21.3194941}, {"type": "node", "id": 3099974132, "lat": 46.1819988, "lon": 21.3194218}, {"type": "node", "id": 3099974133, "lat": 46.1819799, "lon": 21.3194078}, {"type": "node", "id": 3099974134, "lat": 46.1819942, "lon": 21.3193675}, {"type": "node", "id": 3099974135, "lat": 46.1820157, "lon": 21.3193833}, {"type": "node", "id": 3099983350, "lat": 46.181937, "lon": 21.3192481}, {"type": "node", "id": 3130602374, "lat": 46.1830959, "lon": 21.3072347}, {"type": "node", "id": 3130602375, "lat": 46.1830114, "lon": 21.3071492}, {"type": "node", "id": 3130602376, "lat": 46.1831203, "lon": 21.3069244}, {"type": "node", "id": 3130602377, "lat": 46.1835795, "lon": 21.3073888}, {"type": "node", "id": 3130602378, "lat": 46.1834589, "lon": 21.3076376}, {"type": "node", "id": 3130602379, "lat": 46.1833805, "lon": 21.3075583}, {"type": "node", "id": 3130602380, "lat": 46.1834374, "lon": 21.3074409}, {"type": "node", "id": 3130602381, "lat": 46.1833559, "lon": 21.3073585}, {"type": "node", "id": 3130602382, "lat": 46.1833219, "lon": 21.3074287}, {"type": "node", "id": 3130602383, "lat": 46.1832482, "lon": 21.3073542}, {"type": "node", "id": 3130602384, "lat": 46.1832813, "lon": 21.3072858}, {"type": "node", "id": 3130602385, "lat": 46.1831403, "lon": 21.3071432}, {"type": "node", "id": 3130602404, "lat": 46.1833396, "lon": 21.3076426}, {"type": "node", "id": 3130602405, "lat": 46.1832581, "lon": 21.3075602}, {"type": "node", "id": 3130602406, "lat": 46.1831854, "lon": 21.3074837}, {"type": "node", "id": 3130602407, "lat": 46.1830444, "lon": 21.3073411}, {"type": "node", "id": 3130602408, "lat": 46.182903, "lon": 21.3073728}, {"type": "node", "id": 3130602409, "lat": 46.1833621, "lon": 21.3078372}, {"type": "node", "id": 3153613107, "lat": 46.1796793, "lon": 21.3168962, "tags": {"addr:city": "Arad", "addr:housenumber": "10", "addr:street": "Pia\u021ba Mihai Viteazul", "amenity": "clinic", "name": "Spitalul Clinic Municipal Sec\u021bia Oncologie"}}, {"type": "node", "id": 3153613390, "lat": 46.1795928, "lon": 21.3171531, "tags": {"addr:city": "Arad", "addr:housenumber": "10", "addr:street": "Pia\u021ba Mihai Viteazul", "amenity": "clinic", "name": "Spitalul Clinic Municipal Sec\u021bia Dermatovenerologie"}}, {"type": "node", "id": 3160254684, "lat": 46.1831643, "lon": 21.3211848}, {"type": "node", "id": 3160254685, "lat": 46.1830826, "lon": 21.3210962}, {"type": "node", "id": 3160254686, "lat": 46.1828245, "lon": 21.3215549}, {"type": "node", "id": 3160254687, "lat": 46.1826555, "lon": 21.3213457}, {"type": "node", "id": 3160254688, "lat": 46.1824642, "lon": 21.3216407}, {"type": "node", "id": 3160254689, "lat": 46.1826388, "lon": 21.3218875}, {"type": "node", "id": 3160254690, "lat": 46.1827706, "lon": 21.321689}, {"type": "node", "id": 3160254691, "lat": 46.1828059, "lon": 21.3217319}, {"type": "node", "id": 3160254692, "lat": 46.1829972, "lon": 21.3213966}, {"type": "node", "id": 3160254693, "lat": 46.1830548, "lon": 21.3214664}, {"type": "node", "id": 3160382046, "lat": 46.1832747, "lon": 21.320262}, {"type": "node", "id": 3160382047, "lat": 46.1833567, "lon": 21.3200493}, {"type": "node", "id": 3160382048, "lat": 46.1832903, "lon": 21.3199959}, {"type": "node", "id": 3160382049, "lat": 46.1832083, "lon": 21.3202087}, {"type": "node", "id": 3160826128, "lat": 46.1802646, "lon": 21.3188672}, {"type": "node", "id": 3160826129, "lat": 46.1801916, "lon": 21.3188067}, {"type": "node", "id": 3160826130, "lat": 46.1801281, "lon": 21.3189667}, {"type": "node", "id": 3160826131, "lat": 46.1800423, "lon": 21.3188956}, {"type": "node", "id": 3160826132, "lat": 46.180002, "lon": 21.3189972}, {"type": "node", "id": 3160826133, "lat": 46.1800929, "lon": 21.3190726}, {"type": "node", "id": 3160826134, "lat": 46.1800332, "lon": 21.319223}, {"type": "node", "id": 3160826135, "lat": 46.180101, "lon": 21.3192792}, {"type": "node", "id": 4317970789, "lat": 46.1892495, "lon": 21.3034334, "tags": {"addr:housenumber": "49", "addr:street": "Strada Cocorilor", "amenity": "clinic", "email": "office@red-medica.ro", "name": "REDMEDICA", "phone": "0753372489", "website": "www.red-medica.ro"}}, {"type": "node", "id": 4362598889, "lat": 46.177087, "lon": 21.2981925, "tags": {"addr:city": "Arad", "addr:housenumber": "52", "addr:street": "Strada Roman Ciorogariu", "amenity": "clinic", "email": "policlinicadoctorturcin@gmail.com", "fax": "+40 0257 250 332", "healthcare": "clinic", "healthcare:speciality": "general;ophthalmology;internal;psychiatry;cardiology", "name": "Policlinica Doctor Turcin", "opening_hours": "Mo-Sa 08:00-18:00", "phone": "+40 0257 285 510", "website": "https://www.policlinicaturcin.ro/"}}, {"type": "node", "id": 4695536690, "lat": 46.1749858, "lon": 21.3470213, "tags": {"addr:city": "Arad", "addr:street": "Strada Doctor Cornel Radu", "amenity": "clinic", "contact:email": "arad@affidea.com", "contact:phone": "+40 21 9338", "contact:website": "https://affidea.ro/centre-medicale/affidea-arad", "healthcare": "clinic", "name": "Affidea", "opening_hours": "Mo-Fr 08:00-20:00"}}, {"type": "node", "id": 5158712521, "lat": 46.1681621, "lon": 21.3535964, "tags": {"amenity": "clinic", "name": "Bioclinica", "website": "https://bioclinica.ro/locatii/arad/laborator-central-arad"}}, {"type": "node", "id": 5159462121, "lat": 46.1828373, "lon": 21.3105808, "tags": {"amenity": "clinic", "name": "Synevo", "website": "https://www.synevo.ro/"}}, {"type": "node", "id": 5176013922, "lat": 46.1766604, "lon": 21.3492916, "tags": {"addr:street": "Strada Abrud", "amenity": "clinic", "name": "Cabinet Medical"}}, {"type": "node", "id": 6105853086, "lat": 46.1692871, "lon": 21.2992888, "tags": {"addr:housenumber": "160", "addr:street": "Strada Oituz", "amenity": "clinic", "name": "Ayedent"}}, {"type": "node", "id": 8582774617, "lat": 46.1954415, "lon": 21.301998, "tags": {"addr:street": "Strada Fulgerului", "amenity": "clinic", "name": "Bioclinica analize medicale"}}, {"type": "node", "id": 8647709218, "lat": 46.1961876, "lon": 21.2991897, "tags": {"addr:street": "Calea Aurel Vlaicu", "amenity": "clinic", "name": "Synevo"}}, {"type": "node", "id": 8671931017, "lat": 46.1894616, "lon": 21.3293598, "tags": {"addr:street": "Strada Petru Rare\u0219", "amenity": "clinic", "name": "Oma clinic\u0103 ortodontic\u0103"}}, {"type": "node", "id": 10026039650, "lat": 46.1682041, "lon": 21.3167983, "tags": {"addr:city": "Arad", "addr:housenumber": "3", "addr:street": "Strada Cozia", "amenity": "clinic", "healthcare": "clinic", "healthcare:speciality": "urology;gynaecology;general", "name": "Clinica City Med", "opening_hours": "Mo-Fr 08:00-20:00", "phone": "0743993322", "website": "https://www.romedic.ro/citymed"}}, {"type": "way", "id": 304620616, "nodes": [3091961985, 3091961986, 3091961987, 3091961988, 3091961989, 3091961990, 3091961991, 3091961992, 3091961985], "tags": {"addr:city": "Arad", "addr:housenumber": "10", "addr:postcode": "310144", "addr:postcode:source": "Date de la Po\u0219ta Rom\u00e2n\u0103, publicate sub Licen\u021ba pentru Guvernare Deschis\u0103 v1.0 la http://date.gov.ro/organization/posta-romana", "addr:street": "Bulevardul Revolu\u021biei", "amenity": "clinic", "building": "yes", "name": "MEDIQA Centru Medical", "opening_hours": "Mo-Fr 08:00-20:00; Sa-Su 08:00-14:00"}}, {"type": "way", "id": 304623345, "nodes": [3091982345, 3091982346, 3091982347, 3091982348, 3091982345], "tags": {"addr:city": "Arad", "addr:housenumber": "41-43A", "addr:postcode": "310141", "addr:street": "Calea Aurel Vlaicu", "amenity": "clinic", "building": "yes", "name": "B Braun Centru de Dializ\u0103"}}, {"type": "way", "id": 304951003, "nodes": [3095210205, 3095210206, 3095210207, 3095210208, 3095210209, 3095210210, 3095210211, 3095210212, 3095210205], "tags": {"addr:city": "Arad", "addr:housenumber": "138-140", "addr:postcode": "310365", "addr:postcode:source": "Date de la Po\u0219ta Rom\u00e2n\u0103, publicate sub Licen\u021ba pentru Guvernare Deschis\u0103 v1.0 la http://date.gov.ro/organization/posta-romana", "addr:street": "Calea Aurel Vlaicu", "amenity": "clinic", "building": "yes", "name": "Infomedica"}}, {"type": "way", "id": 305036605, "nodes": [3096012367, 3096012368, 3096012369, 3096012370, 3096012371, 3096012372, 3096012373, 3096012374, 3096012375, 3096012376, 3096012377, 3096012378, 3096012367], "tags": {"addr:city": "Arad", "addr:housenumber": "2/4", "addr:street": "Strada Andreyi Karoly", "amenity": "clinic", "building": "yes", "name": "Centrul de Transfuzie Sanguin\u0103"}}, {"type": "way", "id": 305043556, "nodes": [3096072316, 3096072317, 3096072318, 3096072319, 3096072320, 3096072321, 3096072316], "tags": {"addr:city": "Arad", "addr:housenumber": "42", "addr:postcode": "310389", "addr:postcode:source": "Date de la Po\u0219ta Rom\u00e2n\u0103, publicate sub Licen\u021ba pentru Guvernare Deschis\u0103 v1.0 la http://date.gov.ro/organization/posta-romana", "addr:street": "Strada Constantin Br\u00e2ncu\u0219i", "amenity": "clinic", "building": "yes", "name": "Policlinica Vlaicu"}}, {"type": "way", "id": 305044234, "nodes": [3096079931, 3096079932, 3096079933, 3096079934, 3096079935, 3096079936, 3096079937, 3096079938, 3096079939, 3096079940, 3096079941, 3096079942, 3096079943, 3096079944, 3096079945, 3096079946, 3096079947, 3096079948, 3096079949, 3096079950, 3096079951, 3096079952, 3096079953, 3096079964, 3096079954, 3096079963, 3096079962, 3096079961, 3096079960, 3096079959, 3096079958, 3096079957, 3096079956, 3096079955, 3096079931], "tags": {"addr:city": "Arad", "addr:housenumber": "3", "addr:postcode": "310360", "addr:postcode:source": "Date de la Po\u0219ta Rom\u00e2n\u0103, publicate sub Licen\u021ba pentru Guvernare Deschis\u0103 v1.0 la http://date.gov.ro/organization/posta-romana", "addr:street": "Strada C\u0103l\u0103ra\u0219ilor", "amenity": "clinic", "building": "yes", "layer": "1", "name": "Complex Stomatologic"}}, {"type": "way", "id": 305044435, "nodes": [3096079989, 3096079990, 3096079991, 3096079992, 3096079993, 3096079994, 3096079995, 3096079996, 3096079997, 3096079998, 3096079989], "tags": {"amenity": "clinic", "building": "yes", "layer": "1"}}, {"type": "way", "id": 305045190, "nodes": [3096099065, 3096099066, 3096099067, 3096099068, 3096099069, 3096099070, 3096099071, 3096099072, 3096099073, 3096099074, 3096099075, 3096099065], "tags": {"addr:city": "Arad", "addr:housenumber": "45", "addr:postcode": "310181", "addr:postcode:source": "Date de la Po\u0219ta Rom\u00e2n\u0103, publicate sub Licen\u021ba pentru Guvernare Deschis\u0103 v1.0 la http://date.gov.ro/organization/posta-romana", "addr:street": "Bulevardul Revolu\u021biei", "amenity": "clinic", "building": "yes", "name": "Policlinica Municipal\u0103"}}, {"type": "way", "id": 305375276, "nodes": [3099970728, 3099983350, 3099974129, 3099974130, 3099974131, 3099974132, 3099974133, 3099974134, 3099974135, 3099970728], "tags": {"addr:city": "Arad", "addr:housenumber": "16", "addr:postcode": "310011", "addr:postcode:source": "Date de la Po\u0219ta Rom\u00e2n\u0103, publicate sub Licen\u021ba pentru Guvernare Deschis\u0103 v1.0 la http://date.gov.ro/organization/posta-romana", "addr:street": "Strada Andrei Mure\u0219anu", "amenity": "clinic", "building": "yes", "name": "Labormed"}}, {"type": "way", "id": 307819186, "nodes": [3130602374, 3130602375, 3130602376, 3130602377, 3130602378, 3130602379, 3130602380, 3130602381, 3130602382, 3130602383, 3130602384, 3130602385, 3130602374], "tags": {"addr:city": "Arad", "addr:housenumber": "2-4", "addr:street": "Strada Andreyi Karoly", "amenity": "clinic", "building": "yes", "name": "Serviciul Jude\u021bean de Medicin\u0103 Legal\u0103"}}, {"type": "way", "id": 307819449, "nodes": [3130602379, 3130602404, 3130602405, 3130602382, 3130602383, 3130602406, 3130602407, 3130602374, 3130602375, 3130602408, 3130602409, 3130602378, 3130602379], "tags": {"addr:city": "Arad", "addr:housenumber": "2-4", "addr:street": "Strada Andreyi Karoly", "amenity": "clinic", "building": "yes", "name": "Policlinica Jude\u021bean\u0103"}}, {"type": "way", "id": 310581449, "nodes": [3160254684, 3160254685, 3160254686, 3160254687, 3160254688, 3160254689, 3160254690, 3160254691, 3160254692, 3160254693, 3160254684], "tags": {"addr:city": "Arad", "addr:housenumber": "28", "addr:postcode": "310010", "addr:postcode:source": "Date de la Po\u0219ta Rom\u00e2n\u0103, publicate sub Licen\u021ba pentru Guvernare Deschis\u0103 v1.0 la http://date.gov.ro/organization/posta-romana", "addr:street": "Strada Tudor Vladimirescu", "amenity": "clinic", "building": "yes", "healthcare": "clinic", "name": "Centrul Medical Mediar"}}, {"type": "way", "id": 310596285, "nodes": [3160382046, 3160382047, 3160382048, 3160382049, 3160382046], "tags": {"addr:city": "Arad", "addr:housenumber": "39A", "addr:postcode": "310010", "addr:postcode:source": "Date de la Po\u0219ta Rom\u00e2n\u0103, publicate sub Licen\u021ba pentru Guvernare Deschis\u0103 v1.0 la http://date.gov.ro/organization/posta-romana", "addr:street": "Strada Tudor Vladimirescu", "amenity": "clinic", "building": "yes", "name": "Medfemme"}}, {"type": "way", "id": 310627979, "nodes": [3160826128, 3160826129, 3160826130, 3160826131, 3160826132, 3160826133, 3160826134, 3160826135, 3160826128], "tags": {"addr:city": "Arad", "addr:housenumber": "8-10", "addr:postcode": "310010", "addr:postcode:source": "Date de la Po\u0219ta Rom\u00e2n\u0103, publicate sub Licen\u021ba pentru Guvernare Deschis\u0103 v1.0 la http://date.gov.ro/organization/posta-romana", "addr:street": "Strada Tudor Vladimirescu", "amenity": "clinic", "building": "yes", "name": "CRRCH Centru de Recuperare \u0219i Reabilitare pentru Copii cu Handicap"}}]}