{"version": 0.6, "generator": "Overpass API 0.7.62.1 084b4234", "osm3s": {"timestamp_osm_base": "2024-05-23T15:35:08Z", "copyright": "The data included in this document is from www.openstreetmap.org. The data is made available under ODbL."}, "elements": [{"type": "node", "id": 339071379, "lat": 45.1558965, "lon": 26.8164794, "tags": {"addr:city": "Buz\u0103u", "addr:street": "Strada Transilvaniei", "amenity": "clinic", "brand": "Clinica Sante", "brand:wikidata": "Q121080834", "healthcare": "sample_collection", "name": "Clinica Sante", "opening_hours": "Mo-Fr 07:00-16:00"}}, {"type": "node", "id": 339071381, "lat": 45.1552869, "lon": 26.8166403, "tags": {"amenity": "clinic", "brand": "Synevo", "brand:wikidata": "Q85968400", "healthcare": "laboratory", "name": "Synevo", "opening_hours": "Mo-Fr 07:00-15:00", "operator": "Synevo", "phone": "0219666", "website": "https://www.synevo.ro/"}}, {"type": "node", "id": 3685425463, "lat": 45.149039, "lon": 26.8271439}, {"type": "node", "id": 3685425464, "lat": 45.1488002, "lon": 26.8270613}, {"type": "node", "id": 3685425465, "lat": 45.1487899, "lon": 26.827121}, {"type": "node", "id": 3685425466, "lat": 45.1487208, "lon": 26.8270971}, {"type": "node", "id": 3685425467, "lat": 45.1487302, "lon": 26.8270421}, {"type": "node", "id": 3685425468, "lat": 45.1485686, "lon": 26.8269862}, {"type": "node", "id": 3685425469, "lat": 45.1484636, "lon": 26.8275971}, {"type": "node", "id": 3685425470, "lat": 45.1486206, "lon": 26.8276513}, {"type": "node", "id": 3685425471, "lat": 45.1486575, "lon": 26.8274362}, {"type": "node", "id": 3685425472, "lat": 45.1487281, "lon": 26.8274605}, {"type": "node", "id": 3685425473, "lat": 45.1487148, "lon": 26.8275378}, {"type": "node", "id": 3685425474, "lat": 45.1489568, "lon": 26.8276215}, {"type": "node", "id": 4036787810, "lat": 45.1522721, "lon": 26.8187736, "tags": {"addr:city": "Buz\u0103u", "addr:street": "Strada Trandafirilor", "amenity": "clinic", "cuisine": "regional;kebab", "healthcare": "clinic", "healthcare:speciality": "cardiology;neurology;endocrinologie;diabetology", "name": "Clinica Medicard"}}, {"type": "node", "id": 4896757686, "lat": 45.1464831, "lon": 26.8043961, "tags": {"addr:street": "Bulevardul Mare\u0219al Alexandru Averescu", "amenity": "clinic", "name": "CLINICA SF MARIA"}}, {"type": "node", "id": 5162699521, "lat": 45.1502627, "lon": 26.8017399, "tags": {"amenity": "clinic", "name": "Centru Dializ\u0103", "name:ro": "Centru Dializ\u0103"}}, {"type": "node", "id": 5162699522, "lat": 45.1597146, "lon": 26.8120874, "tags": {"amenity": "clinic", "name": "Cabinet obstetric\u0103 ginecologie \u0218uteu", "name:ro": "Cabinet obstetric\u0103 ginecologie \u0218uteu"}}, {"type": "node", "id": 9610390182, "lat": 45.1518754, "lon": 26.8210249, "tags": {"amenity": "clinic", "healthcare": "clinic", "healthcare:speciality": "stomatology;dentist", "name": "Siro Dent"}}, {"type": "node", "id": 10221026743, "lat": 45.1534908, "lon": 26.8159525, "tags": {"addr:city": "Buz\u0103u", "addr:housenumber": "18", "addr:street": "Strada Miori\u021bei", "amenity": "clinic", "healthcare": "clinic", "healthcare:speciality": "dental;oral_&_maxillofacial_surgery", "name": "Clinica Medical\u0103 Razedent", "operator": "Razedent", "operator:type": "private"}}, {"type": "node", "id": 10816261093, "lat": 45.1625145, "lon": 26.8156809, "tags": {"amenity": "clinic", "healthcare": "clinic", "healthcare:speciality": "paediatrics", "name": "Fizio clinic"}}, {"type": "node", "id": 10816290085, "lat": 45.165098, "lon": 26.8171716, "tags": {"amenity": "clinic", "healthcare": "clinic", "healthcare:speciality": "paediatrics", "name": "Clinica de pediatrie IVY Kids"}}, {"type": "node", "id": 10816290091, "lat": 45.1660331, "lon": 26.8176045, "tags": {"amenity": "clinic", "healthcare": "clinic", "healthcare:speciality": "gynaecology", "name": "Cabinet Obstetric\u0103 \u0219i Ginecologie"}}, {"type": "node", "id": 11556135972, "lat": 45.1545818, "lon": 26.821524, "tags": {"amenity": "clinic", "healthcare": "clinic", "name": "Revital Med Buz\u0103u"}}, {"type": "way", "id": 364502092, "nodes": [3685425463, 3685425464, 3685425465, 3685425466, 3685425467, 3685425468, 3685425469, 3685425470, 3685425471, 3685425472, 3685425473, 3685425474, 3685425463], "tags": {"addr:city": "Buz\u0103u", "addr:housenumber": "18", "addr:postcode": "120209", "addr:street": "Strada Victoriei", "amenity": "clinic", "building": "hospital", "building:levels": "2", "ele": "4", "healthcare": "clinic", "healthcare:speciality": "maternity", "name": "Maternitatea Buz\u0103u", "opening_hours": "24/7", "operator": "SPITALUL JUDE\u021aEAN DE URGEN\u021a\u0102 BUZ\u0102U", "operator:type": "public", "phone": "0238720282", "website": "https://www.spitalulbuzau.ro"}}]}