{"version": 0.6, "generator": "Overpass API 0.7.62.1 084b4234", "osm3s": {"timestamp_osm_base": "2024-05-22T14:04:49Z", "copyright": "The data included in this document is from www.openstreetmap.org. The data is made available under ODbL."}, "elements": [{"type": "node", "id": 1495075440, "lat": 44.85877, "lon": 24.8674639, "tags": {"addr:city": "Pite\u0219ti", "addr:housenumber": "2", "addr:postcode": "110047", "addr:street": "Strada C\u0103linescu Armand", "amenity": "clinic", "description": "Clinica stomatologica romano-suedeza", "ele": "300", "email": "contact@iecenter.ro", "fax": "+40 348 439 771", "healthcare": "clinic", "healthcare:speciality": "orthodontics;dentist", "level": "3", "name": "Implant & Esthetic Center", "phone": "+40 348 44 0022", "website": "https://iecenter.ro/"}}, {"type": "node", "id": 1495075491, "lat": 44.8501207, "lon": 24.8644623}, {"type": "node", "id": 1495075506, "lat": 44.8711954, "lon": 24.8442117, "tags": {"addr:city": "Pite\u0219ti", "addr:housenumber": "M3A", "amenity": "clinic", "healthcare": "clinic", "name": "Centrul Medical \u201eNatisan\u201d", "name:en": "Medical Center \u201eNatisan\u201d", "opening_hours": "Mo-Fr 08:00-18:00", "phone": "0248289865", "website": "http://ofice@natisan.ro"}}, {"type": "node", "id": 1495076011, "lat": 44.8550932, "lon": 24.8622915, "tags": {"addr:city": "Pite\u0219ti", "addr:housenumber": "58", "addr:postcode": "110046", "addr:street": "Strada Smeurei", "amenity": "clinic", "email": "info@medicaltours.ro", "healthcare": "clinic", "name": "Stomatologia Medical Tour Company", "opening_hours": "Mo-Fr 09:00-21:00; Sa 09:00-14:00", "phone": "+40 348-457 046, +40 730-030 400", "website": "www.medicaltours.ro"}}, {"type": "node", "id": 1495081983, "lat": 44.8503619, "lon": 24.8645479}, {"type": "node", "id": 1495083333, "lat": 44.8502076, "lon": 24.8646112}, {"type": "node", "id": 1495084796, "lat": 44.8503032, "lon": 24.8646161}, {"type": "node", "id": 1495087807, "lat": 44.850063, "lon": 24.8643355}, {"type": "node", "id": 1495090428, "lat": 44.8501673, "lon": 24.8642144}, {"type": "node", "id": 1495094227, "lat": 44.8500785, "lon": 24.864431}, {"type": "node", "id": 1495098031, "lat": 44.8501064, "lon": 24.8644788}, {"type": "node", "id": 1495098324, "lat": 44.8501025, "lon": 24.8644031}, {"type": "node", "id": 1495101521, "lat": 44.8502629, "lon": 24.864547}, {"type": "node", "id": 3254997240, "lat": 44.8577766, "lon": 24.8757041}, {"type": "node", "id": 3254997691, "lat": 44.8573127, "lon": 24.8764846}, {"type": "node", "id": 3254997757, "lat": 44.8574363, "lon": 24.8766241}, {"type": "node", "id": 3254997835, "lat": 44.8579211, "lon": 24.875849}, {"type": "node", "id": 5761328587, "lat": 44.8616238, "lon": 24.8691018, "tags": {"addr:city": "Pite\u0219ti", "addr:housenumber": "63", "addr:postcode": "110121", "addr:street": "Bulevardul I. C. Br\u0103tianu", "amenity": "clinic", "healthcare": "clinic", "healthcare:speciality": "gynaecology;ophthalmology;internal;paediatrics;orthopaedics;psychiatry;dermatology;urology;neurology", "name": "Centrul de Diagnostic \u0219i Tratament Br\u0103tianu"}}, {"type": "node", "id": 10596740056, "lat": 44.8591519, "lon": 24.8703466, "tags": {"addr:city": "Pite\u0219ti", "amenity": "clinic", "healthcare": "clinic", "name": "Dr. Nata\u0219a Neni\u021boiu Clinic\u0103 Ginecologic\u0103"}}, {"type": "way", "id": 136266477, "nodes": [1495090428, 1495081983, 1495084796, 1495101521, 1495083333, 1495075491, 1495098031, 1495094227, 1495098324, 1495087807, 1495090428], "tags": {"addr:city": "Pite\u0219ti", "amenity": "clinic", "building": "yes", "building:levels": "3", "healthcare": "clinic", "name": "Centrul Medical \u201eDoctor Luca\u201d"}}, {"type": "way", "id": 608037803, "nodes": [3254997240, 3254997691, 3254997757, 3254997835, 3254997240], "tags": {"addr:city": "Pite\u0219ti", "addr:street": "Bulevardul I. C. Br\u0103tianu", "amenity": "clinic", "building": "yes", "healthcare": "clinic", "healthcare:speciality": "general", "name": "Policlinica nr. 2"}}]}