{"version": 0.6, "generator": "Overpass API 0.7.62.1 084b4234", "osm3s": {"timestamp_osm_base": "2024-05-23T16:09:33Z", "copyright": "The data included in this document is from www.openstreetmap.org. The data is made available under ODbL."}, "elements": [{"type": "node", "id": 6258475883, "lat": 44.4586687, "lon": 26.201878}, {"type": "node", "id": 6258475884, "lat": 44.4585289, "lon": 26.2017922}, {"type": "node", "id": 6258476785, "lat": 44.458626, "lon": 26.201482}, {"type": "node", "id": 6258476786, "lat": 44.4587658, "lon": 26.2015678}, {"type": "node", "id": 6258807914, "lat": 44.4512444, "lon": 26.2059733, "tags": {"addr:street": "Strada Miori\u021bei", "amenity": "clinic"}}, {"type": "node", "id": 6343657715, "lat": 44.4575559, "lon": 26.2814878}, {"type": "node", "id": 6343657716, "lat": 44.4562536, "lon": 26.2810608}, {"type": "node", "id": 6343657717, "lat": 44.4562536, "lon": 26.2827766}, {"type": "node", "id": 6343657718, "lat": 44.4575836, "lon": 26.2823651}, {"type": "way", "id": 668317411, "nodes": [6258476786, 6258475883, 6258475884, 6258476785, 6258476786], "tags": {"addr:street": "Drumul G\u0103rii", "amenity": "clinic", "building": "service", "name": "Asocia\u021bia Miscarea Pentru Pantelimon"}}, {"type": "way", "id": 677497758, "nodes": [6343657715, 6343657716, 6343657717, 6343657718, 6343657715], "tags": {"addr:city": "Pantelimon", "addr:housenumber": "2", "addr:postcode": "077145", "addr:street": "Strada Cozieni", "amenity": "hospital", "healthcare": "hospital", "healthcare:speciality": "geriatrics", "name": "Servicii Geriatrie \u0219i Asisten\u021b\u0103 Medical\u0103 \u201dSf. Sava \u0219i Teodosie cel Mare\u201d", "operator": "ROmedic", "website": "https://www.romedic.ro/centrul-medical-sf-sava"}}]}