{"version": 0.6, "generator": "Overpass API 0.7.62.1 084b4234", "osm3s": {"timestamp_osm_base": "2024-05-24T08:16:17Z", "copyright": "The data included in this document is from www.openstreetmap.org. The data is made available under ODbL."}, "elements": [{"type": "node", "id": 2521700807, "lat": 13.1967425, "lon": -16.4576396}, {"type": "node", "id": 2521700808, "lat": 13.1961236, "lon": -16.4564595}, {"type": "node", "id": 2521700810, "lat": 13.1947474, "lon": -16.4570978}, {"type": "node", "id": 2521700812, "lat": 13.1942982, "lon": -16.4573097}, {"type": "node", "id": 2521700814, "lat": 13.1950216, "lon": -16.4587635}, {"type": "node", "id": 2521700815, "lat": 13.1959512, "lon": -16.4583182}, {"type": "node", "id": 2521700817, "lat": 13.196873, "lon": -16.4578837}, {"type": "node", "id": 8132683964, "lat": 12.9660584, "lon": -16.1815361, "tags": {"amenity": "doctors", "beds": "11", "electricity": "grid", "emergency": "yes", "name": "Poste de Sant\u00e9 de Sindian", "operational_status": "Operational", "operator": "Minist\u00e9re de la sant\u00e9 et de l'action sociale", "operator:type": "Public", "source": "#senegal #covid-19 #emergency-health-data #healthsites", "water_source": "water works", "wheelchair": "yes"}}, {"type": "node", "id": 9001340426, "lat": 13.2324849, "lon": -16.2284667, "tags": {"addr:lga": "Foni", "amenity": "clinic", "capacity:beds": "8", "emergency": "no", "name": "Kassagne Health Post", "opening_hours": "24/7", "operational_status": "operational", "operator": "Momodou Sumareh", "operator:type": "government", "phone": "+2203227079", "power_supply:source": "power_grid", "staff_count:nurses": "2", "wheelchair": "no"}}, {"type": "node", "id": 9001340427, "lat": 13.1964421, "lon": -16.4575757, "tags": {"addr:lga": "Foni", "addr:street": "Mbula", "amenity": "hospital", "capacity:beds": "5", "emergency": "yes", "name": "Medics for Health Kafuta Health Center", "opening_hours": "24/7", "operational_status": "operational", "operator": "Sarjo Camara", "operator:type": "public", "phone": "+2203936887", "power_supply:source": "power_grid", "staff_count:nurses": "7", "wheelchair": "yes"}}, {"type": "way", "id": 244899882, "nodes": [2521700807, 2521700808, 2521700810, 2521700812, 2521700814, 2521700815, 2521700817, 2521700807], "tags": {"amenity": "hospital", "healthcare": "hospital", "name": "Kafuta Health Center"}}]}