{"version": 0.6, "generator": "Overpass API 0.7.62.1 084b4234", "osm3s": {"timestamp_osm_base": "2024-05-24T08:20:28Z", "copyright": "The data included in this document is from www.openstreetmap.org. The data is made available under ODbL."}, "elements": [{"type": "node", "id": 9658850198, "lat": 16.1147639, "lon": -13.8547105, "tags": {"addr:full": "Sambawt\u00e9/ p\u00e9t\u00e9", "amenity": "doctors", "beds": "10", "contact:phone": "772438665", "electricity": "solar", "emergency": "yes", "healthcare": "doctor, pharmacy, birthing center", "healthcare:equipment": "Emergency Department", "insurance:health": "None", "name": "case de sante sambawt\u00e9", "opening_hours": "24/7", "operational_status": "operational", "operator": "Minist\u00e8re de la sant\u00e9 et de l'action sociale", "operator:type": "public", "osm_id": "ff59954f-238b-4683-8dd9-135c034be0bb", "source": "#senegal #covid-19 #emergency-health-data-validation #healthsites", "staff_count:nurses": "1", "water_source": "water works", "wheelchair": "limited"}}, {"type": "node", "id": 9658850213, "lat": 16.1414574, "lon": -13.9290152, "tags": {"addr:full": "Saint Louis", "amenity": "doctors", "electricity": "grid", "emergency": "yes", "healthcare": "doctor, pharmacy, birthing center", "insurance:health": "Unknown", "name": "case de sante de ngouy", "opening_hours": "24/7", "operational_status": "operational", "operator": "Minist\u00e8re de la sant\u00e9 et de l'action sociale", "operator:type": "public", "osm_id": "b6052b04-1fd7-4812-9df2-173d12df1be0", "source": "#senegal #covid-19 #emergency-health-data-validation #healthsites", "water_source": "water works", "wheelchair": "no"}}, {"type": "node", "id": 9989552400, "lat": 16.070307, "lon": -13.834516, "tags": {"addr:full": "Thilambol/Pete", "amenity": "clinic", "beds": "3", "electricity": "grid", "healthcare": "clinic", "insurance:health": "None", "name": "case de sant\u00e9 thilambol", "opening_hours": "24/7", "operational_status": "operational", "operator": "Minist\u00e8re de la sant\u00e9 et de l'action sociale", "operator:type": "public", "osm_id": "aa32028a-7799-4e69-a2f1-9af83f0227d4", "source": "#senegal #covid-19 #emergency-health-data-validation #healthsites", "water_source": "well"}}, {"type": "node", "id": 9989552404, "lat": 16.0612396, "lon": -13.8119271, "tags": {"addr:full": "Mbolo Birane/P\u00e9t\u00e9", "amenity": "doctors", "beds": "10", "electricity": "grid", "emergency": "yes", "healthcare": "doctor, pharmacy, birthing center", "healthcare:equipment": "ultrasound", "insurance:health": "None", "name": "poste de sante de mbolo birane", "opening_hours": "24/7", "operational_status": "operational", "operator": "Minist\u00e8re de la sant\u00e9 et de l'action sociale", "operator:type": "public", "osm_id": "c0eba288-033f-4e03-a7d4-acba9903cdb5", "source": "#senegal #covid-19 #emergency-health-data-validation #healthsites", "staff_count:doctors": "0", "staff_count:nurses": "4", "water_source": "water works", "wheelchair": "yes"}}, {"type": "node", "id": 9989554732, "lat": 16.1016123, "lon": -13.954996, "tags": {"addr:full": "P\u00e9t\u00e9/Podor", "amenity": "hospital", "contact:phone": "776115025", "electricity": "grid", "emergency": "yes", "healthcare": "doctor, pharmacy, dentist, blood donation, birthing center, laboratory", "healthcare:equipment": "laboratory, Emergency Department", "insurance:health": "public", "name": "centre de sante p\u00e9t\u00e9", "opening_hours": "24/7", "operational_status": "operational", "operator": "Minist\u00e8re de la sant\u00e9 et de l'action sociale", "operator:type": "public", "osm_id": "c080323f-d379-4f4f-9fe2-68ca6eda8456", "source": "#senegal #covid-19 #emergency-health-data-validation #healthsites", "staff_count:doctors": "3", "water_source": "well", "wheelchair": "yes"}}, {"type": "node", "id": 10082108663, "lat": 16.0609545, "lon": -13.8114641, "tags": {"addr:city": "Mbolo Birane", "amenity": "hospital", "healthcare": "hospital", "name": "PHARMACIE", "operator": "Priv\u00e9", "operator:type": "private"}}, {"type": "node", "id": 10860572059, "lat": 16.1084387, "lon": -13.6220961, "tags": {"addr:city": "Sadou", "amenity": "clinic", "beds": "7", "electricity": "grid", "healthcare": "clinic", "insurance:health": "yes", "name": "Poste Sante Ndiafane", "opening_hours": "24/7", "operational_status": "operational", "operator:type": "public", "source": "#senegal #Public Health #Sunu Wer Gye Yaram #WNAH #Healthsites", "water_source": "tank", "wheelchair": "yes"}}, {"type": "node", "id": 10860572062, "lat": 16.1009038, "lon": -13.701396, "tags": {"addr:city": "Diorbivol", "amenity": "clinic", "beds": "2", "electricity": "solar", "healthcare": "clinic", "insurance:health": "yes", "name": "Poste de sante de Diorbivol", "opening_hours": "24/7", "operational_status": "operational", "operator:type": "public", "source": "#senegal #Public Health #Sunu Wer Gye Yaram #WNAH #Healthsites", "water_source": "tank", "wheelchair": "no"}}, {"type": "node", "id": 10860572107, "lat": 15.8831835, "lon": -13.5781773, "tags": {"addr:city": "Goudoude ndouetbe", "amenity": "clinic", "beds": "5", "electricity": "grid", "insurance:health": "no", "name": "Poste de sante de Goudoude Ndouetbe", "opening_hours": "24/7", "operational_status": "operational", "operator:type": "public", "source": "#senegal #Public Health #Sunu Wer Gye Yaram #WNAH #Healthsites", "water_source": "water_works", "wheelchair": "yes"}}, {"type": "node", "id": 10860572126, "lat": 16.0045571, "lon": -13.6897733, "tags": {"addr:city": "Thilogne", "amenity": "clinic", "beds": "10", "electricity": "grid", "insurance:health": "no", "name": "Poste de sante de Agnam", "opening_hours": "24/7", "operational_status": "operational", "operator:type": "public", "source": "#senegal #Public Health #Sunu Wer Gye Yaram #WNAH #Healthsites", "water_source": "water_works", "wheelchair": "yes"}}, {"type": "node", "id": 10860572141, "lat": 15.9968089, "lon": -13.66425, "tags": {"addr:city": "Agnam thiodaye", "amenity": "clinic", "beds": "13", "electricity": "grid", "insurance:health": "no", "name": "Poste de Sante Agnam Thiodaye", "opening_hours": "24/7", "operational_status": "operational", "operator:type": "public", "source": "#senegal #Public Health #Sunu Wer Gye Yaram #WNAH #Healthsites", "water_source": "water_works", "wheelchair": "no"}}, {"type": "node", "id": 10860572165, "lat": 16.0423243, "lon": -13.7302553, "tags": {"addr:city": "orefonde", "amenity": "clinic", "beds": "21", "electricity": "grid", "insurance:health": "no", "name": "Poste de sante de Orofonde", "opening_hours": "24/7", "operational_status": "operational", "operator:type": "public", "source": "#senegal #Public Health #Sunu Wer Gye Yaram #WNAH #Healthsites", "water_source": "water_works", "wheelchair": "yes"}}, {"type": "node", "id": 10860572180, "lat": 15.9900438, "lon": -13.6479785, "tags": {"addr:city": "Agnam godo", "amenity": "clinic", "beds": "4", "electricity": "grid", "insurance:health": "no", "name": "Poste de Sante de Agnam Godo", "opening_hours": "24/7", "operational_status": "operational", "operator:type": "public", "source": "#senegal #Public Health #Sunu Wer Gye Yaram #WNAH #Healthsites", "water_source": "water_works", "wheelchair": "no"}}, {"type": "node", "id": 10860572192, "lat": 16.0022742, "lon": -13.680212, "tags": {"addr:city": "Matam", "amenity": "clinic", "beds": "13", "electricity": "grid", "insurance:health": "no", "name": "Poste de sante Agnam Lidoube", "opening_hours": "24/7", "operational_status": "operational", "operator:type": "public", "source": "#senegal #Public Health #Sunu Wer Gye Yaram #WNAH #Healthsites", "water_source": "water_works", "wheelchair": "yes"}}, {"type": "node", "id": 10860572218, "lat": 16.0425127, "lon": -13.7298993, "tags": {"addr:city": "Orofonde", "amenity": "clinic", "beds": "17", "electricity": "grid", "insurance:health": "no", "name": "Poste de Sante de Orefonde", "opening_hours": "24/7", "operational_status": "operational", "operator:type": "public", "source": "#senegal #Public Health #Sunu Wer Gye Yaram #WNAH #Healthsites", "water_source": "water_works", "wheelchair": "yes"}}, {"type": "node", "id": 10860572222, "lat": 15.9815633, "lon": -13.6279305, "tags": {"addr:city": "Barka", "amenity": "clinic", "beds": "1", "electricity": "grid", "insurance:health": "no", "name": "Poste de sante de Barka", "opening_hours": "24/7", "operational_status": "operational", "operator:type": "public", "source": "#senegal #Public Health #Sunu Wer Gye Yaram #WNAH #Healthsites", "water_source": "tank", "wheelchair": "yes"}}]}