{"version": 0.6, "generator": "Overpass API 0.7.62.1 084b4234", "osm3s": {"timestamp_osm_base": "2024-05-23T15:58:22Z", "copyright": "The data included in this document is from www.openstreetmap.org. The data is made available under ODbL."}, "elements": [{"type": "node", "id": 111280395, "lat": 45.4509906, "lon": 28.0430112}, {"type": "node", "id": 111280396, "lat": 45.448261, "lon": 28.0443921}, {"type": "node", "id": 111280397, "lat": 45.4483934, "lon": 28.0428471}, {"type": "node", "id": 111280398, "lat": 45.4490498, "lon": 28.0419716}, {"type": "node", "id": 111280399, "lat": 45.4492184, "lon": 28.0418284}, {"type": "node", "id": 111280401, "lat": 45.4501769, "lon": 28.0418997}, {"type": "node", "id": 111280402, "lat": 45.4508799, "lon": 28.0427336}, {"type": "node", "id": 113843789, "lat": 45.4606879, "lon": 28.038236}, {"type": "node", "id": 113843790, "lat": 45.4610792, "lon": 28.0399269}, {"type": "node", "id": 113843791, "lat": 45.4589722, "lon": 28.0409826}, {"type": "node", "id": 113843792, "lat": 45.4585327, "lon": 28.0393175}, {"type": "node", "id": 250375559, "lat": 45.4313362, "lon": 28.0235885, "tags": {"amenity": "hospital", "emergency": "yes", "name": "Spitalul de pediatrie \"Sf\u00e2ntul Ioan\"", "source": "survey"}}, {"type": "node", "id": 298831540, "lat": 45.439169, "lon": 28.0619055, "tags": {"amenity": "hospital", "healthcare": "hospital", "name": "Spitalul CFR"}}, {"type": "node", "id": 533886612, "lat": 45.4193389, "lon": 28.0187443}, {"type": "node", "id": 533886613, "lat": 45.4190738, "lon": 28.0190104}, {"type": "node", "id": 533886614, "lat": 45.4191702, "lon": 28.0191992}, {"type": "node", "id": 533886615, "lat": 45.4194353, "lon": 28.0189417}, {"type": "node", "id": 567168332, "lat": 45.4445517, "lon": 28.0419843}, {"type": "node", "id": 567168333, "lat": 45.4437684, "lon": 28.0424061}, {"type": "node", "id": 567168335, "lat": 45.4442814, "lon": 28.0443864}, {"type": "node", "id": 567168337, "lat": 45.4450686, "lon": 28.0439636}, {"type": "node", "id": 2128987380, "lat": 45.4246525, "lon": 28.0224136, "tags": {"amenity": "clinic", "name": "Centrul de nefrologie \u0219i dializ\u0103"}}, {"type": "node", "id": 2161363186, "lat": 45.428209, "lon": 28.046956, "tags": {"amenity": "clinic", "name": "Doctor Pediatru Baciu Ginel"}}, {"type": "node", "id": 2161391507, "lat": 45.4356422, "lon": 28.0549276, "tags": {"amenity": "clinic", "name": "Avant Medica"}}, {"type": "node", "id": 2161400786, "lat": 45.436176, "lon": 28.0245044, "tags": {"amenity": "clinic", "name": "Danubius Medica"}}, {"type": "node", "id": 4270186991, "lat": 45.4308284, "lon": 28.0554914, "tags": {"amenity": "clinic", "name": "CABINET MEDICAL CARDIOLOGIE DR. BUCATANSCHI", "phone": "0236435373"}}, {"type": "node", "id": 4417554791, "lat": 45.4318306, "lon": 28.0248483, "tags": {"amenity": "clinic", "email": "office@interbeauty.ro", "internet_access": "wlan", "name": "InterBeauty Clinic", "name:en": "InterBeauty Clinic", "name:ro": "InterBeauty Clinic", "opening_hours": "Mo-Sa 08:00-21:00; Su", "website": "https://www.interbeauty.ro/"}}, {"type": "node", "id": 4442221390, "lat": 45.4433448, "lon": 28.0466935, "tags": {"amenity": "clinic", "name": "Cabinet Medical Obstetrica Ginecologie", "name:ro": "Cabinet Medical Obstetrica Ginecologie", "opening_hours": "Tu-Th 15:00-19:00"}}, {"type": "node", "id": 4642326710, "lat": 45.4292649, "lon": 28.0406862, "tags": {"amenity": "clinic", "contact:email": "galati@affidea.com", "contact:phone": "+40 21 9338", "contact:website": "https://affidea.ro/centre-medicale/affidea-hiperdia-galati", "healthcare": "clinic", "name": "Affidea", "opening_hours": "Mo-Fr 08:00-20:00; Sa 08:00-13:00"}}, {"type": "node", "id": 5048507628, "lat": 45.4512681, "lon": 28.0472102, "tags": {"amenity": "clinic", "name": "Centru Medical \"Sanavita\"", "name:en": "Medical Centre \"Sanavita\""}}, {"type": "node", "id": 5267106312, "lat": 45.4292631, "lon": 28.0495669}, {"type": "node", "id": 5267106313, "lat": 45.4293118, "lon": 28.0496894}, {"type": "node", "id": 5267106314, "lat": 45.42919, "lon": 28.0497875}, {"type": "node", "id": 5267106315, "lat": 45.4291513, "lon": 28.0496629}, {"type": "node", "id": 5275600131, "lat": 45.4306329, "lon": 28.0190537, "tags": {"addr:city": "Gala\u021bi", "addr:housenumber": "17", "addr:postcode": "800494", "addr:street": "Strada Gheorghe Asachi", "amenity": "clinic", "email": "office@cavxmed.ro", "healthcare": "clinic", "name": "Remenix", "opening_hours": "Mo-Fr 07:30-13:00, 14:00-20:30", "phone": "0336733156", "website": "https://www.remenix.ro/"}}, {"type": "node", "id": 5362921311, "lat": 45.4564206, "lon": 28.0436175}, {"type": "node", "id": 5362921312, "lat": 45.4568307, "lon": 28.0452483}, {"type": "node", "id": 5362921313, "lat": 45.4565561, "lon": 28.0453985}, {"type": "node", "id": 5362921314, "lat": 45.4567291, "lon": 28.0461281}, {"type": "node", "id": 5362921315, "lat": 45.4553181, "lon": 28.0468791}, {"type": "node", "id": 5362921316, "lat": 45.4546821, "lon": 28.044551}, {"type": "node", "id": 6525128085, "lat": 45.4333349, "lon": 28.0250807, "tags": {"addr:housenumber": "19-23", "amenity": "clinic", "name": "Audionova"}}, {"type": "node", "id": 6525199686, "lat": 45.4306199, "lon": 28.0190859, "tags": {"addr:housenumber": "17", "addr:street": "Strada Gheorghe Asachi", "amenity": "clinic", "name": "Chiriac S.R.L.", "opening_hours": "Mo-Fr 09:00-18:00"}}, {"type": "node", "id": 6525454288, "lat": 45.4453704, "lon": 28.0236998, "tags": {"amenity": "clinic", "name": "Romar Medical"}}, {"type": "node", "id": 7054277795, "lat": 45.4502834, "lon": 28.0258898, "tags": {"addr:city": "Gala\u021bi", "addr:housenumber": "3", "addr:postcode": "800675", "addr:street": "Bulevardul Milcov", "amenity": "clinic", "description": "Cabinet de pneumologie in contract cu Casa de Asigurari de Sanatate. Consultatiile legate de medicina somnului (somnologie) nu sunt decontate deocamdata de CAS, ceea ce presupune ca pacientul va plati in intregime costul serviciilor.", "email": "anamaria.necula@pneumolog-galati.eu", "emergency": "yes", "healthcare": "hospital", "healthcare:speciality": "pulmonology;sleeping_medicine", "name": "Pneumologie si Medicina somnului - Dr. Anamaria Necula", "operator": "Pneumologie si Medicina somnului - Dr. Anamaria Necula", "operator:type": "private_for_profit", "phone": "0743 662 589", "website": "https://pneumolog-galati.eu"}}, {"type": "node", "id": 7428815061, "lat": 45.4308919, "lon": 28.0447884, "tags": {"addr:city": "Gala\u021bi", "addr:housenumber": "82", "addr:postcode": "800098", "addr:street": "Strada Br\u0103ilei", "amenity": "hospital", "email": "office@prieteniicublanita.ro", "emergency": "yes", "healthcare": "hospital", "healthcare:speciality": "veterinary;pets;pet_food;veterinary_pharmacy", "name": "Cabinet veterinar dr. Silvia Tiolan", "operator": "Prietenii cu Blanita SRL", "operator:type": "private", "phone": "+40752111929", "website": "https://prieteniicublanita.ro"}}, {"type": "node", "id": 9796792535, "lat": 45.4459584, "lon": 28.0226116}, {"type": "node", "id": 9796792536, "lat": 45.4459924, "lon": 28.0223885}, {"type": "node", "id": 9796792537, "lat": 45.4458168, "lon": 28.022302}, {"type": "node", "id": 9796792538, "lat": 45.4457732, "lon": 28.0225327}, {"type": "node", "id": 9796792539, "lat": 45.4458243, "lon": 28.0225478}, {"type": "node", "id": 9796792540, "lat": 45.445837, "lon": 28.0225205}, {"type": "node", "id": 9796792541, "lat": 45.4458924, "lon": 28.0225494}, {"type": "node", "id": 9796792542, "lat": 45.4458892, "lon": 28.0225858}, {"type": "node", "id": 9899460596, "lat": 45.4296305, "lon": 28.049302}, {"type": "node", "id": 9899460597, "lat": 45.4295327, "lon": 28.0493837}, {"type": "node", "id": 9899460598, "lat": 45.4296768, "lon": 28.0497333}, {"type": "node", "id": 9899460599, "lat": 45.4297745, "lon": 28.0496515}, {"type": "node", "id": 9932710366, "lat": 45.4197313, "lon": 28.0186514}, {"type": "node", "id": 9932710367, "lat": 45.4195666, "lon": 28.0188055}, {"type": "node", "id": 9932710368, "lat": 45.4196696, "lon": 28.0190291}, {"type": "node", "id": 9932710369, "lat": 45.4198343, "lon": 28.0188749}, {"type": "way", "id": 12276364, "nodes": [111280395, 111280396, 111280397, 111280398, 111280399, 111280401, 111280402, 111280395], "tags": {"addr:city": "Gala\u021bi", "addr:housenumber": "199", "addr:postcode": "800150", "addr:postcode:source": "Date de la Po\u0219ta Rom\u00e2n\u0103, publicate sub Licen\u021ba pentru Guvernare Deschis\u0103 v1.0 la http://date.gov.ro/organization/posta-romana", "addr:street": "Strada Traian", "amenity": "hospital", "healthcare": "hospital", "name": "Spitalul Militar de Urgen\u021b\u0103 \"Dr. Aristide Serfioti\""}}, {"type": "way", "id": 12502520, "nodes": [113843789, 113843790, 113843791, 113843792, 113843789], "tags": {"addr:city": "Gala\u021bi", "addr:housenumber": "290", "addr:postcode": "800179", "addr:postcode:source": "Date de la Po\u0219ta Rom\u00e2n\u0103, publicate sub Licen\u021ba pentru Guvernare Deschis\u0103 v1.0 la http://date.gov.ro/organization/posta-romana", "addr:street": "Strada Traian", "amenity": "hospital", "healthcare": "hospital", "healthcare:speciality": "psychiatry", "is_in:city": "Gala\u021bi", "name": "Spitalul de psihiatrie \"Elisabeta Doamna\""}}, {"type": "way", "id": 42689680, "nodes": [533886612, 533886613, 533886614, 533886615, 533886612], "tags": {"addr:city": "Gala\u021bi", "addr:housenumber": "177", "addr:postcode": "800578", "addr:street": "Strada Br\u0103ilei", "amenity": "hospital", "emergency": "yes", "healthcare": "hospital", "is_in:city": "Gala\u021bi", "name": "Spitalul judetean Galati", "operator": "Spitalul Clinic Jude\u021bean de Urgen\u021b\u0103 \"Sf. Apostol Andrei\" Gala\u021bi", "operator:type": "government"}}, {"type": "way", "id": 44698022, "nodes": [567168332, 567168337, 567168335, 567168333, 567168332], "tags": {"amenity": "hospital", "healthcare": "hospital", "healthcare:speciality": "gynaecology", "is_in:city": "Gala\u021bi", "name": "Spitalul \"Buna Vestire\" obstretic\u0103-ginecologie"}}, {"type": "way", "id": 544918058, "nodes": [5267106312, 5267106313, 5267106314, 5267106315, 5267106312], "tags": {"addr:city": "Gala\u021bi", "addr:housenumber": "33", "addr:postcode": "800055", "addr:postcode:source": "Date de la Po\u0219ta Rom\u00e2n\u0103, publicate sub Licen\u021ba pentru Guvernare Deschis\u0103 v1.0 la http://date.gov.ro/organization/posta-romana", "addr:street": "Strada Ro\u0219iori", "amenity": "hospital", "emergency": "no", "healthcare": "hospital", "healthcare:speciality": "general;community", "name": "Cabinete medicale de familie"}}, {"type": "way", "id": 555910503, "nodes": [5362921311, 5362921312, 5362921313, 5362921314, 5362921315, 5362921316, 5362921311], "tags": {"addr:city": "Gala\u021bi", "addr:housenumber": "117", "addr:postcode": "800189", "addr:postcode:source": "Date de la Po\u0219ta Rom\u00e2n\u0103, publicate sub Licen\u021ba pentru Guvernare Deschis\u0103 v1.0 la http://date.gov.ro/organization/posta-romana", "addr:street": "Strada \u0218tiin\u021bei", "amenity": "hospital", "email": "contact@pneumogalati.ro;spitalultbc@gmail.com", "healthcare": "hospital", "healthcare:speciality": "pulmonology", "name": "Spitalul de Pneumoftiziologie Gala\u021bi, TBC", "operator": "Ministerul S\u0103n\u0103t\u0103\u021bii", "website": "https://pneumogalati.ro/"}}, {"type": "way", "id": 1066932224, "nodes": [9796792535, 9796792536, 9796792537, 9796792538, 9796792539, 9796792540, 9796792541, 9796792542, 9796792535], "tags": {"amenity": "hospital", "healthcare": "hospital", "name": "Centrul medical Irina"}}, {"type": "way", "id": 1079997987, "nodes": [9899460596, 9899460597, 9899460598, 9899460599, 9899460596], "tags": {"access": "customers", "addr:city": "Gala\u021bi", "addr:housenumber": "39", "addr:street": "Strada Alexandru L\u0103pu\u0219neanu", "amenity": "clinic", "building": "yes", "building:levels": "1", "building:material": "concrete", "description": "Cabinete Medicale Individuale Medicin\u0103 dentar\u0103", "description:en": "Individual Medical Offices Dentistry", "healthcare": "dentist", "healthcare:speciality": "dentistry;radiology;neurology;stomatology;paediatrics;implantology;periodontics;endodontics", "name": "Cabinete Medicale Individuale Medicin\u0103 dentar\u0103", "name:en": "Individual Medical Offices Dentistry", "opening_hours": "Mo-Fr 09:00-18:00", "stairs": "outdoor", "toilets": "not-sure", "wheelchair": "yes"}}, {"type": "way", "id": 1083892323, "nodes": [9932710366, 9932710367, 9932710368, 9932710369, 9932710366], "tags": {"addr:city": "Gala\u021bi", "addr:housenumber": "177", "addr:postcode": "800578", "addr:street": "Strada Br\u0103ilei", "amenity": "hospital", "emergency": "yes", "healthcare": "hospital", "healthcare:speciality": "emergency", "name": "Emergency Room", "name:ro": "UNITATE PRIMIRE URGENTE", "operator": "Spitalul Clinic Judetean de Urgenta \u201cSfantul Apostol Andrei\u201d Galati", "operator:type": "government", "phone": "0236301122"}}]}