{"version": 0.6, "generator": "Overpass API 0.7.62.1 084b4234", "osm3s": {"timestamp_osm_base": "2024-05-23T15:23:46Z", "copyright": "The data included in this document is from www.openstreetmap.org. The data is made available under ODbL."}, "elements": [{"type": "node", "id": 534313256, "lat": 47.1599025, "lon": 27.6117122}, {"type": "node", "id": 534313257, "lat": 47.1599033, "lon": 27.6112752}, {"type": "node", "id": 534313258, "lat": 47.1600497, "lon": 27.6112758}, {"type": "node", "id": 534313259, "lat": 47.1600489, "lon": 27.6117128}, {"type": "node", "id": 540948184, "lat": 47.1579615, "lon": 27.6041693}, {"type": "node", "id": 540948187, "lat": 47.1579384, "lon": 27.6043308}, {"type": "node", "id": 1468306966, "lat": 47.1518276, "lon": 27.5713506}, {"type": "node", "id": 1468307028, "lat": 47.1515249, "lon": 27.5716758}, {"type": "node", "id": 1468307029, "lat": 47.1520501, "lon": 27.5717982}, {"type": "node", "id": 1468307034, "lat": 47.1517798, "lon": 27.5715788}, {"type": "node", "id": 1468307035, "lat": 47.1515822, "lon": 27.5717911}, {"type": "node", "id": 1468307037, "lat": 47.151945, "lon": 27.5719111}, {"type": "node", "id": 2140650015, "lat": 47.1692475, "lon": 27.5881909}, {"type": "node", "id": 2140650016, "lat": 47.1690908, "lon": 27.5884066}, {"type": "node", "id": 2140650017, "lat": 47.169106, "lon": 27.5884566}, {"type": "node", "id": 2140650018, "lat": 47.1691876, "lon": 27.5883381}, {"type": "node", "id": 2140650019, "lat": 47.1692396, "lon": 27.5882001}, {"type": "node", "id": 2140650020, "lat": 47.1691101, "lon": 27.5881797}, {"type": "node", "id": 2140650021, "lat": 47.1691952, "lon": 27.588352}, {"type": "node", "id": 2140650022, "lat": 47.168999, "lon": 27.588257}, {"type": "node", "id": 2140650023, "lat": 47.1691241, "lon": 27.5882056}, {"type": "node", "id": 2140650024, "lat": 47.1690924, "lon": 27.5882066}, {"type": "node", "id": 2140650025, "lat": 47.1691044, "lon": 27.5882288}, {"type": "node", "id": 2140650026, "lat": 47.1690451, "lon": 27.5883419}, {"type": "node", "id": 2140650027, "lat": 47.1692004, "lon": 27.5881277}, {"type": "node", "id": 2140650028, "lat": 47.1690646, "lon": 27.58818}, {"type": "node", "id": 2140650029, "lat": 47.1690842, "lon": 27.5882162}, {"type": "node", "id": 2140650030, "lat": 47.169273, "lon": 27.5882379}, {"type": "node", "id": 2140650031, "lat": 47.1690835, "lon": 27.5884152}, {"type": "node", "id": 2140650032, "lat": 47.1690516, "lon": 27.5883343}, {"type": "node", "id": 2140650033, "lat": 47.1691914, "lon": 27.5880843}, {"type": "node", "id": 2140650034, "lat": 47.1692093, "lon": 27.5881173}, {"type": "node", "id": 2165136799, "lat": 47.1708425, "lon": 27.5734382}, {"type": "node", "id": 2165136809, "lat": 47.1708805, "lon": 27.5730543}, {"type": "node", "id": 2165136826, "lat": 47.1707316, "lon": 27.5733815}, {"type": "node", "id": 2165136832, "lat": 47.1709002, "lon": 27.5731944}, {"type": "node", "id": 2165136846, "lat": 47.1708166, "lon": 27.5730217}, {"type": "node", "id": 2165136857, "lat": 47.1710174, "lon": 27.5730155}, {"type": "node", "id": 2165136890, "lat": 47.1709034, "lon": 27.5729572}, {"type": "node", "id": 2165136909, "lat": 47.170967, "lon": 27.5732286}, {"type": "node", "id": 2165958925, "lat": 47.1604434, "lon": 27.596406}, {"type": "node", "id": 2165958961, "lat": 47.160367, "lon": 27.596437}, {"type": "node", "id": 2165958963, "lat": 47.160338, "lon": 27.5962828}, {"type": "node", "id": 2165958977, "lat": 47.1604144, "lon": 27.5962517}, {"type": "node", "id": 2173807046, "lat": 47.1696204, "lon": 27.5843928}, {"type": "node", "id": 2173807099, "lat": 47.1696226, "lon": 27.58435}, {"type": "node", "id": 2173807108, "lat": 47.1697776, "lon": 27.5841448}, {"type": "node", "id": 2173807122, "lat": 47.1696956, "lon": 27.5843018}, {"type": "node", "id": 2173807124, "lat": 47.1696253, "lon": 27.5842943}, {"type": "node", "id": 2173807193, "lat": 47.1696126, "lon": 27.5845503}, {"type": "node", "id": 2173807197, "lat": 47.1698017, "lon": 27.5842684}, {"type": "node", "id": 2173807216, "lat": 47.1697717, "lon": 27.5842652}, {"type": "node", "id": 2173807221, "lat": 47.1695341, "lon": 27.5841401}, {"type": "node", "id": 2173807224, "lat": 47.1698336, "lon": 27.5845739}, {"type": "node", "id": 2173807231, "lat": 47.1696415, "lon": 27.5841516}, {"type": "node", "id": 2173807323, "lat": 47.1696959, "lon": 27.5841361}, {"type": "node", "id": 2173807352, "lat": 47.1697618, "lon": 27.5844428}, {"type": "node", "id": 2173807366, "lat": 47.1698396, "lon": 27.5844511}, {"type": "node", "id": 2173807415, "lat": 47.1697971, "lon": 27.5843626}, {"type": "node", "id": 2173807512, "lat": 47.1696382, "lon": 27.5842201}, {"type": "node", "id": 2173807526, "lat": 47.1695242, "lon": 27.5843395}, {"type": "node", "id": 2173807544, "lat": 47.1697659, "lon": 27.5843592}, {"type": "node", "id": 2173807550, "lat": 47.1696914, "lon": 27.5842258}, {"type": "node", "id": 2173807563, "lat": 47.1696907, "lon": 27.5844003}, {"type": "node", "id": 2204408861, "lat": 47.1496095, "lon": 27.5955902, "tags": {"addr:city": "Ia\u0219i", "addr:housenumber": "4", "addr:postcode": "700160", "addr:street": "Bulevardul Prim\u0103verii", "amenity": "clinic", "healthcare": "clinic", "name": "Policlinica Sfin\u021bii Petru \u0219i Pavel (Industrial\u0103)", "opening_hours": "Mo-Fr 07:00-20:00", "phone": "0232310001"}}, {"type": "node", "id": 4438968694, "lat": 47.1679937, "lon": 27.5780596, "tags": {"amenity": "clinic"}}, {"type": "node", "id": 4441622093, "lat": 47.1615627, "lon": 27.5931611, "tags": {"amenity": "clinic", "name": "Pro Life Clinics", "name:ro": "MedLife"}}, {"type": "node", "id": 4855949522, "lat": 47.17108, "lon": 27.567604, "tags": {"addr:housenumber": "8", "addr:street": "Strada Ci\u0219meaua P\u0103curari", "amenity": "clinic", "name": "SonoEcoMed - Dr. Carmina Schaas", "name:ro": "SonoEcoMed - Dr. Carmina Schaas", "phone": "0332108880"}}, {"type": "node", "id": 5600701322, "lat": 47.1616972, "lon": 27.5857285, "tags": {"addr:housenumber": "15A", "addr:street": "Strada Agatha B\u00e2rsescu", "amenity": "clinic", "email": "office@clinicapalade.ro", "healthcare": "clinic", "internet_access": "wlan", "phone": "+40332800081", "website": "http://www.clinicapalade.ro"}}, {"type": "node", "id": 6439230993, "lat": 47.1581403, "lon": 27.6043932}, {"type": "node", "id": 6439230994, "lat": 47.1581634, "lon": 27.6042317}, {"type": "node", "id": 6780942936, "lat": 47.1552583, "lon": 27.5864161, "tags": {"amenity": "clinic", "healthcare": "clinic", "name": "Synlab"}}, {"type": "node", "id": 8333474558, "lat": 47.1460452, "lon": 27.5840722, "tags": {"amenity": "clinic", "healthcare": "clinic", "name": "Clinica Zenmed", "website": "https://www.zenmedical.ro/"}}, {"type": "node", "id": 9073505153, "lat": 47.1517655, "lon": 27.5860393, "tags": {"addr:housenumber": "55", "addr:street": "\u0218oseaua Na\u021bional\u0103", "alt_name": "Synevo - Centrul de recoltare Podu Ro\u0219", "amenity": "clinic", "health_facility:type": "office", "name": "Synevo"}}, {"type": "node", "id": 9337682041, "lat": 47.1619333, "lon": 27.5941184, "tags": {"addr:city": "Ia\u0219i", "addr:housenumber": "26", "addr:postcode": "700020", "addr:street": "Strada Anastasie Panu", "amenity": "clinic", "healthcare": "clinic", "name": "Centrul Medical Sf Gheorghe", "operator": "Centrul Medical Sf Gheorghe"}}, {"type": "node", "id": 10109256687, "lat": 47.1253265, "lon": 27.5677047}, {"type": "node", "id": 10109256688, "lat": 47.1252465, "lon": 27.5678588}, {"type": "node", "id": 10109256689, "lat": 47.125081, "lon": 27.5678304}, {"type": "node", "id": 10109256690, "lat": 47.1251555, "lon": 27.5676885}, {"type": "node", "id": 10610613805, "lat": 47.165616, "lon": 27.5909919, "tags": {"addr:housenumber": "2", "addr:street": "Strada Ba\u0219ot\u0103", "amenity": "clinic", "name": "Clinica Hope", "phone": "+40374554321"}}, {"type": "node", "id": 10817234505, "lat": 47.1719221, "lon": 27.5751417, "tags": {"addr:housenumber": "4", "addr:postcode": "700505", "addr:street": "Bulevardul Carol I", "amenity": "clinic", "name": "Psihoterapeut Gianina Georgeta Lupu", "name:en": "Psychotherapist Gianina Georgeta Lupu", "opening_hours": "Mo-Sa 14:00-22:00", "phone": "0744751527"}}, {"type": "node", "id": 10856082829, "lat": 47.1715898, "lon": 27.5730417, "tags": {"addr:city": "Ia\u0219i", "addr:housenumber": "4B", "addr:street": "Strada Garabet Ibr\u0103ileanu", "amenity": "clinic", "healthcare": "clinic", "name": "GastroMedica", "phone": "0232230774", "website": "https://www.paginiaurii.ro/companii/IA%C5%9EI/L4337097/GASTROMEDICA+SRL/"}}, {"type": "node", "id": 10856135532, "lat": 47.1722778, "lon": 27.5806555, "tags": {"addr:city": "Ia\u0219i", "addr:housenumber": "8", "addr:postcode": "700454", "addr:street": "Strada Mihail Kog\u0103lniceanu", "amenity": "clinic", "healthcare": "laboratory", "name": "Lumisan", "opening_hours": "Mo-Fr 07:30-18:30; Sa 08:00-17:00"}}, {"type": "node", "id": 11079103663, "lat": 47.157035, "lon": 27.5822393, "tags": {"amenity": "clinic", "healthcare": "clinic", "name": "Athina"}}, {"type": "node", "id": 11079103666, "lat": 47.156962, "lon": 27.5808848, "tags": {"amenity": "clinic", "healthcare": "clinic", "name": "Emerald"}}, {"type": "node", "id": 11254642055, "lat": 47.1742769, "lon": 27.5772688, "tags": {"amenity": "clinic", "contact:email": "iasi@affidea.com", "contact:phone": "+40 21 9338", "contact:website": "https://affidea.ro/centre-medicale/affidea-iasi", "name": "Affidea", "opening_hours": "Mo-Fr 08:00-20:00"}}, {"type": "node", "id": 11761661311, "lat": 47.1460717, "lon": 27.5841231, "tags": {"addr:city": "Ia\u0219i", "addr:housenumber": "82", "addr:street": "Aleea Nicolina", "amenity": "clinic", "healthcare": "clinic", "healthcare:speciality": "blood_check;occupational;balneotherapy", "name": "Stefania Medical", "website": "http://www.stefaniamedical.com/"}}, {"type": "way", "id": 42725586, "nodes": [534313258, 534313259, 534313256, 534313257, 534313258], "tags": {"addr:housenumber": "78", "addr:street": "Strada Vasile Lupu", "addr:suburb": "T\u0103t\u0103ra\u0219i Sud", "amenity": "clinic", "building": "yes", "healthcare": "clinic", "name": "Hyperclinica MedLife"}}, {"type": "way", "id": 43175138, "nodes": [6439230994, 540948184, 540948187, 6439230993, 6439230994], "tags": {"addr:city": "Ia\u0219i", "addr:country": "RO", "addr:housenumber": "30", "addr:postcode": "700313", "addr:street": "Strada Ciurchi", "amenity": "clinic", "building": "construction", "construction": "healthcare", "healthcare": "clinic", "name": "Policlinica Veronica", "toilets:wheelchair": "no"}}, {"type": "way", "id": 133380059, "nodes": [1468306966, 1468307029, 1468307037, 1468307034, 1468307035, 1468307028, 1468306966], "tags": {"addr:city": "Ia\u0219i", "addr:housenumber": "2", "addr:street": "Strada Hatman \u0218endrea", "alt_name": "Arhimed Radiologie \u0219i Imagistic\u0103", "amenity": "clinic", "building": "yes", "healthcare": "clinic", "name": "Centrul de Diagnosticare Radiologic\u0103 \u0219i Imagistic\u0103 Nicolina", "phone": "+40 232227445", "website": "https://arhimed.ro/"}}, {"type": "way", "id": 204052305, "nodes": [2140650030, 2140650015, 2140650019, 2140650027, 2140650034, 2140650033, 2140650020, 2140650023, 2140650025, 2140650024, 2140650029, 2140650028, 2140650022, 2140650026, 2140650032, 2140650016, 2140650031, 2140650017, 2140650021, 2140650018, 2140650030], "tags": {"addr:housenumber": "38", "addr:postcode": "700116", "addr:street": "Strada S\u0103r\u0103rie", "alt_name": "Centrul Medical Arcadia S\u0103r\u0103rie", "amenity": "clinic", "building": "hospital", "name": "Arcadia", "website": "https://www.arcadiamedical.ro"}}, {"type": "way", "id": 206504620, "nodes": [2165136909, 2165136857, 2165136890, 2165136809, 2165136846, 2165136826, 2165136799, 2165136832, 2165136909], "tags": {"amenity": "clinic", "building": "yes", "building:levels": "4", "healthcare": "clinic"}}, {"type": "way", "id": 206575905, "nodes": [2165958977, 2165958925, 2165958961, 2165958963, 2165958977], "tags": {"addr:city": "Ia\u0219i", "addr:housenumber": "7", "addr:street": "Strada Grigore Ghica Vod\u0103", "amenity": "clinic", "building": "commercial", "building:levels": "5", "healthcare": "clinic", "name": "Euro Medi Center"}}, {"type": "way", "id": 207216960, "nodes": [2173807108, 2173807323, 2173807550, 2173807512, 2173807231, 2173807221, 2173807526, 2173807099, 2173807124, 2173807122, 2173807563, 2173807046, 2173807193, 2173807224, 2173807366, 2173807352, 2173807544, 2173807415, 2173807197, 2173807216, 2173807108], "tags": {"addr:city": "Ia\u0219i", "addr:street": "Strada Doctor Iacob Cihac", "amenity": "clinic", "building": "yes", "healthcare": "clinic", "name": "Ambulatoriul integrat al spitalului clinic de pneumoftiziologie Ia\u0219i", "operator": "Consiliul Jude\u021bean Ia\u0219i"}}, {"type": "way", "id": 1104732413, "nodes": [10109256687, 10109256688, 10109256689, 10109256690, 10109256687], "tags": {"addr:city": "Ia\u0219i", "addr:housenumber": "171A", "addr:postcode": "700714", "addr:street": "\u0218oseaua Nicolina", "amenity": "clinic", "building": "yes", "healthcare": "clinic", "name": "Arcadia - Centrul medical Nicolina", "website": "https://arcadiamedical.ro/"}}]}