{"version": 0.6, "generator": "Overpass API 0.7.62.1 084b4234", "osm3s": {"timestamp_osm_base": "2024-05-23T15:29:00Z", "copyright": "The data included in this document is from www.openstreetmap.org. The data is made available under ODbL."}, "elements": [{"type": "node", "id": 2311704107, "lat": 45.6654728, "lon": 25.6101557}, {"type": "node", "id": 2311704111, "lat": 45.6655185, "lon": 25.610532}, {"type": "node", "id": 2311704114, "lat": 45.6650852, "lon": 25.6099859}, {"type": "node", "id": 2311704115, "lat": 45.6652624, "lon": 25.6100331}, {"type": "node", "id": 2311704118, "lat": 45.6655339, "lon": 25.610413}, {"type": "node", "id": 2311704129, "lat": 45.6655711, "lon": 25.6101275}, {"type": "node", "id": 2311704144, "lat": 45.6650311, "lon": 25.6104022}, {"type": "node", "id": 2311704163, "lat": 45.6652541, "lon": 25.6100974}, {"type": "node", "id": 2376392975, "lat": 45.6393665, "lon": 25.6331035}, {"type": "node", "id": 2376392977, "lat": 45.6392861, "lon": 25.6325657}, {"type": "node", "id": 2376392980, "lat": 45.639434, "lon": 25.6325751}, {"type": "node", "id": 2376392982, "lat": 45.6394359, "lon": 25.6325483}, {"type": "node", "id": 2376392984, "lat": 45.6395091, "lon": 25.6331088}, {"type": "node", "id": 2376392985, "lat": 45.6393722, "lon": 25.6327038}, {"type": "node", "id": 2376392987, "lat": 45.6395203, "lon": 25.6325536}, {"type": "node", "id": 2376392990, "lat": 45.639284, "lon": 25.6326985}, {"type": "node", "id": 2546375658, "lat": 45.640913, "lon": 25.6231386}, {"type": "node", "id": 2546375662, "lat": 45.6409692, "lon": 25.6232478}, {"type": "node", "id": 2546375666, "lat": 45.6412712, "lon": 25.6236033}, {"type": "node", "id": 2546375671, "lat": 45.6410053, "lon": 25.6233458}, {"type": "node", "id": 2546375672, "lat": 45.640982, "lon": 25.6233703}, {"type": "node", "id": 2546375673, "lat": 45.6409366, "lon": 25.6232821}, {"type": "node", "id": 2546375674, "lat": 45.6411845, "lon": 25.6236945}, {"type": "node", "id": 2546375677, "lat": 45.6409905, "lon": 25.6230571}, {"type": "node", "id": 2776638587, "lat": 45.6599562, "lon": 25.5957772}, {"type": "node", "id": 2776638697, "lat": 45.6600333, "lon": 25.5960569}, {"type": "node", "id": 2776638723, "lat": 45.660051, "lon": 25.5957192}, {"type": "node", "id": 2776638815, "lat": 45.660121, "lon": 25.596007}, {"type": "node", "id": 2776638845, "lat": 45.6601367, "lon": 25.595998}, {"type": "node", "id": 2777602464, "lat": 45.6478565, "lon": 25.6103131, "tags": {"source": "http://www.pug-puz.ro/ ; legea544/2001"}}, {"type": "node", "id": 2777602542, "lat": 45.6478721, "lon": 25.610399, "tags": {"source": "http://www.pug-puz.ro/ ; legea544/2001"}}, {"type": "node", "id": 2777602557, "lat": 45.6478745, "lon": 25.6104117, "tags": {"source": "http://www.pug-puz.ro/ ; legea544/2001"}}, {"type": "node", "id": 2777602719, "lat": 45.647906, "lon": 25.6103999, "tags": {"source": "http://www.pug-puz.ro/ ; legea544/2001"}}, {"type": "node", "id": 2777602756, "lat": 45.6479145, "lon": 25.6104463, "tags": {"source": "http://www.pug-puz.ro/ ; legea544/2001"}}, {"type": "node", "id": 2777603153, "lat": 45.6479876, "lon": 25.6102648, "tags": {"source": "http://www.pug-puz.ro/ ; legea544/2001"}}, {"type": "node", "id": 2777603303, "lat": 45.6480138, "lon": 25.6104097, "tags": {"source": "http://www.pug-puz.ro/ ; legea544/2001"}}, {"type": "node", "id": 2777697901, "lat": 45.6558034, "lon": 25.5803102, "tags": {"source": "http://www.pug-puz.ro/ ; legea544/2001"}}, {"type": "node", "id": 2777698422, "lat": 45.6558707, "lon": 25.5804678, "tags": {"source": "http://www.pug-puz.ro/ ; legea544/2001"}}, {"type": "node", "id": 2777698668, "lat": 45.6558691, "lon": 25.5802527, "tags": {"source": "http://www.pug-puz.ro/ ; legea544/2001"}}, {"type": "node", "id": 2777698843, "lat": 45.6559247, "lon": 25.5804205, "tags": {"source": "http://www.pug-puz.ro/ ; legea544/2001"}}, {"type": "node", "id": 2777699102, "lat": 45.6559215, "lon": 25.5802069, "tags": {"source": "http://www.pug-puz.ro/ ; legea544/2001"}}, {"type": "node", "id": 2777699721, "lat": 45.6559888, "lon": 25.5803645, "tags": {"source": "http://www.pug-puz.ro/ ; legea544/2001"}}, {"type": "node", "id": 2777701017, "lat": 45.6561245, "lon": 25.5871504, "tags": {"source": "http://www.pug-puz.ro/ ; legea544/2001"}}, {"type": "node", "id": 2777701409, "lat": 45.6561726, "lon": 25.5872696, "tags": {"source": "http://www.pug-puz.ro/ ; legea544/2001"}}, {"type": "node", "id": 2777701720, "lat": 45.6562163, "lon": 25.5870776, "tags": {"source": "http://www.pug-puz.ro/ ; legea544/2001"}}, {"type": "node", "id": 2777702001, "lat": 45.6562434, "lon": 25.587148, "tags": {"source": "http://www.pug-puz.ro/ ; legea544/2001"}}, {"type": "node", "id": 2777702568, "lat": 45.6562755, "lon": 25.5871227, "tags": {"source": "http://www.pug-puz.ro/ ; legea544/2001"}}, {"type": "node", "id": 2777702618, "lat": 45.6562778, "lon": 25.5871286, "tags": {"source": "http://www.pug-puz.ro/ ; legea544/2001"}}, {"type": "node", "id": 2777702685, "lat": 45.6562871, "lon": 25.5871754, "tags": {"source": "http://www.pug-puz.ro/ ; legea544/2001"}}, {"type": "node", "id": 2777702749, "lat": 45.6562937, "lon": 25.5871699, "tags": {"source": "http://www.pug-puz.ro/ ; legea544/2001"}}, {"type": "node", "id": 6488040968, "lat": 45.6478775, "lon": 25.6103053, "tags": {"addr:city": "Bra\u0219ov", "addr:housenumber": "12", "addr:postcode": "500009", "addr:street": "Strada Cezar Bolliac", "entrance": "yes"}}, {"type": "node", "id": 6614650195, "lat": 45.6459084, "lon": 25.6207072, "tags": {"addr:city": "Bra\u0219ov", "addr:housenumber": "30", "addr:street": "Calea Bucure\u0219ti", "amenity": "clinic", "healthcare": "clinic", "name": "Regina Maria", "opening_hours": "Mo-Fr 08:00-20:00", "phone": "tel:+40219268", "website": "https://www.reginamaria.ro/clinici/brasov-calea-bucuresti"}}, {"type": "node", "id": 7406094730, "lat": 45.6409592, "lon": 25.623326, "tags": {"addr:city": "Bra\u0219ov", "addr:housenumber": "10", "addr:postcode": "500366", "addr:street": "Strada Livada Vulturului", "entrance": "main"}}, {"type": "node", "id": 9178160212, "lat": 45.6654796, "lon": 25.6101031}, {"type": "node", "id": 9465612717, "lat": 45.6694541, "lon": 25.5994999, "tags": {"addr:city": "Bra\u0219ov", "addr:housenumber": "26A", "addr:postcode": "500152", "addr:street": "Strada 1 Decembrie 1918", "amenity": "clinic", "healthcare": "clinic", "name": "ORTOKINETIC"}}, {"type": "node", "id": 10075254590, "lat": 45.653786, "lon": 25.623714, "tags": {"addr:housenumber": "72", "addr:street": "Strada Br\u00e2ndu\u0219elor", "amenity": "clinic", "email": "office@mwc.ro", "healthcare": "clinic", "name": "Medical Work Center", "phone": "+40 368 460 109;+40 753 339 035;+40 722 506 752", "website": "http://www.mwc.ro/"}}, {"type": "node", "id": 10127703077, "lat": 45.642836, "lon": 25.6279921, "tags": {"addr:city": "Bra\u0219ov", "addr:housenumber": "8", "addr:postcode": "500331", "addr:street": "Strada Hermann Oberth", "amenity": "clinic", "email": "ambulator@rmn-diagnostica.ro", "healthcare": "clinic", "name": "RMN Diagnostica", "phone": "+40 368 990", "website": "https://www.rmn-diagnostica.ro/policlinica-brasov/"}}, {"type": "node", "id": 10657023125, "lat": 45.641291, "lon": 25.6127287, "tags": {"addr:city": "Bra\u0219ov", "addr:housenumber": "20", "addr:postcode": "500281", "addr:street": "Bulevardul Muncii", "amenity": "clinic", "email": "office@kamivamed.ro", "healthcare": "clinic", "healthcare:speciality": "occupational", "name": "Kamiva Med", "opening_hours": "Mo-Fr 08:00-17:00", "phone": "+40 268 330 439;+40 747 13 13 00", "website": "https://www.kamivamed.ro/"}}, {"type": "node", "id": 10814239854, "lat": 45.6426303, "lon": 25.6282436, "tags": {"amenity": "clinic", "brand": "Synevo", "brand:wikidata": "Q85968400", "healthcare": "laboratory", "name": "Synevo", "phone": "0748137007"}}, {"type": "node", "id": 11076403247, "lat": 45.6463921, "lon": 25.6260982, "tags": {"addr:city": "Bra\u0219ov", "addr:housenumber": "82", "addr:street": "Strada Decebal", "amenity": "clinic", "healthcare": "clinic", "name": "Vivamed"}}, {"type": "node", "id": 11225069542, "lat": 45.6558173, "lon": 25.5803428, "tags": {"entrance": "yes"}}, {"type": "node", "id": 11254642050, "lat": 45.6480984, "lon": 25.6079773, "tags": {"amenity": "clinic", "contact:email": "brasov.scintigrafie@affidea.com", "contact:phone": "+40 21 9338", "contact:website": "https://affidea.ro/centre-medicale/hiperdia-brasov-carpatex-2", "name": "Affidea", "opening_hours": "Mo-Fr 07:30-20:00; Sa 08:00-12:00"}}, {"type": "node", "id": 11254642051, "lat": 45.64773, "lon": 25.620118, "tags": {"amenity": "clinic", "contact:email": "brasov.judetean@affidea.com", "contact:phone": "+40 21 9338", "contact:website": "https://affidea.ro/centre-medicale/affidea-hiperdia-brasov-calea-bucuresti", "name": "Affidea", "opening_hours": "Mo-Fr 07:30-20:00; Sa 08:00-12:00"}}, {"type": "node", "id": 11586576851, "lat": 45.6378991, "lon": 25.584645, "tags": {"amenity": "clinic", "contact:email": "brasov.imagistica@affidea.com", "contact:phone": "+40 232 219 338", "contact:website": "https://affidea.ro/", "name": "Affidea", "opening_hours": "Mo-Fr 07:30-16:00"}}, {"type": "node", "id": 11644925496, "lat": 45.6418896, "lon": 25.6160349, "tags": {"amenity": "clinic", "check_date": "2024-02-19", "healthcare": "clinic", "name": "Neomed", "opening_hours": "Mo-Fr 08:00-20:00; Sa 09:00-13:00; Su off"}}, {"type": "node", "id": 11868716779, "lat": 45.6615688, "lon": 25.5790646, "tags": {"addr:postcode": "500051", "amenity": "clinic", "name": "Clinical de Podologie Julia", "name:en": "Julia Podology clinic", "opening_hours": "Mo-Th 09:00-18:00; Fr 09:00-14:00", "operator": "Iulia Catana", "phone": "+40725006007", "website": "https://clinicajulia.ro/"}}, {"type": "node", "id": 11917520712, "lat": 45.6393682, "lon": 25.6228178, "tags": {"amenity": "clinic", "check_date": "2024-05-19", "healthcare": "clinic", "name": "Poliana"}}, {"type": "node", "id": 11917782826, "lat": 45.642232, "lon": 25.6283801, "tags": {"addr:city": "Bra\u0219ov", "addr:street": "Strada Uranus", "amenity": "clinic", "healthcare": "laboratory", "name": "Bioclinica"}}, {"type": "node", "id": 11917782835, "lat": 45.6419618, "lon": 25.6269072, "tags": {"addr:housenumber": "3", "addr:street": "Strada Uranus", "amenity": "clinic", "email": "office@clinica-sante.ro", "name": "Clinica Sante", "phone": "0268 586 042", "website": "https://www.clinica-sante.ro/sante-brasov-uranus/"}}, {"type": "node", "id": 11918410236, "lat": 45.651216, "lon": 25.6058794, "tags": {"amenity": "clinic", "email": "office@drgabriellostun.ro", "name": "Cabinet ORL", "phone": "0771.002.334", "website": "https://www.drgabriellostun.ro/"}}, {"type": "node", "id": 11924630669, "lat": 45.6634892, "lon": 25.5790824, "tags": {"addr:housenumber": "2", "addr:street": "Strada Stadionului", "amenity": "clinic", "name": "Clinica Sante", "name:en": "S\u00e2nte clinic", "opening_hours": "Mo-Fr 07:00-18:00; Sa 08:00-14:00"}}, {"type": "way", "id": 222189438, "nodes": [2311704107, 9178160212, 2311704129, 2311704118, 2311704111, 2311704144, 2311704114, 2311704115, 2311704163, 2311704107], "tags": {"amenity": "clinic", "building": "yes", "healthcare": "clinic", "name": "Policlinica Medlife"}}, {"type": "way", "id": 228997601, "nodes": [2376392990, 2376392985, 2376392975, 2376392984, 2376392987, 2376392982, 2376392980, 2376392977, 2376392990], "tags": {"amenity": "clinic", "building": "yes", "healthcare": "clinic", "name": "Stomatologie"}}, {"type": "way", "id": 247777631, "nodes": [2546375677, 2546375666, 2546375674, 2546375671, 2546375672, 7406094730, 2546375673, 2546375662, 2546375658, 2546375677], "tags": {"alt_name": "Hyperclinica MedLife PDR Livada Vulturului Bra\u0219ov", "amenity": "clinic", "building": "yes", "building:levels": "4", "name": "HyperClinica MedLife Vulturului", "opening_hours": "Mo-Fr 07:00-20:00; Sa 08:00-11:00"}}, {"type": "way", "id": 272733929, "nodes": [2776638845, 2776638815, 2776638697, 2776638587, 2776638723, 2776638845], "tags": {"addr:city": "Bra\u0219ov", "addr:housenumber": "2", "addr:street": "Strada Aurel Vlaicu", "amenity": "clinic", "branch": "Aurel Vlaicu", "brand": "Synevo", "brand:wikidata": "Q85968400", "building": "yes", "healthcare": "laboratory", "name": "Synevo", "opening_hours": "Mo-Fr 07:00-17:00; Sa 08:00-12:00", "phone": "+40 268 424 072;+40 268 424 073", "sample_collection": "yes", "website": "https://www.synevo.ro"}}, {"type": "way", "id": 272875667, "nodes": [2777697901, 2777698668, 2777699102, 2777699721, 2777698843, 2777698422, 11225069542, 2777697901], "tags": {"addr:city": "Bra\u0219ov", "addr:street": "Strada Memorandului", "amenity": "clinic", "building": "yes", "building:levels": "1", "healthcare": "clinic", "healthcare:speciality": "dentistry;general", "name": "Policlinica Studen\u021beasc\u0103", "source": "http://www.pug-puz.ro/;legea544/2001"}}, {"type": "way", "id": 272880865, "nodes": [2777603303, 2777602756, 2777602719, 2777602557, 2777602542, 2777602464, 6488040968, 2777603153, 2777603303], "tags": {"amenity": "clinic", "building": "yes", "healthcare": "clinic", "healthcare:speciality": "ophthalmology", "name": "Opticristal", "source": "http://www.pug-puz.ro/ ; legea544/2001"}}, {"type": "way", "id": 272885900, "nodes": [2777702749, 2777702685, 2777701409, 2777701017, 2777701720, 2777702001, 2777702568, 2777702618, 2777702749], "tags": {"addr:city": "Bra\u0219ov", "addr:housenumber": "39", "addr:street": "Strada Nicopole", "amenity": "clinic", "building": "yes", "email": "mykineticbrasov@gmail.com", "healthcare": "physiotherapist", "name": "My Kinetic", "phone": "+40 753 29 29 29", "source": "http://www.pug-puz.ro/ ; legea544/2001", "website": "http://www.mykinetic.ro/"}}]}