{"version": 0.6, "generator": "Overpass API 0.7.62.1 084b4234", "osm3s": {"timestamp_osm_base": "2024-05-24T08:19:24Z", "copyright": "The data included in this document is from www.openstreetmap.org. The data is made available under ODbL."}, "elements": [{"type": "node", "id": 5063845830, "lat": 16.451742, "lon": -14.3275808, "tags": {"addr:city": "A\u00e9r\u00e9 Poste", "addr:full": "A\u00e9r\u00e9 poste/ bod\u00e9", "amenity": "doctors", "beds": "1", "contact:phone": "762344896", "electricity": "no", "emergency": "yes", "healthcare": "doctor, pharmacy, birthing center", "healthcare:equipment": "Emergency Department", "insurance:health": "None", "name": "case de sante a\u00e9r\u00e9 poste", "name:en": "Health Hut", "opening_hours": "24/7", "operational_status": "operational", "operator": "Minist\u00e8re de la sant\u00e9 et de l'action sociale", "operator:type": "public", "osm_id": "082bbdce-f586-42bc-abf9-94a5a4dd41df", "source": "#senegal #covid-19 #emergency-health-data-validation #healthsites", "staff_count:nurses": "1", "water_source": "well", "wheelchair": "yes"}}, {"type": "node", "id": 9658850189, "lat": 16.505633, "lon": -14.2107816, "tags": {"addr:full": "Walald\u00e9/ p\u00e9t\u00e9", "amenity": "doctors", "beds": "11", "contact:phone": "775250285", "electricity": "grid", "emergency": "yes", "healthcare": "Doctor, Pharmacy, Birthing center", "healthcare:equipment": "Emergency Department", "insurance:health": "public", "name": "post\u00e9 de sante de walald\u00e9", "opening_hours": "24/7", "operational_status": "operational", "operator": "Minist\u00e8re de la sant\u00e9 et de l'action sociale", "operator:type": "public", "osm_id": "22910aa0-1874-412d-bddf-bccbdc60c623", "source": "#senegal #covid-19 #emergency-health-data-validation #healthsites", "staff_count:nurses": "1", "water_source": "water works", "wheelchair": "yes"}}, {"type": "node", "id": 9658850191, "lat": 16.4207833, "lon": -14.1071584, "tags": {"addr:full": "Tchila/p\u00e9t\u00e9", "amenity": "doctors", "beds": "6", "contact:phone": "782080713", "electricity": "grid", "emergency": "yes", "healthcare": "doctor, pharmacy, birthing center", "healthcare:equipment": "Emergency Department", "insurance:health": "None", "name": "case de sante de tchila", "opening_hours": "24/7", "operational_status": "operational", "operator": "Minist\u00e8re de la sant\u00e9 et de l'action sociale", "operator:type": "public", "osm_id": "1c46030a-73e3-4e7b-841b-a79a62327266", "source": "#senegal #covid-19 #emergency-health-data-validation #healthsites", "staff_count:nurses": "2", "water_source": "well", "wheelchair": "no"}}, {"type": "node", "id": 9658850192, "lat": 16.3870664, "lon": -14.0593588, "tags": {"addr:full": "Cas cas/ p\u00e9t\u00e9", "amenity": "doctors", "beds": "5", "contact:phone": "773164267", "electricity": "grid", "emergency": "yes", "healthcare": "doctor, pharmacy, birthing center", "healthcare:equipment": "Emergency Department", "insurance:health": "None", "name": "post\u00e9 de sante cas cas", "opening_hours": "24/7", "operational_status": "operational", "operator": "Minist\u00e8re de la sant\u00e9 et de l'action sociale", "operator:type": "public", "osm_id": "ced4f76b-b89b-44c6-9f4b-3369e57909fb", "source": "#senegal #covid-19 #emergency-health-data-validation #healthsites", "staff_count:nurses": "2", "water_source": "water works", "wheelchair": "no"}}, {"type": "node", "id": 9989552382, "lat": 16.4347425, "lon": -14.2761832, "tags": {"addr:full": "Word\u00e9/P\u00e9t\u00e9", "amenity": "doctors", "beds": "2", "electricity": "grid", "emergency": "yes", "healthcare": "doctor, birthing center", "healthcare:equipment": "Emergency Department", "insurance:health": "None", "name": "case de sante de word\u00e9", "opening_hours": "24/7", "operational_status": "operational", "operator": "Minist\u00e8re de la sant\u00e9 et de l'action sociale", "operator:type": "public", "osm_id": "3a110dfb-806a-4034-a5dd-98f43f554f75", "source": "#senegal #covid-19 #emergency-health-data-validation #healthsites", "staff_count:doctors": "0", "staff_count:nurses": "0", "water_source": "water works", "wheelchair": "limited"}}, {"type": "node", "id": 9989552383, "lat": 16.4584136, "lon": -14.4083575, "tags": {"addr:full": "Kogga Walo/Podor", "amenity": "doctors", "beds": "2", "electricity": "grid", "emergency": "yes", "fixme": "location", "healthcare": "doctor", "healthcare:equipment": "Emergency Department", "insurance:health": "None", "name": "case de sante de kogga walo", "opening_hours": "24/7", "operational_status": "operational", "operator": "Minist\u00e8re de la sant\u00e9 et de l'action sociale", "operator:type": "public", "osm_id": "f3aee2a3-0761-4e3f-8eae-be0d6434e22b", "source": "#senegal #covid-19 #emergency-health-data-validation #healthsites", "staff_count:doctors": "0", "staff_count:nurses": "0", "water_source": "water works", "wheelchair": "limited"}}, {"type": "node", "id": 9989552386, "lat": 16.2349042, "lon": -14.2396593, "tags": {"addr:full": "Waw waw/ m\u00e9dina ndiathb\u00e9", "amenity": "doctors", "beds": "1", "electricity": "no", "emergency": "yes", "healthcare": "doctor, pharmacy, birthing center", "healthcare:equipment": "Emergency Department", "insurance:health": "None", "name": "case de sante waw waw", "opening_hours": "24/7", "operational_status": "operational", "operator": "Minist\u00e8re de la sant\u00e9 et de l'action sociale", "operator:type": "public", "osm_id": "7ab772ce-3053-45ce-bab9-db7adceb3351", "source": "#senegal #covid-19 #emergency-health-data-validation #healthsites", "staff_count:nurses": "1", "water_source": "well", "wheelchair": "no"}}, {"type": "node", "id": 9989552387, "lat": 16.4357916, "lon": -14.4246943, "tags": {"addr:full": "Cogga di\u00e9ry/ bod\u00e9lawo", "amenity": "doctors", "beds": "2", "contact:phone": "776637012", "electricity": "grid", "emergency": "yes", "healthcare": "doctor, pharmacy, birthing center", "healthcare:equipment": "Emergency Department", "insurance:health": "None", "name": "case de sante cogga di\u00e9ry", "opening_hours": "24/7", "operational_status": "operational", "operator": "Minist\u00e8re de la sant\u00e9 et de l'action sociale", "operator:type": "public", "osm_id": "ef544553-9e72-45d7-aa40-1fd338e08473", "source": "#senegal #covid-19 #emergency-health-data-validation #healthsites", "staff_count:nurses": "1", "water_source": "water works", "wheelchair": "no"}}, {"type": "node", "id": 9989552406, "lat": 16.4685768, "lon": -14.1861447, "tags": {"addr:full": "Bark\u00e9dji/P\u00e9t\u00e9", "amenity": "doctors", "beds": "2", "electricity": "no", "emergency": "yes", "healthcare": "doctor", "insurance:health": "Unknown", "name": "case de sante de bark\u00e9dji", "opening_hours": "24/7", "operational_status": "operational", "operator": "Minist\u00e8re de la sant\u00e9 et de l'action sociale", "operator:type": "public", "osm_id": "1898e00f-615d-4409-a87c-6a3110ce3003", "source": "#senegal #covid-19 #emergency-health-data-validation #healthsites", "staff_count:doctors": "0", "staff_count:nurses": "0", "water_source": "water works", "wheelchair": "limited"}}, {"type": "node", "id": 9989552408, "lat": 16.4541761, "lon": -14.1432271, "tags": {"addr:full": "Siwr\u00e9/P\u00e9t\u00e9", "amenity": "doctors", "beds": "7", "contact:phone": "773556126", "electricity": "grid", "emergency": "yes", "healthcare": "doctor, pharmacy, birthing center", "healthcare:equipment": "Emergency Department", "insurance:health": "None", "name": "poste de sante de siwr\u00e9", "opening_hours": "24/7", "operational_status": "operational", "operator": "Minist\u00e8re de la sant\u00e9 et de l'action sociale", "operator:type": "public", "osm_id": "f26d6b21-ba5e-44e1-93e3-b5bb09ff68e2", "source": "#senegal #covid-19 #emergency-health-data-validation #healthsites", "staff_count:doctors": "0", "staff_count:nurses": "1", "water_source": "water works", "wheelchair": "limited"}}, {"type": "node", "id": 9989552409, "lat": 16.3883958, "lon": -14.0716044, "tags": {"amenity": "hospital", "healthcare": "hospital", "insurance:health": "Unknown", "name": "centre de sante de cas-cas", "opening_hours": "unknown", "operational_status": "non_operational", "operator": "Minist\u00e8re de sant\u00e9Minist\u00e8re de la sant\u00e9 et de l'action sociale", "operator:type": "public", "osm_id": "5902ae15-0d15-4cf1-a230-f16e0dba3f31", "source": "#senegal #covid-19 #emergency-health-data-validation #healthsites"}}, {"type": "node", "id": 9989552413, "lat": 16.5052151, "lon": -14.2122755, "tags": {"addr:full": "Walald\u00e9/ p\u00e9t\u00e9", "amenity": "doctors", "beds": "11", "contact:phone": "775250285", "electricity": "grid", "emergency": "yes", "healthcare": "doctor, pharmacy, birthing center", "healthcare:equipment": "Emergency Department", "insurance:health": "public", "name": "post\u00e9 de sante de walald\u00e9", "opening_hours": "24/7", "operational_status": "operational", "operator": "Minist\u00e8re de la sant\u00e9 et de l'action sociale", "operator:type": "public", "osm_id": "22910aa0-1874-412d-bddf-bccbdc60c623", "source": "#senegal #covid-19 #emergency-health-data-validation #healthsites", "staff_count:nurses": "1", "water_source": "water works", "wheelchair": "yes"}}, {"type": "node", "id": 9989554728, "lat": 16.2933001, "lon": -14.1366949, "tags": {"addr:full": "M\u00e9dina Ndiathb\u00e9/P\u00e9t\u00e9", "amenity": "pharmacy", "electricity": "grid", "emergency": "yes", "healthcare": "pharmacy", "insurance:health": "Unknown", "name": "pharmacie thierno hamidou rabby", "opening_hours": "24/7", "operational_status": "operational", "operator": "pharmacie thierno hamidou rabby", "operator:type": "private", "osm_id": "229b534a-8c48-41cf-a9db-009b031d8bf8", "source": "#senegal #covid-19 #emergency-health-data-validation #healthsites", "staff_count:doctors": "1", "water_source": "water works", "wheelchair": "yes"}}, {"type": "node", "id": 9989554731, "lat": 16.3959786, "lon": -14.3259875, "tags": {"addr:full": "A\u00e9r\u00e9 Lao/P\u00e9t\u00e9", "amenity": "clinic", "beds": "5", "contact:phone": "776597564", "electricity": "grid", "emergency": "yes", "healthcare": "doctor, clinic", "insurance:health": "public private", "name": "cabinet de sante seydina mouhamed (psl) de la vall\u00e9e du fleuve", "opening_hours": "24/7", "operational_status": "operational", "operator": "Dr Mamadou Fall", "operator:type": "private", "osm_id": "94fe78ef-cc5f-415e-b768-21735a6f76ad", "source": "#senegal #covid-19 #emergency-health-data-validation #healthsites", "staff_count:doctors": "0", "staff_count:nurses": "1", "water_source": "water works", "wheelchair": "yes"}}, {"type": "node", "id": 9989554736, "lat": 16.3934487, "lon": -14.3236337, "tags": {"addr:full": "A\u00e9r\u00e9 Lao/Ndioum", "amenity": "pharmacy", "contact:phone": "339657280", "electricity": "grid", "emergency": "yes", "healthcare": "pharmacy", "insurance:health": "None", "name": "pharmacie du lao", "opening_hours": "24/7", "operational_status": "operational", "operator": "pharmacie du lao", "operator:type": "private", "osm_id": "1294cc68-44bb-4da3-8901-7be83b6317d1", "source": "#senegal #covid-19 #emergency-health-data-validation #healthsites", "water_source": "well", "wheelchair": "yes"}}, {"type": "node", "id": 9989554737, "lat": 16.487997, "lon": -14.4341673, "tags": {"addr:full": "Dodel/Podor", "amenity": "pharmacy", "beds": "0", "contact:phone": "338615660", "electricity": "grid", "emergency": "yes", "healthcare": "pharmacy", "insurance:health": "private public", "name": "pharmacie el.h.omar foutiyou tall dodel", "opening_hours": "24/7", "operational_status": "operational", "operator": "Docteur DIOP", "operator:type": "private", "osm_id": "b722d017-ec29-4a1e-a788-53072496def8", "source": "#senegal #covid-19 #emergency-health-data-validation #healthsites", "staff_count:doctors": "1", "staff_count:nurses": "0", "water_source": "water works", "wheelchair": "yes"}}, {"type": "node", "id": 9989554743, "lat": 16.490222, "lon": -14.4347554, "tags": {"addr:full": "Podor", "amenity": "clinic", "electricity": "grid", "healthcare": "clinic;doctor", "insurance:health": "private public", "name": "Clinique Dr Sall", "opening_hours": "unknown", "operational_status": "operational", "operator": "Docteur Sall", "operator:type": "private", "osm_id": "fd56759c-2c06-4cb3-bafb-a3380f452815", "source": "#senegal #covid-19 #emergency-health-data-validation #healthsites", "wheelchair": "no"}}]}