{"version": 0.6, "generator": "Overpass API 0.7.62.1 084b4234", "osm3s": {"timestamp_osm_base": "2024-05-23T15:41:09Z", "copyright": "The data included in this document is from www.openstreetmap.org. The data is made available under ODbL."}, "elements": [{"type": "node", "id": 2437927083, "lat": 45.8411215, "lon": 24.9579711}, {"type": "node", "id": 4062090075, "lat": 45.84368, "lon": 24.96558, "tags": {"amenity": "clinic", "healthcare": "clinic", "name": "Medlife"}}, {"type": "node", "id": 4066933872, "lat": 45.8428512, "lon": 24.9772532, "tags": {"amenity": "clinic", "description": "Dr. Florin Or\u0103\u0219teanu", "healthcare": "clinic", "name": "Cabinet oftalmologic", "phone": "+40749817751"}}, {"type": "node", "id": 4197397086, "lat": 45.8354771, "lon": 24.9682803, "tags": {"addr:city": "F\u0103g\u0103ra\u0219", "addr:housenumber": "25", "addr:postcode": "505200", "addr:street": "Strada 13 Decembrie", "amenity": "clinic", "healthcare": "clinic", "name": "Clinica de diagnoz\u0103 \u0219i tratament CNNA", "phone": "+40 268 212 001"}}, {"type": "node", "id": 10633748351, "lat": 45.8409242, "lon": 24.9581444}, {"type": "node", "id": 10633748352, "lat": 45.8409179, "lon": 24.9581238}, {"type": "node", "id": 10633748355, "lat": 45.8408459, "lon": 24.9581767}, {"type": "node", "id": 10633748356, "lat": 45.8408501, "lon": 24.9581907}, {"type": "node", "id": 10633748357, "lat": 45.8408649, "lon": 24.9579419}, {"type": "node", "id": 10633748358, "lat": 45.8410702, "lon": 24.957811}, {"type": "node", "id": 10633748359, "lat": 45.8411674, "lon": 24.9581228}, {"type": "node", "id": 10633748360, "lat": 45.8412278, "lon": 24.95808}, {"type": "node", "id": 10633748361, "lat": 45.8411048, "lon": 24.9576751}, {"type": "node", "id": 10633748362, "lat": 45.8411216, "lon": 24.9576648}, {"type": "node", "id": 10633748363, "lat": 45.8411077, "lon": 24.9576151}, {"type": "node", "id": 10633748364, "lat": 45.8407497, "lon": 24.9578372}, {"type": "node", "id": 10633760139, "lat": 45.8412208, "lon": 24.958057}, {"type": "way", "id": 1141571936, "nodes": [10633748352, 10633748357, 10633748358, 2437927083, 10633748359, 10633748360, 10633760139, 10633748361, 10633748362, 10633748363, 10633748364, 10633748355, 10633748356, 10633748351, 10633748352], "tags": {"addr:city": "F\u0103g\u0103ra\u0219", "addr:housenumber": "1", "addr:postcode": "505200", "addr:street": "Strada Ghioceilor", "amenity": "clinic", "building": "yes", "healthcare": "clinic", "name": "Policlinica F\u0103g\u0103ra\u0219"}}]}