{"version": 0.6, "generator": "Overpass API 0.7.62.1 084b4234", "osm3s": {"timestamp_osm_base": "2024-05-24T08:19:24Z", "copyright": "The data included in this document is from www.openstreetmap.org. The data is made available under ODbL."}, "elements": [{"type": "node", "id": 10860572105, "lat": 14.8171351, "lon": -14.3995019, "tags": {"addr:city": "Mbembem", "amenity": "clinic", "beds": "6", "electricity": "solar", "insurance:health": "yes", "name": "Poste de Sante de Mbemmbem", "opening_hours": "24/7", "operational_status": "operational", "operator:type": "public", "source": "#senegal #Public Health #Sunu Wer Gye Yaram #WNAH #Healthsites", "water_source": "well", "wheelchair": "yes"}}, {"type": "node", "id": 10860572210, "lat": 15.0118831, "lon": -13.9839049, "tags": {"addr:city": "Lobaly", "amenity": "clinic", "beds": "7", "electricity": "grid", "insurance:health": "yes", "name": "Poste de sante Lobaly", "opening_hours": "24/7", "operational_status": "operational", "operator:type": "public", "source": "#senegal #Public Health #Sunu Wer Gye Yaram #WNAH #Healthsites", "water_source": "water_works", "wheelchair": "yes"}}, {"type": "node", "id": 10860572237, "lat": 15.2168893, "lon": -14.1625106, "tags": {"addr:city": "Fourdou", "amenity": "clinic", "beds": "5", "electricity": "solar", "insurance:health": "yes", "name": "Poste de Sante de Fourdou", "opening_hours": "24/7", "operational_status": "operational", "operator:type": "public", "source": "#senegal #Public Health #Sunu Wer Gye Yaram #WNAH #Healthsites", "water_source": "pump", "wheelchair": "no"}}]}