{"version": 0.6, "generator": "Overpass API 0.7.62.1 084b4234", "osm3s": {"timestamp_osm_base": "2024-05-23T15:37:10Z", "copyright": "The data included in this document is from www.openstreetmap.org. The data is made available under ODbL."}, "elements": [{"type": "node", "id": 4751179333, "lat": 44.424326, "lon": 24.3769262}, {"type": "node", "id": 4751179442, "lat": 44.4241604, "lon": 24.3770455}, {"type": "node", "id": 4751179482, "lat": 44.4242431, "lon": 24.3768555}, {"type": "node", "id": 4751179886, "lat": 44.4242434, "lon": 24.3771159}, {"type": "node", "id": 5385421210, "lat": 44.4281541, "lon": 24.3607622, "tags": {"addr:city": "Slatina", "addr:housenumber": "21", "addr:postcode": "230115", "addr:street": "Strada Vintil\u0103 Vod\u0103", "amenity": "clinic", "healthcare": "clinic", "name": "Policlinica Promed", "website": "https://policlinicapromed.ro/"}}, {"type": "node", "id": 5410134705, "lat": 44.4257464, "lon": 24.3619517, "tags": {"addr:city": "Slatina", "addr:housenumber": "16A", "addr:street": "Strada Basarabilor", "amenity": "clinic", "healthcare": "clinic", "name": "Centrul Medical Unimed", "website": "http://www.unimedclinic.ro/"}}, {"type": "node", "id": 5451907072, "lat": 44.4239818, "lon": 24.3722807, "tags": {"addr:city": "Slatina", "addr:housenumber": "5", "addr:street": "Strada M\u00e2n\u0103stirii", "amenity": "clinic", "healthcare": "clinic", "name": "Clinica Hellios"}}, {"type": "node", "id": 6223681944, "lat": 44.4304826, "lon": 24.3824121}, {"type": "node", "id": 6223681945, "lat": 44.4305109, "lon": 24.3825558}, {"type": "node", "id": 6223681946, "lat": 44.430309, "lon": 24.3826336}, {"type": "node", "id": 6223681947, "lat": 44.4302808, "lon": 24.3824899}, {"type": "node", "id": 7089037190, "lat": 44.4293953, "lon": 24.3638045, "tags": {"addr:city": "Slatina", "addr:street": "Aleea Independen\u021bei", "amenity": "clinic", "healthcare": "clinic", "name": "Synevo Slatina", "opening_hours": "Mo-Fr 07:00-15:30", "operator": "Synevo", "operator:type": "private_for_profit"}}, {"type": "node", "id": 10270995487, "lat": 44.432523, "lon": 24.3702203, "tags": {"addr:city": "Slatina", "amenity": "clinic", "healthcare": "clinic", "name": "Regina Maria Cri\u0219an Slatina"}}, {"type": "node", "id": 11254642061, "lat": 44.4345191, "lon": 24.3681747, "tags": {"amenity": "clinic", "contact:email": "slatina@affidea.com", "contact:phone": "+40 21 9338", "contact:website": "https://affidea.ro/centre-medicale/centrul-de-imagistica-sanmed-slatina", "name": "Affidea", "opening_hours": "Mo-Fr 08:00-20:00"}}, {"type": "way", "id": 482276047, "nodes": [4751179333, 4751179482, 4751179442, 4751179886, 4751179333], "tags": {"addr:city": "Slatina", "addr:housenumber": "1D", "addr:postcode": "230053", "addr:postcode:source": "Date de la Po\u0219ta Rom\u00e2n\u0103, publicate sub Licen\u021ba pentru Guvernare Deschis\u0103 v1.0 la http://date.gov.ro/organization/posta-romana", "addr:street": "Aleea Tineretului", "amenity": "clinic", "amenity_1": "doctors", "building": "yes", "building:levels": "5", "healthcare": "clinic", "name": "LISIMED", "phone": "0249402000"}}, {"type": "way", "id": 664915382, "nodes": [6223681944, 6223681945, 6223681946, 6223681947, 6223681944], "tags": {"addr:city": "Slatina", "addr:housenumber": "22", "addr:postcode": "230070", "addr:street": "Strada Tunari", "amenity": "clinic", "building": "yes", "email": "contact@spectrumclinique.ro", "emergency": "no", "healthcare": "clinic", "healthcare:speciality": "ophthalmology", "name": "Spectrum Clinique - Clinica de Chirurgie Oftalmologica", "name:en": "Spectrum Clinique - Ophthalmology Clinic", "operator": "Spectrum Clinique", "operator:type": "private", "phone": "+40749565363", "roof:colour": "#7F7465", "roof:shape": "gabled", "website": "https://www.spectrumclinique.ro/"}}]}