{"version": 0.6, "generator": "Overpass API 0.7.62.1 084b4234", "osm3s": {"timestamp_osm_base": "2024-05-24T08:16:17Z", "copyright": "The data included in this document is from www.openstreetmap.org. The data is made available under ODbL."}, "elements": [{"type": "node", "id": 6335900699, "lat": 14.7004666, "lon": -16.4556261, "tags": {"addr:full": "wakhal diam", "amenity": "doctors", "beds": "40", "electricity": "Power grid", "emergency": "yes", "healthcare": "Ultrasound,X-Ray,Laboratory,Imaging Equipment,Emergency Department", "name": "CENTRE DE SANTE DE BAMBEY", "operational_status": "Operational", "operator": "Djibril Thiar\u00e9", "operator:type": "Public", "source": "#senegal #covid-19 #emergency-health-data #healthsites", "water_source": "water works", "wheelchair": "yes"}}, {"type": "node", "id": 6335900700, "lat": 14.7016551, "lon": -16.4547086, "tags": {"amenity": "clinic", "name": "Centre m\u00e9dical universitaire de Bambey", "operator": "public"}}, {"type": "node", "id": 8132683973, "lat": 14.760766, "lon": -16.683435, "tags": {"addr:city": "Khombole", "addr:full": "KHOMBOLE-KEUR MACODOU", "addr:postcode": "SEN", "amenity": "hospital", "beds": "57", "electricity": "generator", "healthcare": "hospital", "healthcare:speciality": "dentist;internal;paediatrics;ophthalmology;radiology;gynaecology;infectious_diseases", "internet_access": "yes", "name": "district sanitaire Fiacre Coly de Khombole", "operational_status": "Operational", "operator": "MINISTERE DE LA SANTE ET DE L'ACTION SOCIALE", "operator:type": "public", "source": "#senegal #covid-19 #emergency-health-data #healthsites", "water_source": "water works", "wheelchair": "yes"}}]}