{"version": 0.6, "generator": "Overpass API 0.7.62.1 084b4234", "osm3s": {"timestamp_osm_base": "2024-05-23T15:31:01Z", "copyright": "The data included in this document is from www.openstreetmap.org. The data is made available under ODbL."}, "elements": [{"type": "node", "id": 2128987380, "lat": 45.4246525, "lon": 28.0224136, "tags": {"amenity": "clinic", "name": "Centrul de nefrologie \u0219i dializ\u0103"}}, {"type": "node", "id": 2161363186, "lat": 45.428209, "lon": 28.046956, "tags": {"amenity": "clinic", "name": "Doctor Pediatru Baciu Ginel"}}, {"type": "node", "id": 2161391507, "lat": 45.4356422, "lon": 28.0549276, "tags": {"amenity": "clinic", "name": "Avant Medica"}}, {"type": "node", "id": 2161400786, "lat": 45.436176, "lon": 28.0245044, "tags": {"amenity": "clinic", "name": "Danubius Medica"}}, {"type": "node", "id": 4270186991, "lat": 45.4308284, "lon": 28.0554914, "tags": {"amenity": "clinic", "name": "CABINET MEDICAL CARDIOLOGIE DR. BUCATANSCHI", "phone": "0236435373"}}, {"type": "node", "id": 4417554791, "lat": 45.4318306, "lon": 28.0248483, "tags": {"amenity": "clinic", "email": "office@interbeauty.ro", "internet_access": "wlan", "name": "InterBeauty Clinic", "name:en": "InterBeauty Clinic", "name:ro": "InterBeauty Clinic", "opening_hours": "Mo-Sa 08:00-21:00; Su", "website": "https://www.interbeauty.ro/"}}, {"type": "node", "id": 4442221390, "lat": 45.4433448, "lon": 28.0466935, "tags": {"amenity": "clinic", "name": "Cabinet Medical Obstetrica Ginecologie", "name:ro": "Cabinet Medical Obstetrica Ginecologie", "opening_hours": "Tu-Th 15:00-19:00"}}, {"type": "node", "id": 4642326710, "lat": 45.4292649, "lon": 28.0406862, "tags": {"amenity": "clinic", "contact:email": "galati@affidea.com", "contact:phone": "+40 21 9338", "contact:website": "https://affidea.ro/centre-medicale/affidea-hiperdia-galati", "healthcare": "clinic", "name": "Affidea", "opening_hours": "Mo-Fr 08:00-20:00; Sa 08:00-13:00"}}, {"type": "node", "id": 5048507628, "lat": 45.4512681, "lon": 28.0472102, "tags": {"amenity": "clinic", "name": "Centru Medical \"Sanavita\"", "name:en": "Medical Centre \"Sanavita\""}}, {"type": "node", "id": 5275600131, "lat": 45.4306329, "lon": 28.0190537, "tags": {"addr:city": "Gala\u021bi", "addr:housenumber": "17", "addr:postcode": "800494", "addr:street": "Strada Gheorghe Asachi", "amenity": "clinic", "email": "office@cavxmed.ro", "healthcare": "clinic", "name": "Remenix", "opening_hours": "Mo-Fr 07:30-13:00, 14:00-20:30", "phone": "0336733156", "website": "https://www.remenix.ro/"}}, {"type": "node", "id": 6525128085, "lat": 45.4333349, "lon": 28.0250807, "tags": {"addr:housenumber": "19-23", "amenity": "clinic", "name": "Audionova"}}, {"type": "node", "id": 6525199686, "lat": 45.4306199, "lon": 28.0190859, "tags": {"addr:housenumber": "17", "addr:street": "Strada Gheorghe Asachi", "amenity": "clinic", "name": "Chiriac S.R.L.", "opening_hours": "Mo-Fr 09:00-18:00"}}, {"type": "node", "id": 6525454288, "lat": 45.4453704, "lon": 28.0236998, "tags": {"amenity": "clinic", "name": "Romar Medical"}}, {"type": "node", "id": 7054277795, "lat": 45.4502834, "lon": 28.0258898, "tags": {"addr:city": "Gala\u021bi", "addr:housenumber": "3", "addr:postcode": "800675", "addr:street": "Bulevardul Milcov", "amenity": "clinic", "description": "Cabinet de pneumologie in contract cu Casa de Asigurari de Sanatate. Consultatiile legate de medicina somnului (somnologie) nu sunt decontate deocamdata de CAS, ceea ce presupune ca pacientul va plati in intregime costul serviciilor.", "email": "anamaria.necula@pneumolog-galati.eu", "emergency": "yes", "healthcare": "hospital", "healthcare:speciality": "pulmonology;sleeping_medicine", "name": "Pneumologie si Medicina somnului - Dr. Anamaria Necula", "operator": "Pneumologie si Medicina somnului - Dr. Anamaria Necula", "operator:type": "private_for_profit", "phone": "0743 662 589", "website": "https://pneumolog-galati.eu"}}, {"type": "node", "id": 9899460596, "lat": 45.4296305, "lon": 28.049302}, {"type": "node", "id": 9899460597, "lat": 45.4295327, "lon": 28.0493837}, {"type": "node", "id": 9899460598, "lat": 45.4296768, "lon": 28.0497333}, {"type": "node", "id": 9899460599, "lat": 45.4297745, "lon": 28.0496515}, {"type": "way", "id": 1079997987, "nodes": [9899460596, 9899460597, 9899460598, 9899460599, 9899460596], "tags": {"access": "customers", "addr:city": "Gala\u021bi", "addr:housenumber": "39", "addr:street": "Strada Alexandru L\u0103pu\u0219neanu", "amenity": "clinic", "building": "yes", "building:levels": "1", "building:material": "concrete", "description": "Cabinete Medicale Individuale Medicin\u0103 dentar\u0103", "description:en": "Individual Medical Offices Dentistry", "healthcare": "dentist", "healthcare:speciality": "dentistry;radiology;neurology;stomatology;paediatrics;implantology;periodontics;endodontics", "name": "Cabinete Medicale Individuale Medicin\u0103 dentar\u0103", "name:en": "Individual Medical Offices Dentistry", "opening_hours": "Mo-Fr 09:00-18:00", "stairs": "outdoor", "toilets": "not-sure", "wheelchair": "yes"}}]}