{"version": 0.6, "generator": "Overpass API 0.7.62.1 084b4234", "osm3s": {"timestamp_osm_base": "2024-05-24T08:21:30Z", "copyright": "The data included in this document is from www.openstreetmap.org. The data is made available under ODbL."}, "elements": [{"type": "node", "id": 1912414435, "lat": 9.4319615, "lon": -13.0900827}, {"type": "node", "id": 3246203195, "lat": 9.1248518, "lon": -12.9133933}, {"type": "node", "id": 3246237359, "lat": 9.1250738, "lon": -12.9130458}, {"type": "node", "id": 3246237360, "lat": 9.1243264, "lon": -12.912556}, {"type": "node", "id": 3246237761, "lat": 9.1241258, "lon": -12.91287}, {"type": "node", "id": 3246237762, "lat": 9.1241832, "lon": -12.9129076}, {"type": "node", "id": 3246237763, "lat": 9.1243798, "lon": -12.9126242}, {"type": "node", "id": 3246237764, "lat": 9.1244374, "lon": -12.912662}, {"type": "node", "id": 3246237765, "lat": 9.124333, "lon": -12.9128254}, {"type": "node", "id": 3246237766, "lat": 9.1244295, "lon": -12.9128887}, {"type": "node", "id": 3246237767, "lat": 9.1243472, "lon": -12.9130175}, {"type": "node", "id": 3246237768, "lat": 9.124477, "lon": -12.9131026}, {"type": "node", "id": 3246237769, "lat": 9.1246528, "lon": -12.9128275}, {"type": "node", "id": 3246237770, "lat": 9.1247694, "lon": -12.912904}, {"type": "node", "id": 3246237771, "lat": 9.1246008, "lon": -12.913168}, {"type": "node", "id": 3246237772, "lat": 9.1246679, "lon": -12.913212}, {"type": "node", "id": 3246237773, "lat": 9.1248333, "lon": -12.9129529}, {"type": "node", "id": 3246237774, "lat": 9.1249174, "lon": -12.913008}, {"type": "node", "id": 3246237775, "lat": 9.1248616, "lon": -12.9130953}, {"type": "node", "id": 3246237776, "lat": 9.1249057, "lon": -12.9131243}, {"type": "node", "id": 3246237777, "lat": 9.1247687, "lon": -12.9133388}, {"type": "node", "id": 3255666862, "lat": 9.430418, "lon": -13.0899099}, {"type": "node", "id": 3255666870, "lat": 9.4307488, "lon": -13.0891171}, {"type": "node", "id": 3255666881, "lat": 9.4309707, "lon": -13.0904081}, {"type": "node", "id": 3255666889, "lat": 9.431531, "lon": -13.0908272}, {"type": "node", "id": 3372389714, "lat": 9.1709879, "lon": -12.9512643}, {"type": "node", "id": 3372389724, "lat": 9.1710302, "lon": -12.9512365}, {"type": "node", "id": 3372389727, "lat": 9.1710417, "lon": -12.9513485}, {"type": "node", "id": 3372389737, "lat": 9.171084, "lon": -12.9513207}, {"type": "node", "id": 3491611366, "lat": 9.4311639, "lon": -13.0901341}, {"type": "node", "id": 3491611367, "lat": 9.4310278, "lon": -13.0903075}, {"type": "node", "id": 3491611368, "lat": 9.4311325, "lon": -13.0904102}, {"type": "node", "id": 3498353929, "lat": 9.4314721, "lon": -13.0899852}, {"type": "node", "id": 3498353930, "lat": 9.4315158, "lon": -13.0899251}, {"type": "node", "id": 3498353932, "lat": 9.4315671, "lon": -13.0899634}, {"type": "node", "id": 3556663399, "lat": 9.4354031, "lon": -13.0745321}, {"type": "node", "id": 3556663401, "lat": 9.4354202, "lon": -13.07464}, {"type": "node", "id": 3556663403, "lat": 9.4354501, "lon": -13.0746351}, {"type": "node", "id": 3556663404, "lat": 9.4354557, "lon": -13.0746704}, {"type": "node", "id": 3556663407, "lat": 9.4355484, "lon": -13.0746108}, {"type": "node", "id": 3556663408, "lat": 9.4355552, "lon": -13.0746542}, {"type": "node", "id": 3556663410, "lat": 9.4355628, "lon": -13.0745061}, {"type": "node", "id": 3556663417, "lat": 9.4357234, "lon": -13.0747319}, {"type": "node", "id": 3556663418, "lat": 9.4357263, "lon": -13.0748244}, {"type": "node", "id": 3556663419, "lat": 9.4357954, "lon": -13.0747817}, {"type": "node", "id": 3556663424, "lat": 9.435829, "lon": -13.0747285}, {"type": "node", "id": 3556663425, "lat": 9.4358306, "lon": -13.0747805}, {"type": "node", "id": 3756455226, "lat": 9.4316061, "lon": -13.090655}, {"type": "node", "id": 3756455227, "lat": 9.4315809, "lon": -13.0906364}, {"type": "node", "id": 3756455228, "lat": 9.4315479, "lon": -13.0906823}, {"type": "node", "id": 3756455229, "lat": 9.4314729, "lon": -13.090627}, {"type": "node", "id": 3756455230, "lat": 9.4315418, "lon": -13.090531}, {"type": "node", "id": 4504695143, "lat": 9.0860469, "lon": -12.9739952, "tags": {"addr:city": "Worreh", "amenity": "clinic", "bed_count": "3", "dispensing": "yes", "doctors_num": "0", "electricity": "solar", "emergency": "yes", "healthcare:speciality": "clinic", "name": "Worreh MCHP", "nurses_num": "1", "opening_hours": "24/7", "operator": "government", "operator_name": "government", "phone": "076932806", "source": "Red Cross Field Survey", "traditional_num": "4", "water_source": "protected_well"}}, {"type": "node", "id": 4504695153, "lat": 9.107619, "lon": -12.9135403, "tags": {"addr:city": "Kambia", "amenity": "clinic", "bed_count": "3", "dispensing": "yes", "doctors_num": "0", "electricity": "none", "emergency": "yes", "healthcare:speciality": "clinic", "name": "Kambia MCHP", "nurses_num": "2", "opening_hours": "24/7", "operator": "Ministry of Health and Sanitation", "operator_name": "Ministry of Health and Sanitation", "phone": "088848505", "source": "Red Cross Field Survey", "traditional_num": "0", "water_source": "unprotected_spring"}}, {"type": "node", "id": 4504695154, "lat": 9.1748789, "lon": -12.9516792, "tags": {"addr:city": "Gbalamuya", "amenity": "clinic", "bed_count": "4", "dispensing": "yes", "doctors_num": "0", "electricity": "generator", "emergency": "yes", "healthcare": "clinic", "healthcare:speciality": "clinic", "name": "Gbalamuya Communit Health Centre (CHC)", "nurses_num": "4", "opening_hours": "24/7", "operator": "Ministry of Health and Sanitation (MoHS)", "operator:type": "public", "operator_name": "Ministry of Health and Sanitation", "source": "Red Cross Field Survey", "traditional_num": "2", "water_source": "protected_well"}}, {"type": "node", "id": 4504695170, "lat": 9.2779834, "lon": -12.9407358, "tags": {"addr:city": "Fodaya", "amenity": "clinic", "bed_count": "3", "dispensing": "yes", "doctors_num": "0", "electricity": "solar", "emergency": "yes", "healthcare:speciality": "clinic", "name": "Fodaya Health Centre", "nurses_num": "1", "opening_hours": "24/7", "operator": "government", "operator_name": "government", "phone": "079603045", "source": "Red Cross Field Survey", "traditional_num": "2", "water_source": "protected_well"}}, {"type": "node", "id": 4504695181, "lat": 9.2170097, "lon": -12.9192889, "tags": {"addr:city": "Mafaray", "amenity": "clinic", "bed_count": "6", "description": "Mafari Community Health Centre (CHC)", "dispensing": "yes", "doctors_num": "0", "electricity": "none", "emergency": "yes", "healthcare": "clinic", "healthcare:speciality": "clinic", "name": "Mafari Community Health Centre (CHC)", "nurses_num": "4", "opening_hours": "24/7", "operator": "Ministry of Health and Sanitation (MoHS)", "operator:type": "public", "operator_name": "Ministry of Health and Sanitation", "phone": "+23288582449", "traditional_num": "17", "water_source": "protected_well"}}, {"type": "node", "id": 4504695184, "lat": 9.1141132, "lon": -12.9235908, "tags": {"addr:city": "Kambia", "amenity": "clinic", "bed_count": "2", "dispensing": "yes", "doctors_num": "0", "electricity": "none", "emergency": "yes", "healthcare:speciality": "clinic", "name": "Red Cross CHP", "nurses_num": "8", "opening_hours": "24/7", "operator": "Ministry of Health and Sanitation", "operator_name": "Ministry of Health and Sanitation", "phone": "077487697", "source": "Red Cross Field Survey", "traditional_num": "0", "water_source": "piped"}}, {"type": "node", "id": 4504696790, "lat": 9.1038129, "lon": -12.9499197, "tags": {"addr:city": "Tawuya", "amenity": "clinic", "bed_count": "1", "dispensing": "yes", "doctors_num": "0", "electricity": "solar", "emergency": "yes", "healthcare:speciality": "clinic", "name": "Tawuya MCHP", "nurses_num": "2", "opening_hours": "24/7", "operator": "government", "operator_name": "government", "phone": "099604184", "source": "Red Cross Field Survey", "traditional_num": "10", "water_source": "protected_well"}}, {"type": "node", "id": 4504696792, "lat": 9.103421, "lon": -12.9107165, "tags": {"addr:city": "Kambia", "amenity": "clinic", "bed_count": "2", "dispensing": "yes", "doctors_num": "1", "electricity": "solar", "emergency": "yes", "healthcare:speciality": "clinic", "name": "Dibia MCHP", "nurses_num": "2", "opening_hours": "24/7", "operator": "Ministry of Health and Sanitation", "operator_name": "Ministry of Health and Sanitation", "phone": "077569490", "source": "Red Cross Field Survey", "traditional_num": "2", "water_source": "protected_well"}}, {"type": "node", "id": 4504696801, "lat": 9.1083682, "lon": -12.9140854, "tags": {"addr:city": "Kambia", "amenity": "clinic", "bed_count": "2", "dispensing": "yes", "doctors_num": "1", "electricity": "solar", "emergency": "yes", "healthcare:speciality": "clinic", "name": "Dibia CHP", "nurses_num": "2", "opening_hours": "24/7", "operator": "Ministry of Health and Sanitation", "operator_name": "Ministry of Health and Sanitation", "source": "Red Cross Field Survey", "traditional_num": "3", "water_source": "rain"}}, {"type": "node", "id": 4504696818, "lat": 9.102743, "lon": -12.910223, "tags": {"addr:city": "Kambia", "amenity": "clinic", "bed_count": "2", "dispensing": "yes", "doctors_num": "0", "electricity": "solar", "emergency": "yes", "healthcare:speciality": "clinic", "name": "Senthai MCHP", "nurses_num": "2", "opening_hours": "24/7", "operator": "Ministry of Health and Sanitation", "operator_name": "Ministry of Health and Sanitation", "phone": "079604269", "source": "Red Cross Field Survey", "traditional_num": "0", "water_source": "protected_well"}}, {"type": "node", "id": 4504696822, "lat": 9.1278174, "lon": -12.9103947, "tags": {"addr:city": "Kambia", "amenity": "clinic", "bed_count": "5", "dispensing": "yes", "doctors_num": "0", "electricity": "solar", "emergency": "yes", "healthcare:speciality": "clinic", "name": "Madina Health Center", "nurses_num": "7", "opening_hours": "24/7", "operator": "Ministry of Health and Sanitation", "operator_name": "Ministry of Health and Sanitation", "phone": "079602992", "source": "Red Cross Field Survey", "traditional_num": "4", "water_source": "piped"}}, {"type": "node", "id": 4532269341, "lat": 9.4318958, "lon": -13.0747521, "tags": {"addr:city": "For\u00e9cariah", "addr:state": "For\u00e9cariah", "amenity": "clinic", "bed_count": "12", "building": "yes", "doctors_num": "6", "emergency": "yes", "healthcare": "clinic", "healthcare:speciality": "general", "nurses_num": "2", "opening_hours": "24/7", "operator": "government", "operator_name": "Minist\u00e8re de la Sant\u00e9", "source": "Red Cross Field Survey"}}, {"type": "node", "id": 4532269342, "lat": 9.4299678, "lon": -13.0796649, "tags": {"addr:city": "For\u00e9cariah", "addr:state": "For\u00e9cariah", "amenity": "clinic", "bed_count": "14", "building": "residential", "building:condition": "average", "building:material": "brick", "contact:phone": "656422072/620563641", "dispensing": "no", "emergency": "yes", "healthcare": "clinic", "healthcare:speciality": "general", "name": "Clinique D'alkaly Youla", "nurses_num": "Mamadama CAMARA, Fatoumata CAMARA", "operator": "private_profit", "operator_name": "Docteur Alkaly Youla", "source": "Red Cross Field Survey"}}, {"type": "node", "id": 4532269343, "lat": 9.4312687, "lon": -13.090212}, {"type": "node", "id": 4532269345, "lat": 9.4538216, "lon": -13.182545, "tags": {"addr:city": "Heriko Centr\u00e9", "addr:state": "For\u00e9cariah", "amenity": "clinic", "bed_count": "1", "contact:phone": "620872081", "dispensing": "yes", "doctors_num": "1", "emergency": "yes", "healthcare": "clinic", "healthcare:speciality": "infirmi\u00e8re de d'\u00e9tat", "name": "Clinique de Heriko Centr\u00e9", "nurses_num": "2", "operator": "government", "operator_name": "Camara Boubacar Demba", "source": "Red Cross Field Survey"}}, {"type": "node", "id": 4532269346, "lat": 9.4300538, "lon": -13.0797064, "tags": {"addr:city": "For\u00e9cariah", "addr:state": "For\u00e9cariah", "amenity": "clinic", "bed_count": "14", "contact:phone": "656422072/ 620563641", "dispensing": "no", "doctors_num": "1", "emergency": "yes", "healthcare": "clinic", "healthcare:speciality": "general", "name": "La Maternit\u00e9", "nurses_num": "2", "operator": "private_profit", "operator_name": "Docteur Alkaly Youla", "source": "Red Cross Field Survey"}}, {"type": "node", "id": 4532269347, "lat": 9.4357967, "lon": -13.0748221}, {"type": "node", "id": 4532269349, "lat": 9.344437, "lon": -13.132904, "tags": {"addr:city": "Tanamarche", "addr:state": "For\u00e9cariah", "amenity": "clinic", "bed_count": "2", "contact:phone": "664919647 620841336", "dispensing": "yes", "doctors_num": "1", "emergency": "yes", "name": "Poste de Sant\u00e9 Tanahmarche", "nurses_num": "1", "operator": "government", "operator_name": "Abdoul Kadel Sylla", "source": "Red Cross Field Survey"}}, {"type": "node", "id": 4532269350, "lat": 9.4315234, "lon": -13.0900235}, {"type": "node", "id": 4532269352, "lat": 9.431642, "lon": -13.090605}, {"type": "node", "id": 4532269353, "lat": 9.4355786, "lon": -13.0746059}, {"type": "node", "id": 4532361598, "lat": 9.3397765, "lon": -12.8583152, "tags": {"addr:city": "Kafou", "addr:state": "For\u00e9cariah", "amenity": "clinic", "bed_count": "4", "dispensing": "yes", "emergency": "pas op\u00e9rationnel", "healthcare": "clinic", "healthcare:speciality": "community", "name": "Poste de Sant\u00e9 de Kafou", "operator_name": "0", "source": "Red Cross Field Survey"}}, {"type": "node", "id": 7375871778, "lat": 9.4306349, "lon": -13.0901138}, {"type": "node", "id": 7375871779, "lat": 9.4308583, "lon": -13.0892043}, {"type": "node", "id": 9604620355, "lat": 9.1242226, "lon": -12.9128461}, {"type": "node", "id": 9604620356, "lat": 9.1242335, "lon": -12.9128532}, {"type": "way", "id": 318228093, "nodes": [3246203195, 3246237359, 3246237360, 3246237761, 3246237762, 9604620355, 9604620356, 3246237763, 3246237764, 3246237765, 3246237766, 3246237767, 3246237768, 3246237769, 3246237770, 3246237771, 3246237772, 3246237773, 3246237774, 3246237775, 3246237776, 3246237777, 3246203195], "tags": {"addr:city": "Kambia", "amenity": "hospital", "building": "yes", "government": "office", "healthcare": "hospital", "name": "Kambia General Hospital"}}, {"type": "way", "id": 330280827, "nodes": [3372389727, 3372389737, 3372389724, 3372389714, 3372389727], "tags": {"amenity": "clinic", "healthcare": "clinic"}}, {"type": "way", "id": 342132392, "nodes": [4532269343, 3491611366, 3491611367, 3491611368, 4532269343], "tags": {"addr:city": "For\u00e9cariah", "addr:state": "For\u00e9cariah", "amenity": "hospital", "bed_count": "250", "building": "yes", "dispensing": "yes", "emergency": "yes", "healthcare": "hospital", "healthcare:speciality": "general", "name": "Laboratoire", "opening_hours": "08:00-18:00", "operator": "government", "source": "Red Cross Field Survey"}}, {"type": "way", "id": 342876648, "nodes": [4532269350, 3498353932, 3498353930, 3498353929, 4532269350], "tags": {"addr:city": "For\u00e9cariah", "addr:state": "For\u00e9cariah", "amenity": "restaurant", "building": "yes", "emergency": "yes", "name": "Restaurant d'h\u00f4pital", "operator": "government", "source": "Red Cross Field Survey"}}, {"type": "way", "id": 349881092, "nodes": [4532269347, 3556663419, 3556663425, 3556663424, 3556663417, 3556663418, 4532269347], "tags": {"addr:city": "For\u00e9cariah", "addr:state": "For\u00e9cariah", "amenity": "hospital", "building": "yes", "healthcare": "hospital", "name": "H\u00f4pital", "source": "Red Cross Field Survey"}}, {"type": "way", "id": 349881097, "nodes": [4532269353, 3556663410, 3556663399, 3556663401, 3556663403, 3556663404, 3556663408, 3556663407, 4532269353], "tags": {"addr:city": "For\u00e9cariah", "addr:state": "For\u00e9cariah", "amenity": "hospital", "building": "yes", "healthcare": "hospital", "name": "H\u00f4pital en construction \u00e0 Karakoro", "source": "Red Cross Field Survey"}}, {"type": "way", "id": 372112494, "nodes": [4532269352, 3756455226, 3756455227, 3756455228, 3756455229, 3756455230, 4532269352], "tags": {"addr:city": "For\u00e9cariah", "addr:state": "For\u00e9cariah", "amenity": "hospital", "building": "yes", "contact:phone": "622270999", "dispensing": "yes", "doctors_num": "4", "emergency": "yes", "healthcare": "hospital", "healthcare:speciality": "emergency", "name": "Logement de Personelle", "nurses_num": "10", "operator": "government", "source": "Red Cross Field Survey"}}, {"type": "way", "id": 788920338, "nodes": [1912414435, 3255666889, 3255666881, 7375871778, 3255666862, 3255666870, 7375871779, 1912414435], "tags": {"addr:city": "For\u00e9cariah", "addr:state": "For\u00e9cariah", "amenity": "hospital", "bed_count": "140", "contact:phone": "622270999", "dispensing": "yes", "doctors_num": "10", "emergency": "yes", "healthcare": "hospital", "healthcare:speciality": "emergency", "name": "H\u00f4pital", "nurses_num": "4", "operator": "government", "source": "Red Cross Field Survey"}}]}