{"version": 0.6, "generator": "Overpass API 0.7.62.1 084b4234", "osm3s": {"timestamp_osm_base": "2024-05-23T13:14:12Z", "copyright": "The data included in this document is from www.openstreetmap.org. The data is made available under ODbL."}, "elements": [{"type": "node", "id": 5889776006, "lat": 46.2126299, "lon": 26.4421096, "tags": {"amenity": "clinic", "healthcare": "clinic", "name": "DISPENSAR"}}, {"type": "node", "id": 11093168024, "lat": 46.2063077, "lon": 26.4388514, "tags": {"addr:city": "Sl\u0103nic-Moldova", "addr:postcode": "605500", "amenity": "clinic", "healthcare": "clinic", "name": "Complex Balnear Racovi\u021b\u0103 (inchis)"}}, {"type": "node", "id": 11097350167, "lat": 46.2075181, "lon": 26.4369715, "tags": {"addr:city": "Sl\u0103nic-Moldova", "addr:postcode": "605500", "amenity": "clinic", "healthcare": "clinic", "name": "Eurosan Clinic"}}, {"type": "node", "id": 11097617169, "lat": 46.2072989, "lon": 26.439355, "tags": {"addr:city": "Sl\u0103nic-Moldova", "addr:postcode": "605500", "amenity": "clinic", "healthcare": "clinic", "name": "Sanatoriu Balnear Sl\u0103nic Moldova"}}]}