{"version": 0.6, "generator": "Overpass API 0.7.62.1 084b4234", "osm3s": {"timestamp_osm_base": "2024-05-24T08:17:19Z", "copyright": "The data included in this document is from www.openstreetmap.org. The data is made available under ODbL."}, "elements": [{"type": "node", "id": 9085129815, "lat": 16.4611748, "lon": -15.6762051, "tags": {"addr:full": "Saint louis", "amenity": "doctors", "beds": "23", "contact:phone": "772178595", "electricity": "grid", "emergency": "yes", "healthcare": "Doctor, Laboratory, Dentis, Pharmacy", "healthcare:equipment": "laboratory", "insurance:health": "public private", "leisure": "fitness_station", "name": "centre de sante richard toll", "opening_hours": "Mo-Fr 24/24; PH off", "operational_status": "operational", "operator": "Minist\u00e8re de la sant\u00e9 et de l'action sociale", "operator:type": "public", "osm_id": "31b08a67-9ee1-4e82-83d5-14078ab7375c", "source": "#senegal #covid-19 #emergency-health-data-validation #healthsites", "staff_count:doctors": "10", "staff_count:nurses": "4", "water_source": "well", "wheelchair": "yes"}}, {"type": "node", "id": 9656268957, "lat": 16.2706055, "lon": -15.798188, "tags": {"addr:full": "Mbane", "amenity": "doctors", "beds": "15", "electricity": "grid", "emergency": "yes", "healthcare": "doctor;pharmacy", "insurance:health": "no", "name": "poste de sante de mbane", "opening_hours": "24/7", "operational_status": "operational", "operator": "Minist\u00e8re de la sant\u00e9 et de l'action sociale", "operator:type": "public", "source": "#senegal #covid-19 #emergency-health-data-validation #healthsites", "staff_count:doctors": "0", "staff_count:nurses": "1", "water_source": "water works", "wheelchair": "yes"}}, {"type": "node", "id": 9656268978, "lat": 16.4688218, "lon": -15.6891342, "tags": {"addr:full": "Richard Toll", "amenity": "hospital", "beds": "78", "contact:phone": "339633939", "electricity": "grid", "emergency": "yes", "healthcare": "doctor, pharmacy, laboratory, birthing center, blood donation, physiotherapy dentist, hospital, optometry/ophtalmology", "healthcare:equipment": "laboratory, Emergency Department, Intensive Care Unit, Operating Theater, Dialysis", "insurance:health": "public", "name": "\u00e9tablissement public de sante de richard toll", "opening_hours": "24/7", "operational_status": "operational", "operator": "Minist\u00e8re de la sant\u00e9 et de l'action sociale", "operator:type": "public", "osm_id": "64496ed5-80f2-40bf-b335-02a5dc02b90f", "source": "#senegal #covid-19 #emergency-health-data-validation #healthsites", "staff_count:doctors": "8", "staff_count:nurses": "7", "water_source": "water works", "wheelchair": "yes"}}, {"type": "node", "id": 9656492927, "lat": 16.4632427, "lon": -15.6750405, "tags": {"addr:full": "Richard Toll", "amenity": "doctors", "beds": "2", "contact:phone": "775879019", "electricity": "grid", "emergency": "yes", "healthcare": "doctor, optometry/ophtalmology", "insurance:health": "None", "name": "cabinet m\u00e9dical thierno souleymani baal", "opening_hours": "Mo-Fr 8:00 18:00; PH off", "operational_status": "operational", "operator": "Cabinet m\u00e9dical Thierno Souleymane Baal", "operator:type": "private", "osm_id": "cd53ea9c-7098-475c-8866-193cf184bdd6", "source": "#senegal #covid-19 #emergency-health-data-validation #healthsites", "staff_count:doctors": "1", "staff_count:nurses": "0", "water_source": "water works", "wheelchair": "yes"}}, {"type": "node", "id": 9656492930, "lat": 16.4674095, "lon": -15.708353, "tags": {"addr:full": "Richard Toll", "amenity": "doctors", "beds": "3", "contact:phone": "339382323", "electricity": "generator", "emergency": "yes", "healthcare": "doctor, pharmacy, dentist, laboratory", "healthcare:equipment": "X-Ray, Operating Theater, laboratory, imaging equipment, Intensive Care Unit, Emergency Department", "insurance:health": "private", "name": "service m\u00e9dical CSS Richard-Toll", "opening_hours": "24/7", "operational_status": "operational", "operator": "Compagnie Sucri\u00e8re S\u00e9n\u00e9galaise", "operator:type": "private", "osm_id": "937b380f-86de-474f-aca1-d884bd5256fe", "source": "#senegal #covid-19 #emergency-health-data-validation #healthsites", "staff_count:doctors": "5", "staff_count:nurses": "15", "water_source": "water works", "wheelchair": "yes"}}, {"type": "node", "id": 9656492935, "lat": 16.0935587, "lon": -15.6878591, "tags": {"addr:full": "Mb\u00e9logne", "amenity": "doctors", "beds": "3", "electricity": "solar", "emergency": "yes", "healthcare": "doctor;pharmacy", "insurance:health": "no", "name": "case de sante de Mb\u00e9logne", "opening_hours": "24/7", "operational_status": "operational", "operator": "Minist\u00e8re de la sant\u00e9 et de l'action sociale", "operator:type": "public", "source": "#senegal #covid-19 #emergency-health-data-validation #healthsites", "staff_count:doctors": "0", "staff_count:nurses": "0", "water_source": "water works", "wheelchair": "limited"}}, {"type": "node", "id": 9656492939, "lat": 16.468625, "lon": -15.689494, "tags": {"addr:full": "Richard Toll", "amenity": "hospital", "beds": "78", "electricity": "grid", "emergency": "yes", "healthcare": "Doctor, Pharmacy, Laboratory, Rehabilitation, Dentist, Optometry/Ophtalmology, Birthing center, Blood donation, Physiotherapy", "healthcare:equipment": "Operating Theater, laboratory, Emergency Department, Intensive Care Unit", "insurance:health": "public", "name": "\u00c9tablissement public de sante de richard toll", "note": "wrong notation opening_hours=24-juil", "operational_status": "operational", "operator": "Minist\u00e8re de la sant\u00e9 et de l'action sociale", "operator:type": "public", "staff_count:doctors": "8", "staff_count:nurses": "7", "water_source": "water works", "wheelchair": "limited"}}, {"type": "node", "id": 9656492940, "lat": 16.4590692, "lon": -15.6966359, "tags": {"addr:full": "Richard Toll", "amenity": "doctors", "beds": "8", "contact:phone": "775612201", "electricity": "grid", "emergency": "yes", "healthcare": "pharmacy; dentist; birthing center", "insurance:health": "public", "name": "poste de sante taouey", "opening_hours": "Mo-Sa 08:00-17:00; Su, PH off", "operational_status": "operational", "operator": "Minist\u00e8re de la sant\u00e9 et de l'action sociale", "operator:type": "public", "osm_id": "7b9c9d9b-a546-49f6-8a56-0e9f4a6ad180", "source": "#senegal #covid-19 #emergency-health-data-validation #healthsites", "staff_count:nurses": "2", "water_source": "water works", "wheelchair": "no"}}, {"type": "node", "id": 9656492941, "lat": 16.4533678, "lon": -15.6852648, "tags": {"addr:full": "Richard Toll", "amenity": "doctors", "beds": "5", "contact:phone": "774081817", "electricity": "grid", "emergency": "yes", "healthcare": "doctor, pharmacy, birthing center, rehabilitation", "healthcare:equipment": "Emergency Department", "insurance:health": "public", "name": "poste de sant\u00e9 Thiabax", "opening_hours": "24/7", "operational_status": "operational", "operator": "Minist\u00e8re de la sant\u00e9 et de l'action sociale", "operator:type": "public", "osm_id": "1a85762e-11e9-45de-83d9-fdb88800cee0", "source": "#senegal #covid-19 #emergency-health-data-validation #healthsites", "staff_count:nurses": "1", "water_source": "water works", "wheelchair": "yes"}}, {"type": "node", "id": 9656492944, "lat": 16.4637827, "lon": -15.673416, "tags": {"addr:full": "Richard Toll", "amenity": "doctors", "beds": "6", "contact:phone": "775419374", "electricity": "grid", "emergency": "yes", "healthcare": "doctor, birthing center, pharmacy", "healthcare:equipment": "Emergency Department", "insurance:health": "public", "name": "poste de sante gallo malick", "opening_hours": "Mo-Sa 8:00 18:00; PH off", "operational_status": "operational", "operator": "Minist\u00e8re de la sant\u00e9 et de l'action sociale", "operator:type": "public", "osm_id": "8c3c5454-91eb-42bc-baf1-d35f151611a0", "source": "#senegal #covid-19 #emergency-health-data-validation #healthsites", "staff_count:doctors": "0", "staff_count:nurses": "2", "water_source": "water works", "wheelchair": "no"}}, {"type": "node", "id": 9659561615, "lat": 16.4663467, "lon": -15.6891763, "tags": {"addr:full": "Saint louis", "amenity": "clinic", "contact:phone": "779763690", "electricity": "grid", "healthcare": "clinic", "healthcare:equipment": "laboratory", "insurance:health": "private", "name": "clinique dentaire macha allah", "opening_hours": "Mo-Fr 8:00 18:00; PH off", "operational_status": "operational", "operator": "Clinique Macha Allah dentaire", "operator:type": "private", "osm_id": "f070ba5a-2db0-4e0b-9025-078f96284d18", "source": "#senegal #covid-19 #emergency-health-data-validation #healthsites", "staff_count:doctors": "1", "staff_count:nurses": "1", "water_source": "well"}}, {"type": "node", "id": 9989554781, "lat": 16.4603461, "lon": -15.6763932, "tags": {"addr:full": "Richard Toll", "amenity": "doctors", "beds": "23", "contact:phone": "339633271", "electricity": "grid", "emergency": "yes", "healthcare": "doctor, pharmacy, laboratory, birthing center, blood donation", "healthcare:equipment": "laboratory, Emergency Department", "insurance:health": "public", "name": "centre sanitaire secondaire richard toll", "opening_hours": "24/7", "operational_status": "operational", "operator": "Minist\u00e8re de la sant\u00e9 et de l'action sociale", "operator:type": "public", "osm_id": "a60fe64c-cc45-4efc-8f7a-c92d21bf96d5", "source": "#senegal #covid-19 #emergency-health-data-validation #healthsites", "staff_count:doctors": "10", "staff_count:nurses": "4", "water_source": "water works", "wheelchair": "yes"}}]}