{"version": 0.6, "generator": "Overpass API 0.7.62.1 084b4234", "osm3s": {"timestamp_osm_base": "2024-05-23T15:24:51Z", "copyright": "The data included in this document is from www.openstreetmap.org. The data is made available under ODbL."}, "elements": [{"type": "node", "id": 1487186780, "lat": 44.2006241, "lon": 28.6247048}, {"type": "node", "id": 1487186795, "lat": 44.2007848, "lon": 28.6250613}, {"type": "node", "id": 1487186828, "lat": 44.2007114, "lon": 28.6247318}, {"type": "node", "id": 1487186845, "lat": 44.200811, "lon": 28.6248536}, {"type": "node", "id": 1487186854, "lat": 44.2007783, "lon": 28.6249057}, {"type": "node", "id": 1487186939, "lat": 44.2006831, "lon": 28.6247769}, {"type": "node", "id": 1487186940, "lat": 44.2005672, "lon": 28.6247953}, {"type": "node", "id": 1487186984, "lat": 44.2008372, "lon": 28.6249778}, {"type": "node", "id": 1488409975, "lat": 44.1704906, "lon": 28.6091513}, {"type": "node", "id": 1488409988, "lat": 44.1705397, "lon": 28.6089312}, {"type": "node", "id": 1488410104, "lat": 44.1705131, "lon": 28.6094683}, {"type": "node", "id": 1488410229, "lat": 44.1703862, "lon": 28.6091606}, {"type": "node", "id": 1488410230, "lat": 44.1705491, "lon": 28.6091372}, {"type": "node", "id": 1488410268, "lat": 44.1705729, "lon": 28.609463}, {"type": "node", "id": 1488410272, "lat": 44.1705032, "lon": 28.6092521}, {"type": "node", "id": 1488410279, "lat": 44.1705859, "lon": 28.609134}, {"type": "node", "id": 1488410286, "lat": 44.1705638, "lon": 28.609264}, {"type": "node", "id": 1488410398, "lat": 44.1704808, "lon": 28.6089364}, {"type": "node", "id": 1488410402, "lat": 44.1703908, "lon": 28.6092621}, {"type": "node", "id": 1488410457, "lat": 44.1705917, "lon": 28.6092615}, {"type": "node", "id": 1489360341, "lat": 44.2082197, "lon": 28.6250307}, {"type": "node", "id": 1489360342, "lat": 44.2078239, "lon": 28.6250257}, {"type": "node", "id": 1489360349, "lat": 44.2082216, "lon": 28.6251811}, {"type": "node", "id": 1489360444, "lat": 44.2077777, "lon": 28.6253321}, {"type": "node", "id": 1489360448, "lat": 44.2078254, "lon": 28.6252027}, {"type": "node", "id": 1489360481, "lat": 44.2077767, "lon": 28.6252035}, {"type": "node", "id": 1489360506, "lat": 44.2077722, "lon": 28.6249262}, {"type": "node", "id": 1489360509, "lat": 44.207773, "lon": 28.6250265}, {"type": "node", "id": 1489360646, "lat": 44.2076857, "lon": 28.6253336}, {"type": "node", "id": 1489360649, "lat": 44.2079568, "lon": 28.625037}, {"type": "node", "id": 1489360689, "lat": 44.2076823, "lon": 28.6249276}, {"type": "node", "id": 1489360703, "lat": 44.2079587, "lon": 28.6251874}, {"type": "node", "id": 1490166945, "lat": 44.1719313, "lon": 28.6384023}, {"type": "node", "id": 1490166962, "lat": 44.1722307, "lon": 28.6385753}, {"type": "node", "id": 1490167019, "lat": 44.1722373, "lon": 28.6384289}, {"type": "node", "id": 1490167037, "lat": 44.1719247, "lon": 28.6385487}, {"type": "node", "id": 1490597429, "lat": 44.185857, "lon": 28.6434165}, {"type": "node", "id": 1490597432, "lat": 44.1859814, "lon": 28.6436609}, {"type": "node", "id": 1490597435, "lat": 44.1858977, "lon": 28.6434781}, {"type": "node", "id": 1490597484, "lat": 44.1857968, "lon": 28.6438252}, {"type": "node", "id": 1490597507, "lat": 44.1859338, "lon": 28.6433481}, {"type": "node", "id": 1490597514, "lat": 44.1859657, "lon": 28.6434176}, {"type": "node", "id": 1490597586, "lat": 44.1856107, "lon": 28.6434187}, {"type": "node", "id": 1490597615, "lat": 44.1857864, "lon": 28.6432622}, {"type": "node", "id": 1491136745, "lat": 44.1613521, "lon": 28.6309525}, {"type": "node", "id": 1491136810, "lat": 44.1613762, "lon": 28.6307803}, {"type": "node", "id": 1491136811, "lat": 44.1612754, "lon": 28.6307529}, {"type": "node", "id": 1491136820, "lat": 44.1615006, "lon": 28.630527}, {"type": "node", "id": 1491136850, "lat": 44.1614156, "lon": 28.6305039}, {"type": "node", "id": 1491136900, "lat": 44.1614379, "lon": 28.6309758}, {"type": "node", "id": 1491136920, "lat": 44.1613934, "lon": 28.6306622}, {"type": "node", "id": 1491136922, "lat": 44.161292, "lon": 28.6306346}, {"type": "node", "id": 1491143452, "lat": 44.1731031, "lon": 28.6416461, "tags": {"amenity": "clinic", "healthcare": "clinic", "name": "Cardiomed"}}, {"type": "node", "id": 1491156294, "lat": 44.1753506, "lon": 28.6431883}, {"type": "node", "id": 1491156366, "lat": 44.1754097, "lon": 28.6432888}, {"type": "node", "id": 1491352973, "lat": 44.2033716, "lon": 28.6182565}, {"type": "node", "id": 1491353158, "lat": 44.2035025, "lon": 28.6183729}, {"type": "node", "id": 1491353233, "lat": 44.2034493, "lon": 28.6184888}, {"type": "node", "id": 1491353293, "lat": 44.2033164, "lon": 28.6183684}, {"type": "node", "id": 3085714144, "lat": 44.1821353, "lon": 28.6511671}, {"type": "node", "id": 3085714146, "lat": 44.1822164, "lon": 28.650699}, {"type": "node", "id": 3085714147, "lat": 44.1822462, "lon": 28.651035}, {"type": "node", "id": 3085714148, "lat": 44.1822523, "lon": 28.6507576}, {"type": "node", "id": 3518974070, "lat": 44.1714827, "lon": 28.6128323}, {"type": "node", "id": 3518974071, "lat": 44.1714779, "lon": 28.6131247}, {"type": "node", "id": 3518974072, "lat": 44.1715125, "lon": 28.6128279}, {"type": "node", "id": 3518974073, "lat": 44.1715342, "lon": 28.6131164}, {"type": "node", "id": 3739458679, "lat": 44.1875883, "lon": 28.6510262, "tags": {"amenity": "clinic", "email": "maritimemedicine@yahoo.co.uk", "healthcare": "clinic", "name": "Black Sea Health Medical Center", "note": "Medical center for drivers and maritime occupational medicine. This clinic has two maritime medicine cabinets, six specialized offices, a psychological testing center and a medical analyses laboratory.", "phone": "+40 341 434 877", "website": "http://www.maritimemedicine.ro"}}, {"type": "node", "id": 3803508323, "lat": 44.2079227, "lon": 28.6437682, "tags": {"addr:city": "Constan\u021ba", "addr:housenumber": "270", "addr:postcode": "900552", "addr:postcode:source": "Date de la Po\u0219ta Rom\u00e2n\u0103, publicate sub Licen\u021ba pentru Guvernare Deschis\u0103 v1.0 la http://date.gov.ro/organization/posta-romana", "addr:street": "Bulevardul Mamaia", "amenity": "clinic", "healthcare": "clinic", "name": "Medstar 2000", "website": "https://www.medstar2000.ro/"}}, {"type": "node", "id": 3806394280, "lat": 44.1826213, "lon": 28.6432448}, {"type": "node", "id": 3806394281, "lat": 44.182714, "lon": 28.6434031}, {"type": "node", "id": 3806394282, "lat": 44.1826973, "lon": 28.643152}, {"type": "node", "id": 3806394283, "lat": 44.1827767, "lon": 28.6432785}, {"type": "node", "id": 3808824302, "lat": 44.1826316, "lon": 28.6365393}, {"type": "node", "id": 3808824303, "lat": 44.1826305, "lon": 28.6366642}, {"type": "node", "id": 3808824304, "lat": 44.1826634, "lon": 28.6364257}, {"type": "node", "id": 3808824305, "lat": 44.182702, "lon": 28.6365837}, {"type": "node", "id": 3810977606, "lat": 44.1424279, "lon": 28.6324379, "tags": {"amenity": "clinic", "healthcare": "clinic", "name": "Policlinica Farma Medis"}}, {"type": "node", "id": 3813637170, "lat": 44.1865723, "lon": 28.6414114, "tags": {"addr:city": "Constan\u021ba", "addr:housenumber": "85", "addr:postcode": "900587", "addr:postcode:source": "Date de la Po\u0219ta Rom\u00e2n\u0103, publicate sub Licen\u021ba pentru Guvernare Deschis\u0103 v1.0 la http://date.gov.ro/organization/posta-romana", "addr:street": "Strada Nicolae Iorga", "amenity": "clinic", "healthcare": "clinic", "name": "Centrul Regional de Transfuzii Sanguine Constan\u021ba"}}, {"type": "node", "id": 3831663818, "lat": 44.1849597, "lon": 28.6364164, "tags": {"addr:city": "Constan\u021ba", "addr:country": "RO", "addr:housenumber": "105 Bis", "addr:postcode": "900198", "addr:postcode:source": "Date de la Po\u0219ta Rom\u00e2n\u0103, publicate sub Licen\u021ba pentru Guvernare Deschis\u0103 v1.0 la http://date.gov.ro/organization/posta-romana", "addr:street": "Strada Nicolae Iorga", "amenity": "clinic", "brand": "Clinica Sante", "brand:wikidata": "Q121080834", "contact:email": "constanta@clinica-sante.ro", "healthcare": "sample_collection", "name": "Clinica Sante", "website": "https://www.clinica-sante.ro/"}}, {"type": "node", "id": 3843608891, "lat": 44.2027668, "lon": 28.6456465}, {"type": "node", "id": 3843608892, "lat": 44.2028514, "lon": 28.6459841}, {"type": "node", "id": 3843608893, "lat": 44.2029473, "lon": 28.6455586}, {"type": "node", "id": 3843608894, "lat": 44.2030318, "lon": 28.6458962}, {"type": "node", "id": 3849526064, "lat": 44.2025506, "lon": 28.6457987}, {"type": "node", "id": 3849526065, "lat": 44.2025848, "lon": 28.6459322}, {"type": "node", "id": 3849526068, "lat": 44.2026665, "lon": 28.6457409}, {"type": "node", "id": 3849526069, "lat": 44.2027007, "lon": 28.6458744}, {"type": "node", "id": 4019664083, "lat": 44.1994822, "lon": 28.6277486, "tags": {"amenity": "clinic", "healthcare": "clinic", "name": "Cabinet Oftalmologic"}}, {"type": "node", "id": 4078013555, "lat": 44.1725224, "lon": 28.633423}, {"type": "node", "id": 4078013556, "lat": 44.1725413, "lon": 28.633829}, {"type": "node", "id": 4078013557, "lat": 44.172707, "lon": 28.6334063}, {"type": "node", "id": 4078013558, "lat": 44.1727258, "lon": 28.6338123}, {"type": "node", "id": 4242459890, "lat": 44.1976369, "lon": 28.6271925, "tags": {"addr:housenumber": "87", "addr:postcode": "900382", "addr:street": "Strada Bogdan Petriceicu Ha\u0219deu", "amenity": "clinic", "email": "madalinacasian@yahoo.com", "healthcare": "clinic", "name": "C.P.I. Madalina Ghizu", "opening_hours": "Mo-Su 08:00-18:00", "phone": "0241642689"}}, {"type": "node", "id": 4261162314, "lat": 44.173483, "lon": 28.6117724}, {"type": "node", "id": 4261162315, "lat": 44.1735197, "lon": 28.6118673}, {"type": "node", "id": 4261162316, "lat": 44.1735951, "lon": 28.6116881}, {"type": "node", "id": 4261162317, "lat": 44.1736318, "lon": 28.611783}, {"type": "node", "id": 4272203489, "lat": 44.1889734, "lon": 28.6373749, "tags": {"addr:city": "Constan\u021ba", "addr:housenumber": "19", "addr:street": "Strada Fl\u0103m\u00e2nda", "amenity": "clinic", "healthcare": "clinic", "name": "Mediconst"}}, {"type": "node", "id": 4456743189, "lat": 44.207169, "lon": 28.6223896, "tags": {"addr:housenumber": "16", "addr:street": "Strada Ci\u0219melei", "amenity": "clinic", "email": "cristyna_cojocaru@yahoo.com", "healthcare": "clinic", "internet_access": "wlan", "name": "CMI COJOCARU CRISTINA", "opening_hours": "Mo; Tu 13:00-20:00", "phone": "+40722407075"}}, {"type": "node", "id": 4458394484, "lat": 44.1816118, "lon": 28.6475365}, {"type": "node", "id": 4458394485, "lat": 44.1818251, "lon": 28.647679}, {"type": "node", "id": 4458394891, "lat": 44.1816904, "lon": 28.6474475}, {"type": "node", "id": 4458394901, "lat": 44.1817465, "lon": 28.647768}, {"type": "node", "id": 4727531203, "lat": 44.1825607, "lon": 28.6450589}, {"type": "node", "id": 4727531204, "lat": 44.1825879, "lon": 28.6450281}, {"type": "node", "id": 4727531205, "lat": 44.1825881, "lon": 28.6451057}, {"type": "node", "id": 4727531206, "lat": 44.1825617, "lon": 28.6451357}, {"type": "node", "id": 4727531207, "lat": 44.1825893, "lon": 28.6449203}, {"type": "node", "id": 4727531208, "lat": 44.1825506, "lon": 28.6449642}, {"type": "node", "id": 4727531209, "lat": 44.1825996, "lon": 28.6452005}, {"type": "node", "id": 4727531210, "lat": 44.1826918, "lon": 28.6450959}, {"type": "node", "id": 4815307021, "lat": 44.1794464, "lon": 28.6411821, "tags": {"amenity": "clinic", "healthcare": "clinic", "name": "Ok Medical", "name:ro": "Ok Medical"}}, {"type": "node", "id": 4915138821, "lat": 44.1723361, "lon": 28.6376824, "tags": {"amenity": "clinic", "healthcare": "clinic", "name": "Sinevo", "name:ro": "Sinevo"}}, {"type": "node", "id": 5196310105, "lat": 44.1887781, "lon": 28.6520648, "tags": {"addr:city": "Constan\u021ba", "addr:country": "RO", "addr:housenumber": "8B", "addr:street": "Prelungirea Bucovinei", "amenity": "clinic", "email": "office@asclepios-medical.ro", "healthcare": "clinic", "name": "Asclepios Medical Center", "website": "https://asclepios-medical.ro/"}}, {"type": "node", "id": 5548343629, "lat": 44.180392, "lon": 28.6493271, "tags": {"addr:city": "Constan\u021ba", "addr:country": "RO", "addr:housenumber": "97", "addr:street": "Bulevardul Tomis", "amenity": "clinic", "healthcare": "clinic", "name": "Bio Ortoclinic", "phone": "+40774627424"}}, {"type": "node", "id": 5920719294, "lat": 44.1941716, "lon": 28.6387899, "tags": {"addr:city": "Constan\u021ba", "addr:housenumber": "2", "addr:street": "Strada Prim\u0103verii", "amenity": "clinic", "healthcare": "clinic", "name": "Centrul Medical Provita 2000", "name:en": "Provita 2000 Medical Center", "opening_hours": "Mo-Su 07:30-19:00"}}, {"type": "node", "id": 5949565956, "lat": 44.1752309, "lon": 28.6430275}, {"type": "node", "id": 5949565957, "lat": 44.1752691, "lon": 28.6429818}, {"type": "node", "id": 5949565958, "lat": 44.1752793, "lon": 28.6429985}, {"type": "node", "id": 5949565959, "lat": 44.1753205, "lon": 28.6429493}, {"type": "node", "id": 5949565960, "lat": 44.1753103, "lon": 28.6429327}, {"type": "node", "id": 5949565961, "lat": 44.1753838, "lon": 28.6428449}, {"type": "node", "id": 5949565962, "lat": 44.1754358, "lon": 28.6429295}, {"type": "node", "id": 5949565963, "lat": 44.1754448, "lon": 28.6429286}, {"type": "node", "id": 5949565964, "lat": 44.175491, "lon": 28.6430014}, {"type": "node", "id": 5949565965, "lat": 44.1754892, "lon": 28.643014}, {"type": "node", "id": 5949565966, "lat": 44.1755156, "lon": 28.6430609}, {"type": "node", "id": 5949565967, "lat": 44.1755313, "lon": 28.6430726}, {"type": "node", "id": 5949565968, "lat": 44.1755433, "lon": 28.6430985}, {"type": "node", "id": 5949565969, "lat": 44.1755427, "lon": 28.6431287}, {"type": "node", "id": 5949565970, "lat": 44.1755283, "lon": 28.6431513}, {"type": "node", "id": 5949565971, "lat": 44.1755042, "lon": 28.6431596}, {"type": "node", "id": 5949565972, "lat": 44.17551, "lon": 28.643169}, {"type": "node", "id": 5949565975, "lat": 44.1753758, "lon": 28.6431616}, {"type": "node", "id": 5949565981, "lat": 44.1753371, "lon": 28.6430986}, {"type": "node", "id": 5949565982, "lat": 44.1753011, "lon": 28.6431417}, {"type": "node", "id": 6040405544, "lat": 44.2014485, "lon": 28.630244, "tags": {"addr:city": "Constan\u021ba", "addr:housenumber": "4", "addr:postcode": "900419", "addr:street": "Strada Zbur\u0103torului", "amenity": "clinic", "brand": "Clinica Sante", "brand:wikidata": "Q121080834", "healthcare": "sample_collection", "name": "Clinica Sante", "opening_hours": "Mo-Fr 07:00-15:30; Sa 08:00-12:00"}}, {"type": "node", "id": 6046907982, "lat": 44.180196, "lon": 28.6496284, "tags": {"addr:city": "Constan\u021ba", "addr:housenumber": "79-81", "addr:street": "Bulevardul Tomis", "amenity": "clinic", "healthcare": "clinic", "name": "Hyperclinica MedLife", "operator": "Sistemul Medical MedLife"}}, {"type": "node", "id": 6621187145, "lat": 44.1944678, "lon": 28.6428736, "tags": {"amenity": "clinic", "email": "prosana_medicalcenter@yahoo.com", "healthcare": "clinic", "healthcare:speciality": "obstetrics;gynaecology;dermatology;surgery;psychotherapy", "name": "Prosana Medical Center", "opening_hours": "Mo-Fr 08:00-20:30", "operator": "Prosana Medical Center SRL", "operator:type": "private", "phone": "+40 241 580 370"}}, {"type": "node", "id": 6633182240, "lat": 44.1714929, "lon": 28.6129674}, {"type": "node", "id": 6633182241, "lat": 44.1714664, "lon": 28.6129712}, {"type": "node", "id": 7902536949, "lat": 44.1796211, "lon": 28.6167003, "tags": {"addr:city": "Constan\u021ba", "addr:housenumber": "90G", "addr:postcode": "900234", "addr:postcode:source": "Date de la Po\u0219ta Rom\u00e2n\u0103, publicate sub Licen\u021ba pentru Guvernare Deschis\u0103 v1.0 la http://date.gov.ro/organization/posta-romana", "addr:street": "Strada Dezrobirii", "amenity": "clinic", "healthcare": "clinic", "name": "Med Center", "website": "https://medcenter.ro/"}}, {"type": "node", "id": 8010209653, "lat": 44.1796799, "lon": 28.6378333, "tags": {"addr:city": "Constan\u021ba", "addr:housenumber": "69", "addr:street": "Strada Avram Iancu", "amenity": "clinic", "email": "info@cermed.ro", "healthcare": "clinic", "healthcare:speciality": "general;psychiatry;dentistry;ophthalmology;gynaecology;cardiology;dermatology;radiology;biology;internal", "internet_access": "wlan", "name": "Centrul Medical Cermed", "opening_hours": "Mo-Fr 07:30-17:00; Sa 07:30-12:00", "phone": "+40 241 663 332", "source": "survey, Bing, local info", "website": "https://cermed.ro/"}}, {"type": "node", "id": 8136189911, "lat": 44.1767925, "lon": 28.6328284}, {"type": "node", "id": 8136189912, "lat": 44.1767091, "lon": 28.6328368}, {"type": "node", "id": 8141048828, "lat": 44.2009312, "lon": 28.6137975}, {"type": "node", "id": 8141048829, "lat": 44.2008353, "lon": 28.6139035}, {"type": "node", "id": 8141048830, "lat": 44.2009254, "lon": 28.6143604}, {"type": "node", "id": 8141048831, "lat": 44.2011149, "lon": 28.6141515}, {"type": "node", "id": 8149322030, "lat": 44.2108916, "lon": 28.6445015, "tags": {"addr:housenumber": "284", "addr:street": "Bulevardul Mamaia", "amenity": "clinic", "healthcare": "clinic", "name": "Poliana", "website": "https://www.poliana.ro"}}, {"type": "node", "id": 8154190902, "lat": 44.1826104, "lon": 28.6364675}, {"type": "node", "id": 8154190903, "lat": 44.182589, "lon": 28.6365884}, {"type": "node", "id": 8157003188, "lat": 44.1827748, "lon": 28.6433235}, {"type": "node", "id": 8175804220, "lat": 44.1767829, "lon": 28.6326505}, {"type": "node", "id": 8175804221, "lat": 44.1767562, "lon": 28.6326534}, {"type": "node", "id": 8175804222, "lat": 44.1767616, "lon": 28.632768}, {"type": "node", "id": 8175804223, "lat": 44.1766092, "lon": 28.6327819}, {"type": "node", "id": 8175804224, "lat": 44.1765987, "lon": 28.6325595}, {"type": "node", "id": 8175804225, "lat": 44.176777, "lon": 28.6325414}, {"type": "node", "id": 8186223136, "lat": 44.164589, "lon": 28.6021569}, {"type": "node", "id": 8186223137, "lat": 44.164465, "lon": 28.6020659}, {"type": "node", "id": 8186223138, "lat": 44.1645288, "lon": 28.6018968}, {"type": "node", "id": 8186223139, "lat": 44.164471, "lon": 28.6018542}, {"type": "node", "id": 8186223140, "lat": 44.1645253, "lon": 28.6017212}, {"type": "node", "id": 8186223141, "lat": 44.1647043, "lon": 28.6018516}, {"type": "node", "id": 8273877565, "lat": 44.2022109, "lon": 28.6349014, "tags": {"amenity": "clinic", "email": "fenescu@axismed.ro", "fax": "+40 241 559 969", "healthcare": "clinic", "healthcare:speciality": "physiotherapy;massage_therapy;kinesitherapy;nutrition", "name": "Axis", "phone": "+40 241 559 969", "website": "https://axismed.ro/"}}, {"type": "node", "id": 8354715930, "lat": 44.1854754, "lon": 28.6443657, "tags": {"addr:housenumber": "143A", "addr:street": "Bulevardul Tomis", "amenity": "clinic", "healthcare": "clinic", "name": "Policlinica Gastromond", "operator": "Regina Marai", "operator:type": "private"}}, {"type": "node", "id": 9221680225, "lat": 44.214367, "lon": 28.6291241}, {"type": "node", "id": 9221680226, "lat": 44.2143736, "lon": 28.6294409}, {"type": "node", "id": 9221680227, "lat": 44.2143205, "lon": 28.6294431}, {"type": "node", "id": 9221680228, "lat": 44.2143229, "lon": 28.6295595}, {"type": "node", "id": 9221680229, "lat": 44.2142247, "lon": 28.6295635}, {"type": "node", "id": 9221680230, "lat": 44.2142283, "lon": 28.6297337}, {"type": "node", "id": 9221680231, "lat": 44.2139834, "lon": 28.6297437}, {"type": "node", "id": 9221680232, "lat": 44.2139772, "lon": 28.6294537}, {"type": "node", "id": 9221680233, "lat": 44.2139138, "lon": 28.6294563}, {"type": "node", "id": 9221680234, "lat": 44.2139155, "lon": 28.6295346}, {"type": "node", "id": 9221680235, "lat": 44.2138665, "lon": 28.6295366}, {"type": "node", "id": 9221680236, "lat": 44.2138651, "lon": 28.6294682}, {"type": "node", "id": 9221680237, "lat": 44.2137955, "lon": 28.629471}, {"type": "node", "id": 9221680238, "lat": 44.213789, "lon": 28.6291621}, {"type": "node", "id": 9221680239, "lat": 44.2138743, "lon": 28.6291586}, {"type": "node", "id": 9221680240, "lat": 44.2138755, "lon": 28.6292146}, {"type": "node", "id": 9221680241, "lat": 44.2141213, "lon": 28.6292047}, {"type": "node", "id": 9221680242, "lat": 44.2141176, "lon": 28.6290304}, {"type": "node", "id": 9221680243, "lat": 44.2141885, "lon": 28.6290275}, {"type": "node", "id": 9221680244, "lat": 44.2141906, "lon": 28.6291313}, {"type": "node", "id": 9246025971, "lat": 44.186143, "lon": 28.6284236}, {"type": "node", "id": 9246025972, "lat": 44.1858966, "lon": 28.6282689}, {"type": "node", "id": 9246025973, "lat": 44.1856697, "lon": 28.6290043}, {"type": "node", "id": 9246025974, "lat": 44.1859041, "lon": 28.6291583}, {"type": "node", "id": 9325155383, "lat": 44.2099738, "lon": 28.6427585}, {"type": "node", "id": 9325155384, "lat": 44.2099838, "lon": 28.6428982}, {"type": "node", "id": 9325155385, "lat": 44.2098258, "lon": 28.6429203}, {"type": "node", "id": 9325155386, "lat": 44.2098158, "lon": 28.6427805}, {"type": "node", "id": 9351968226, "lat": 44.1864728, "lon": 28.6441208, "tags": {"addr:city": "Constan\u021ba", "addr:street": "Bulevardul Tomis", "amenity": "clinic", "healthcare": "clinic", "name": "Aqua Clinic"}}, {"type": "node", "id": 9418075485, "lat": 44.2077533, "lon": 28.6249265}, {"type": "node", "id": 9418075490, "lat": 44.2080715, "lon": 28.6247034}, {"type": "node", "id": 9418075491, "lat": 44.2079596, "lon": 28.6247086}, {"type": "node", "id": 9418075492, "lat": 44.2079655, "lon": 28.6249518}, {"type": "node", "id": 9418075493, "lat": 44.2080774, "lon": 28.6249465}, {"type": "node", "id": 9456898450, "lat": 44.20336, "lon": 28.6182786}, {"type": "node", "id": 9465937476, "lat": 44.2018215, "lon": 28.6462838, "tags": {"addr:city": "Constan\u021ba", "addr:housenumber": "208", "addr:postcode": "900540", "addr:postcode:source": "Date de la Po\u0219ta Rom\u00e2n\u0103, publicate sub Licen\u021ba pentru Guvernare Deschis\u0103 v1.0 la http://date.gov.ro/organization/posta-romana", "addr:street": "Bulevardul Mamaia", "amenity": "clinic", "healthcare": "clinic", "name": "Regina Maria - Policlinica Delfinariu", "opening_hours": "24/7", "operator": "Regina Maria", "operator:type": "private", "website": "https://www.reginamaria.ro/policlinici-si-imagistica/policlinica-pentru-copii-delfinariu/descriere"}}, {"type": "node", "id": 9597257865, "lat": 44.1763769, "lon": 28.6325856}, {"type": "node", "id": 9597257866, "lat": 44.1763941, "lon": 28.6328687}, {"type": "node", "id": 9605287766, "lat": 44.1705905, "lon": 28.6092342}, {"type": "node", "id": 9605287767, "lat": 44.1705879, "lon": 28.6091787}, {"type": "node", "id": 10921840724, "lat": 44.173413, "lon": 28.6413448, "tags": {"amenity": "clinic", "healthcare": "clinic"}}, {"type": "node", "id": 11013895886, "lat": 44.1644865, "lon": 28.6020817}, {"type": "node", "id": 11118736647, "lat": 44.2156767, "lon": 28.6288059, "tags": {"addr:housenumber": "197", "addr:street": "Bulevardul Alexandru L\u0103pu\u0219neanu", "amenity": "clinic", "branch": "Dobrogea", "healthcare": "clinic", "healthcare:speciality": "physiatry;hydrotherapy;diabetology;acupuncture", "name": "Visa Med", "website": "https://visa-med.ro/"}}, {"type": "node", "id": 11118736648, "lat": 44.2057623, "lon": 28.6458185, "tags": {"addr:city": "Constan\u021ba", "addr:housenumber": "57", "addr:postcode": "900553", "addr:postcode:source": "Date de la Po\u0219ta Rom\u00e2n\u0103, publicate sub Licen\u021ba pentru Guvernare Deschis\u0103 v1.0 la http://date.gov.ro/organization/posta-romana", "addr:street": "Strada C\u0103iu\u021bi", "amenity": "clinic", "branch": "Delfinariu", "healthcare": "clinic", "healthcare:speciality": "physiatry;hydrotherapy;diabetology;acupuncture", "name": "Visa Med", "website": "https://visa-med.ro/"}}, {"type": "node", "id": 11155826945, "lat": 44.182351, "lon": 28.6509103}, {"type": "node", "id": 11155826946, "lat": 44.1819781, "lon": 28.6509491}, {"type": "node", "id": 11155826947, "lat": 44.1821215, "lon": 28.6511835}, {"type": "node", "id": 11155826948, "lat": 44.1822075, "lon": 28.650676}, {"type": "node", "id": 11155826957, "lat": 44.1823276, "lon": 28.6508721}, {"type": "node", "id": 11234192446, "lat": 44.1821704, "lon": 28.6507202, "tags": {"access": "yes", "entrance": "main", "wheelchair": "no"}}, {"type": "node", "id": 11234192447, "lat": 44.1820642, "lon": 28.6508465, "tags": {"entrance": "yes", "wheelchair": "no"}}, {"type": "node", "id": 11234192448, "lat": 44.1820397, "lon": 28.6508758, "tags": {"access": "private", "entrance": "yes", "wheelchair": "no"}}, {"type": "node", "id": 11396425414, "lat": 44.1617066, "lon": 28.6063993, "tags": {"addr:housenumber": "2", "addr:street": "Aleea Egretei", "amenity": "clinic", "healthcare": "clinic", "name": "EURODIALIZA", "website": "https://eurodializa.eu"}}, {"type": "node", "id": 11522518810, "lat": 44.1799693, "lon": 28.6514007, "tags": {"amenity": "clinic", "healthcare": "clinic", "name": "Dispensar medical nr. 2-4"}}, {"type": "way", "id": 135412074, "nodes": [1487186780, 1487186940, 1487186795, 1487186984, 1487186854, 1487186845, 1487186828, 1487186939, 1487186780], "tags": {"addr:city": "Constan\u021ba", "addr:housenumber": "2", "addr:street": "Aleea Zmeurei", "amenity": "clinic", "building": "yes", "healthcare": "clinic", "name": "Serviciul Clinic Jude\u021bean de Medicin\u0103 Legal\u0103", "operator": "Spitalul Clinic Jude\u021bean de Urgen\u021b\u0103 Constan\u021ba", "operator:type": "public"}}, {"type": "way", "id": 135518013, "nodes": [1488409988, 1488410230, 1488410279, 9605287767, 9605287766, 1488410457, 1488410286, 1488410268, 1488410104, 1488410272, 1488410402, 1488410229, 1488409975, 1488410398, 1488409988], "tags": {"addr:city": "Constan\u021ba", "addr:housenumber": "47", "addr:street": "Bulevardul I. C. Br\u0103tianu", "amenity": "clinic", "building": "yes", "healthcare": "clinic", "name": "Dispensar"}}, {"type": "way", "id": 135632249, "nodes": [1489360689, 1489360646, 1489360444, 1489360481, 1489360448, 1489360342, 1489360509, 1489360506, 9418075485, 1489360689], "tags": {"addr:housenumber": "2", "addr:street": "Aleea Dealului", "amenity": "clinic", "building": "yes", "healthcare": "clinic", "healthcare:speciality": "dentistry", "name": "Clinica Stomatologie nr. 2", "old_name": "Clinica Protec\u021bie Dentar\u0103"}}, {"type": "way", "id": 135632259, "nodes": [1489360341, 1489360649, 1489360703, 1489360349, 1489360341], "tags": {"addr:city": "Constan\u021ba", "addr:housenumber": "3", "addr:street": "Aleea Nuf\u0103rului", "amenity": "clinic", "building": "yes", "building:levels": "2", "healthcare": "clinic", "healthcare:speciality": "dentistry", "name": "Policinica Stomatologic\u0103 nr. 2"}}, {"type": "way", "id": 135726955, "nodes": [1490167019, 1490166962, 1490167037, 1490166945, 1490167019], "tags": {"amenity": "clinic", "building": "yes", "healthcare": "clinic", "name": "Sec\u021bia boli interne \u0219i diabet"}}, {"type": "way", "id": 135780838, "nodes": [1490597615, 1490597429, 1490597507, 1490597514, 1490597435, 1490597432, 1490597484, 1490597586, 1490597615], "tags": {"addr:city": "Constan\u021ba", "addr:housenumber": "141A", "addr:postcode": "900591", "addr:street": "Bulevardul Tomis", "amenity": "clinic", "building": "yes", "building:levels": "1", "contact:email": "constanta@affidea.com", "contact:phone": "+40 21 9338", "contact:website": "https://affidea.ro/centre-medicale/affidea-constanta", "healthcare": "clinic", "name": "Affidea", "opening_hours": "Mo-Fr 08:00-20:00"}}, {"type": "way", "id": 135847048, "nodes": [1491136820, 1491136900, 1491136745, 1491136810, 1491136811, 1491136922, 1491136920, 1491136850, 1491136820], "tags": {"addr:city": "Constan\u021ba", "addr:country": "RO", "addr:housenumber": "6", "addr:postcode": "900125", "addr:postcode:source": "Date de la Po\u0219ta Rom\u00e2n\u0103, publicate sub Licen\u021ba pentru Guvernare Deschis\u0103 v1.0 la http://date.gov.ro/organization/posta-romana", "addr:street": "Aleea Portului Nou", "amenity": "clinic", "building": "yes", "healthcare": "clinic", "healthcare:speciality": "dermatology", "name": "Sec\u021bia Clinic\u0103 de Dermatovenerologie", "old_name": "Clinica nr. 14", "operator": "Spitalul Jude\u021bean Constan\u021ba", "operator:type": "public", "website": "https://www.spitalulconstanta.ro/sectia-clinica-dermatovenerologie-sectie-exterioara/"}}, {"type": "way", "id": 135869732, "nodes": [1491353158, 1491352973, 9456898450, 1491353293, 1491353233, 1491353158], "tags": {"addr:housenumber": "6", "addr:street": "Strada Badea C\u00e2r\u021ban", "amenity": "clinic", "building": "yes", "healthcare": "clinic", "name": "Dispensar medical nr. 27-30"}}, {"type": "way", "id": 345206211, "nodes": [3518974072, 3518974070, 6633182240, 6633182241, 3518974071, 3518974073, 3518974072], "tags": {"addr:city": "Constan\u021ba", "addr:country": "RO", "addr:housenumber": "78", "addr:street": "Bulevardul I. C. Br\u0103tianu", "amenity": "clinic", "building": "yes", "email": "office@clinicaman.ro", "healthcare": "clinic", "healthcare:speciality": "orthopaedics;psychiatry;endocrinology;cardiology;rheumathology", "name": "Clinica MAN", "opening_hours": "Mo-Fr 08:00-21:30", "phone": "+40 241 541 999", "website": "http://www.clinicaman.ro"}}, {"type": "way", "id": 377266075, "nodes": [3806394282, 3806394283, 8157003188, 3806394281, 3806394280, 3806394282], "tags": {"addr:city": "Constan\u021ba", "addr:housenumber": "16A-16B", "addr:postcode": "900673", "addr:postcode:source": "Date de la Po\u0219ta Rom\u00e2n\u0103, publicate sub Licen\u021ba pentru Guvernare Deschis\u0103 v1.0 la http://date.gov.ro/organization/posta-romana", "addr:street": "Bulevardul Mamaia", "amenity": "clinic", "building": "yes", "contact:phone": "+4021 9268", "healthcare": "clinic", "name": "Policlinica Tomis", "operator": "Regina Maria", "operator:type": "private", "source": "survey, Bing, local info", "website": "https://www.reginamaria.ro/"}}, {"type": "way", "id": 377508558, "nodes": [3808824305, 3808824303, 8154190903, 3808824302, 8154190902, 3808824304, 3808824305], "tags": {"addr:city": "Constan\u021ba", "addr:housenumber": "43-45", "addr:street": "Strada Constantin Dobrogeanu Gherea", "amenity": "clinic", "building": "yes", "healthcare": "clinic", "name": "ABC Medical Center", "website": "https://abcmedicalcenter.ro/"}}, {"type": "way", "id": 381114106, "nodes": [3843608893, 3843608894, 3843608892, 3843608891, 3843608893], "tags": {"addr:housenumber": "222", "addr:street": "Bulevardul Mamaia", "amenity": "clinic", "building": "yes", "healthcare": "clinic", "name": "Medstar 2000", "website": "https://www.medstar2000.ro"}}, {"type": "way", "id": 381787285, "nodes": [3849526068, 3849526069, 3849526065, 3849526064, 3849526068], "tags": {"addr:housenumber": "218", "addr:street": "Bulevardul Mamaia", "amenity": "clinic", "building": "yes", "healthcare": "clinic", "healthcare:speciality": "plastic_surgery", "name": "Diantus Estet", "website": "https://diantus.ro"}}, {"type": "way", "id": 405636564, "nodes": [4078013557, 4078013555, 4078013556, 4078013558, 4078013557], "tags": {"amenity": "clinic", "building": "yes", "healthcare": "centre", "healthcare:speciality": "radiology;dentistry"}}, {"type": "way", "id": 426855623, "nodes": [4261162317, 4261162315, 4261162314, 4261162316, 4261162317], "tags": {"addr:city": "Constan\u021ba", "addr:housenumber": "11", "addr:street": "Strada Constantin Hurmuzache", "amenity": "clinic", "building": "yes", "healthcare": "clinic", "name": "Cermed", "opening_hours": "Mo-Fr 07:30-20:00, Su off; Sa 08:00-15:00", "website": "http://www.cermed.ro"}}, {"type": "way", "id": 448866764, "nodes": [4458394891, 4458394485, 4458394901, 4458394484, 4458394891], "tags": {"amenity": "clinic", "building": "yes", "building:levels": "3", "healthcare": "clinic", "healthcare:speciality": "dentistry", "name": "Policlinica de stomatologie nr. 1"}}, {"type": "way", "id": 479696063, "nodes": [4727531210, 4727531209, 4727531206, 4727531205, 4727531203, 4727531204, 4727531208, 4727531207, 4727531210], "tags": {"addr:city": "Constan\u021ba", "addr:housenumber": "58", "addr:street": "Strada General Manu", "amenity": "clinic", "building": "yes", "healthcare": "clinic", "name": "Clinica MACTA Medical Analysis", "website": "https://www.medicalanalysis.ro/"}}, {"type": "way", "id": 630010062, "nodes": [5949565960, 5949565961, 5949565962, 5949565963, 5949565964, 5949565965, 5949565966, 5949565967, 5949565968, 5949565969, 5949565970, 5949565971, 5949565972, 1491156366, 1491156294, 5949565975, 5949565981, 5949565982, 5949565956, 5949565957, 5949565958, 5949565959, 5949565960], "tags": {"addr:city": "Constan\u021ba", "addr:housenumber": "83", "addr:street": "Strada \u0218tefan cel Mare", "amenity": "clinic", "building": "yes", "building:levels": "4", "healthcare": "clinic", "name": "Policlinica cu Plat\u0103", "opening_hours": "Mo-Fr 07:00-19:00; Sa 08:00-14:00"}}, {"type": "way", "id": 874528499, "nodes": [8141048828, 8141048829, 8141048830, 8141048831, 8141048828], "tags": {"addr:city": "Constan\u021ba", "addr:housenumber": "30", "addr:street": "Strada \u0218tef\u0103ni\u021b\u0103 Vod\u0103", "amenity": "clinic", "building": "yes", "building:levels": "3", "healthcare": "clinic", "healthcare:speciality": "radiology", "name": "Centru de Radioterapie", "operator": "MedEuropa", "operator:type": "private"}}, {"type": "way", "id": 878829599, "nodes": [8175804225, 8175804224, 8175804223, 8175804222, 8175804221, 8175804220, 8175804225], "tags": {"amenity": "clinic", "building": "yes", "healthcare": "clinic", "name": "Clinica 360", "operator:type": "private"}}, {"type": "way", "id": 880048914, "nodes": [8186223141, 8186223140, 8186223139, 8186223138, 8186223137, 11013895886, 8186223136, 8186223141], "tags": {"addr:city": "Constan\u021ba", "addr:housenumber": "34A", "addr:street": "Strada Medeea", "amenity": "clinic", "building": "yes", "healthcare": "clinic", "healthcare:speciality": "surgery", "name": "ROCOMED - Clinic\u0103 de chirurgie"}}, {"type": "way", "id": 998786599, "nodes": [9221680225, 9221680226, 9221680227, 9221680228, 9221680229, 9221680230, 9221680231, 9221680232, 9221680233, 9221680234, 9221680235, 9221680236, 9221680237, 9221680238, 9221680239, 9221680240, 9221680241, 9221680242, 9221680243, 9221680244, 9221680225], "tags": {"addr:city": "Constan\u021ba", "addr:housenumber": "188A", "addr:postcode": "900489", "addr:street": "Bulevardul Alexandru L\u0103pu\u0219neanu", "amenity": "clinic", "building": "yes", "healthcare": "clinic", "name": "Iowemed", "old_name": "Restaurant Nord", "operator": "Medicover", "operator:type": "private"}}, {"type": "way", "id": 1001754630, "nodes": [9246025971, 9246025972, 9246025973, 9246025974, 9246025971], "tags": {"amenity": "clinic", "healthcare": "clinic"}}, {"type": "way", "id": 1010745578, "nodes": [9325155383, 9325155384, 9325155385, 9325155386, 9325155383], "tags": {"amenity": "clinic", "building": "yes", "healthcare": "clinic"}}, {"type": "way", "id": 1021133659, "nodes": [9418075490, 9418075491, 9418075492, 9418075493, 9418075490], "tags": {"addr:city": "Constan\u021ba", "addr:housenumber": "1", "addr:street": "Aleea Dealului", "amenity": "clinic", "building": "yes", "healthcare": "clinic", "healthcare:speciality": "general", "name": "Dispensar medical nr. 9-10"}}, {"type": "way", "id": 1042622215, "nodes": [8175804225, 8175804224, 9597257865, 9597257866, 8136189912, 8136189911, 8175804220, 8175804225], "tags": {"addr:city": "Constan\u021ba", "addr:housenumber": "21", "addr:street": "Strada Bucure\u0219ti", "amenity": "clinic", "healthcare": "clinic"}}, {"type": "way", "id": 1203470677, "nodes": [11155826945, 11155826957, 3085714148, 3085714146, 11155826948, 11234192446, 11234192447, 11234192448, 11155826946, 11155826947, 3085714144, 3085714147, 11155826945], "tags": {"addr:city": "Constan\u021ba", "addr:housenumber": "102", "addr:street": "Strada Mircea cel B\u0103tr\u00e2n", "amenity": "clinic", "building": "yes", "building:levels": "2", "healthcare": "clinic", "name": "Policlinica Pozimed", "operator": "Regina Maria", "operator:type": "private"}}]}