{"version": 0.6, "generator": "Overpass API 0.7.62.1 084b4234", "osm3s": {"timestamp_osm_base": "2024-05-16T16:35:51Z", "copyright": "The data included in this document is from www.openstreetmap.org. The data is made available under ODbL."}, "elements": [{"type": "node", "id": 414226388, "lat": 46.7683581, "lon": 23.5796611, "tags": {"addr:city": "Cluj-Napoca", "addr:country": "RO", "amenity": "clinic", "healthcare": "clinic", "healthcare:speciality": "plastic_surgery", "name": "Clinica de Chirurgie Maxilo-Facial\u0103"}}, {"type": "node", "id": 724348782, "lat": 46.7648425, "lon": 23.5852355, "tags": {"addr:city": "Cluj-Napoca", "addr:country": "RO", "addr:housenumber": "25", "addr:street": "Strada Victor Babe\u0219", "amenity": "clinic", "healthcare": "clinic", "name": "Policlinica Spital Salvosan Ciobanca"}}, {"type": "node", "id": 1240567822, "lat": 46.7630136, "lon": 23.5847476, "tags": {"addr:city": "Cluj-Napoca", "addr:country": "RO"}}, {"type": "node", "id": 1240567839, "lat": 46.7632107, "lon": 23.5850022, "tags": {"addr:city": "Cluj-Napoca", "addr:country": "RO"}}, {"type": "node", "id": 1240567906, "lat": 46.7633568, "lon": 23.5847613, "tags": {"addr:city": "Cluj-Napoca", "addr:country": "RO"}}, {"type": "node", "id": 1240567918, "lat": 46.7631537, "lon": 23.5845163, "tags": {"addr:city": "Cluj-Napoca", "addr:country": "RO"}}, {"type": "node", "id": 1240567933, "lat": 46.7631887, "lon": 23.5846381, "tags": {"addr:city": "Cluj-Napoca", "addr:country": "RO"}}, {"type": "node", "id": 1240567976, "lat": 46.7632148, "lon": 23.5845951, "tags": {"addr:city": "Cluj-Napoca", "addr:country": "RO"}}, {"type": "node", "id": 1240567985, "lat": 46.763286, "lon": 23.5846698, "tags": {"addr:city": "Cluj-Napoca", "addr:country": "RO"}}, {"type": "node", "id": 1240568042, "lat": 46.763254, "lon": 23.5847225, "tags": {"addr:city": "Cluj-Napoca", "addr:country": "RO"}}, {"type": "node", "id": 1903806210, "lat": 46.7694557, "lon": 23.6184148, "tags": {"addr:city": "Cluj-Napoca", "addr:country": "RO", "addr:housenumber": "7", "addr:street": "Strada Nicolae Pascaly", "alt_name": "Centrul Medico Chirurgical Interservisan Gheorgheni", "amenity": "clinic", "healthcare": "clinic", "name": "Clinica Interservi\u0219an"}}, {"type": "node", "id": 2122637884, "lat": 46.7653182, "lon": 23.5877718}, {"type": "node", "id": 2122637890, "lat": 46.7653439, "lon": 23.5879713}, {"type": "node", "id": 2122637901, "lat": 46.7654177, "lon": 23.5877338}, {"type": "node", "id": 2122637902, "lat": 46.7654188, "lon": 23.587745}, {"type": "node", "id": 2122637904, "lat": 46.7654248, "lon": 23.5877201}, {"type": "node", "id": 2122637907, "lat": 46.7654462, "lon": 23.587944}, {"type": "node", "id": 2122637908, "lat": 46.7654561, "lon": 23.5880205}, {"type": "node", "id": 2122637909, "lat": 46.7654665, "lon": 23.5877104}, {"type": "node", "id": 2122637910, "lat": 46.7654723, "lon": 23.5877188}, {"type": "node", "id": 2122637911, "lat": 46.76548, "lon": 23.5877812}, {"type": "node", "id": 2122637913, "lat": 46.7654828, "lon": 23.5878164}, {"type": "node", "id": 2122637914, "lat": 46.7655045, "lon": 23.58788}, {"type": "node", "id": 2122637915, "lat": 46.7655056, "lon": 23.5878102}, {"type": "node", "id": 2122637916, "lat": 46.7655151, "lon": 23.5878773}, {"type": "node", "id": 2122637918, "lat": 46.7655204, "lon": 23.5880034}, {"type": "node", "id": 2203971926, "lat": 46.7662071, "lon": 23.6240094}, {"type": "node", "id": 2203971927, "lat": 46.7662071, "lon": 23.6243396}, {"type": "node", "id": 2203971932, "lat": 46.7662462, "lon": 23.6240076}, {"type": "node", "id": 2203971933, "lat": 46.7662474, "lon": 23.6239627}, {"type": "node", "id": 2203971934, "lat": 46.7662556, "lon": 23.6243897}, {"type": "node", "id": 2203971935, "lat": 46.7662568, "lon": 23.6243361}, {"type": "node", "id": 2203971940, "lat": 46.7663231, "lon": 23.6239644}, {"type": "node", "id": 2203971941, "lat": 46.7663255, "lon": 23.6243932}, {"type": "node", "id": 2342981958, "lat": 46.7546205, "lon": 23.5835403}, {"type": "node", "id": 2342981959, "lat": 46.7546095, "lon": 23.5834544}, {"type": "node", "id": 2342981963, "lat": 46.7547602, "lon": 23.5837227}, {"type": "node", "id": 2342981970, "lat": 46.7545911, "lon": 23.5835617}, {"type": "node", "id": 2342981974, "lat": 46.7546867, "lon": 23.5834223}, {"type": "node", "id": 2342981992, "lat": 46.7546389, "lon": 23.583787}, {"type": "node", "id": 2498314096, "lat": 46.7809091, "lon": 23.5866986}, {"type": "node", "id": 2498314099, "lat": 46.7806841, "lon": 23.5866973}, {"type": "node", "id": 2498314100, "lat": 46.7809336, "lon": 23.5858656}, {"type": "node", "id": 2498314101, "lat": 46.7807127, "lon": 23.585863}, {"type": "node", "id": 2498314102, "lat": 46.7806937, "lon": 23.5852198}, {"type": "node", "id": 2498314103, "lat": 46.780672, "lon": 23.5857649}, {"type": "node", "id": 2498314104, "lat": 46.780196, "lon": 23.5858103}, {"type": "node", "id": 2498314105, "lat": 46.7801121, "lon": 23.585833}, {"type": "node", "id": 2498314106, "lat": 46.7800872, "lon": 23.5850654}, {"type": "node", "id": 2498314107, "lat": 46.780392, "lon": 23.5849518}, {"type": "node", "id": 2505837896, "lat": 46.778832, "lon": 23.6104309}, {"type": "node", "id": 2505837898, "lat": 46.7788787, "lon": 23.6106468}, {"type": "node", "id": 2505837899, "lat": 46.7786144, "lon": 23.6107687}, {"type": "node", "id": 2505837901, "lat": 46.7785677, "lon": 23.6105528}, {"type": "node", "id": 2546968833, "lat": 46.7762036, "lon": 23.6206165, "tags": {"addr:city": "Cluj-Napoca", "addr:country": "RO", "addr:housenumber": "42-44", "addr:postcode": "400591", "addr:street": "Strada Teodor Mihali", "amenity": "clinic", "healthcare": "clinic", "name": "Regina Maria Centrul de Medicina Muncii"}}, {"type": "node", "id": 2752327003, "lat": 46.7673804, "lon": 23.5769381}, {"type": "node", "id": 2752327005, "lat": 46.7672417, "lon": 23.5770177}, {"type": "node", "id": 2752327007, "lat": 46.7672976, "lon": 23.5772254}, {"type": "node", "id": 2752327009, "lat": 46.7674363, "lon": 23.5771458}, {"type": "node", "id": 2798009200, "lat": 46.7670411, "lon": 23.584092}, {"type": "node", "id": 2798010111, "lat": 46.7669764, "lon": 23.5838673}, {"type": "node", "id": 2798010156, "lat": 46.7668769, "lon": 23.5839284}, {"type": "node", "id": 2798010347, "lat": 46.7669416, "lon": 23.584153}, {"type": "node", "id": 2798038356, "lat": 46.7698861, "lon": 23.583357}, {"type": "node", "id": 2798038365, "lat": 46.7697464, "lon": 23.5833328}, {"type": "node", "id": 2798040237, "lat": 46.7697354, "lon": 23.5831826}, {"type": "node", "id": 2798040285, "lat": 46.7698769, "lon": 23.583196}, {"type": "node", "id": 2798127604, "lat": 46.7615536, "lon": 23.5687033}, {"type": "node", "id": 2798127811, "lat": 46.7615733, "lon": 23.568772}, {"type": "node", "id": 2798127888, "lat": 46.7618032, "lon": 23.568551}, {"type": "node", "id": 2798127990, "lat": 46.7618228, "lon": 23.5686197}, {"type": "node", "id": 2798163716, "lat": 46.765335, "lon": 23.5773444}, {"type": "node", "id": 2798163723, "lat": 46.7652171, "lon": 23.5771998}, {"type": "node", "id": 2798163780, "lat": 46.7652633, "lon": 23.5773766}, {"type": "node", "id": 2798163925, "lat": 46.7652486, "lon": 23.5773068}, {"type": "node", "id": 2798163976, "lat": 46.7652744, "lon": 23.577154}, {"type": "node", "id": 2798164131, "lat": 46.7652103, "lon": 23.5773301}, {"type": "node", "id": 2798164146, "lat": 46.7651825, "lon": 23.5772317}, {"type": "node", "id": 2798272519, "lat": 46.7654903, "lon": 23.5714974}, {"type": "node", "id": 2798272533, "lat": 46.7654019, "lon": 23.5715239}, {"type": "node", "id": 2798273091, "lat": 46.7655208, "lon": 23.5717149}, {"type": "node", "id": 2798273145, "lat": 46.7654323, "lon": 23.5717413}, {"type": "node", "id": 2798364953, "lat": 46.7613793, "lon": 23.5854738}, {"type": "node", "id": 2798364958, "lat": 46.761247, "lon": 23.5855864}, {"type": "node", "id": 2798364968, "lat": 46.7613056, "lon": 23.585551}, {"type": "node", "id": 2798364969, "lat": 46.7614158, "lon": 23.5854035}, {"type": "node", "id": 2798364975, "lat": 46.7615795, "lon": 23.5854684}, {"type": "node", "id": 2798364976, "lat": 46.7615318, "lon": 23.5854872}, {"type": "node", "id": 2798364979, "lat": 46.761504, "lon": 23.5853713}, {"type": "node", "id": 2798364981, "lat": 46.7613535, "lon": 23.5853879}, {"type": "node", "id": 2798364983, "lat": 46.7612819, "lon": 23.5854121}, {"type": "node", "id": 2798364991, "lat": 46.7614142, "lon": 23.5854684}, {"type": "node", "id": 2798366006, "lat": 46.7612341, "lon": 23.5853102}, {"type": "node", "id": 2798366007, "lat": 46.7611973, "lon": 23.5853879}, {"type": "node", "id": 2798366008, "lat": 46.7615316, "lon": 23.5852211}, {"type": "node", "id": 2810662416, "lat": 46.7741541, "lon": 23.5994858}, {"type": "node", "id": 2810662433, "lat": 46.7743255, "lon": 23.5996626}, {"type": "node", "id": 2810662437, "lat": 46.7743405, "lon": 23.5996249}, {"type": "node", "id": 2810662438, "lat": 46.7743418, "lon": 23.5995931}, {"type": "node", "id": 2810662441, "lat": 46.7743842, "lon": 23.5998529}, {"type": "node", "id": 2810662446, "lat": 46.7744703, "lon": 23.5947111}, {"type": "node", "id": 2810662449, "lat": 46.7744738, "lon": 23.5999685}, {"type": "node", "id": 2810662453, "lat": 46.7745058, "lon": 23.6004468}, {"type": "node", "id": 2810662454, "lat": 46.7744953, "lon": 23.5946577}, {"type": "node", "id": 2810662459, "lat": 46.7743687, "lon": 23.5996569}, {"type": "node", "id": 2810662462, "lat": 46.7746686, "lon": 23.6000578}, {"type": "node", "id": 2810662466, "lat": 46.7745609, "lon": 23.5995477}, {"type": "node", "id": 2810662469, "lat": 46.7745675, "lon": 23.5948529}, {"type": "node", "id": 2810662470, "lat": 46.774569, "lon": 23.5994997}, {"type": "node", "id": 2810662482, "lat": 46.7746377, "lon": 23.5949554}, {"type": "node", "id": 2810662485, "lat": 46.7746574, "lon": 23.599172}, {"type": "node", "id": 2810662490, "lat": 46.77468, "lon": 23.5949161}, {"type": "node", "id": 2810662493, "lat": 46.7746915, "lon": 23.5950678}, {"type": "node", "id": 2810662496, "lat": 46.7746982, "lon": 23.6001274}, {"type": "node", "id": 2810662499, "lat": 46.7747127, "lon": 23.5947083}, {"type": "node", "id": 2810662503, "lat": 46.7747268, "lon": 23.5994024}, {"type": "node", "id": 2810662505, "lat": 46.7747349, "lon": 23.6000936}, {"type": "node", "id": 2810662506, "lat": 46.7747454, "lon": 23.5947841}, {"type": "node", "id": 2810662507, "lat": 46.7747653, "lon": 23.5997649}, {"type": "node", "id": 2810662508, "lat": 46.774755, "lon": 23.5946633}, {"type": "node", "id": 2810662514, "lat": 46.7747744, "lon": 23.600187}, {"type": "node", "id": 2810662537, "lat": 46.7748247, "lon": 23.5999367}, {"type": "node", "id": 2810662568, "lat": 46.7748878, "lon": 23.594874}, {"type": "node", "id": 2810663481, "lat": 46.7759799, "lon": 23.5928617}, {"type": "node", "id": 2810663485, "lat": 46.7759837, "lon": 23.5921348}, {"type": "node", "id": 2810663495, "lat": 46.7759979, "lon": 23.5928951}, {"type": "node", "id": 2810663498, "lat": 46.7760053, "lon": 23.5928842}, {"type": "node", "id": 2810663503, "lat": 46.7760152, "lon": 23.5929285}, {"type": "node", "id": 2810663505, "lat": 46.7760214, "lon": 23.5927505}, {"type": "node", "id": 2810663506, "lat": 46.7760239, "lon": 23.5929096}, {"type": "node", "id": 2810663529, "lat": 46.7760573, "lon": 23.5930063}, {"type": "node", "id": 2810663531, "lat": 46.7760606, "lon": 23.5922204}, {"type": "node", "id": 2810663537, "lat": 46.7760722, "lon": 23.592981}, {"type": "node", "id": 2810663543, "lat": 46.7760858, "lon": 23.5930298}, {"type": "node", "id": 2810663551, "lat": 46.7760994, "lon": 23.593009}, {"type": "node", "id": 2810663576, "lat": 46.7761452, "lon": 23.5930524}, {"type": "node", "id": 2810663583, "lat": 46.7761539, "lon": 23.5930343}, {"type": "node", "id": 2810663595, "lat": 46.7761655, "lon": 23.5917064}, {"type": "node", "id": 2810663802, "lat": 46.7761777, "lon": 23.5916773}, {"type": "node", "id": 2810663806, "lat": 46.7761805, "lon": 23.593056}, {"type": "node", "id": 2810663810, "lat": 46.7761892, "lon": 23.593037}, {"type": "node", "id": 2810663825, "lat": 46.7762139, "lon": 23.5930542}, {"type": "node", "id": 2810663838, "lat": 46.7762269, "lon": 23.5930226}, {"type": "node", "id": 2810663848, "lat": 46.7762412, "lon": 23.5930334}, {"type": "node", "id": 2810663852, "lat": 46.7762449, "lon": 23.5929792}, {"type": "node", "id": 2810663856, "lat": 46.7762566, "lon": 23.5929918}, {"type": "node", "id": 2810663857, "lat": 46.7762573, "lon": 23.5929466}, {"type": "node", "id": 2810663864, "lat": 46.7762984, "lon": 23.5918276}, {"type": "node", "id": 2810663881, "lat": 46.7762952, "lon": 23.5913971}, {"type": "node", "id": 2810663889, "lat": 46.7763127, "lon": 23.5916323}, {"type": "node", "id": 2810663899, "lat": 46.7763411, "lon": 23.5918737}, {"type": "node", "id": 2810664014, "lat": 46.7763582, "lon": 23.5916835}, {"type": "node", "id": 2810664029, "lat": 46.7763776, "lon": 23.5919362}, {"type": "node", "id": 2810664056, "lat": 46.7764059, "lon": 23.5917264}, {"type": "node", "id": 2810664060, "lat": 46.7764164, "lon": 23.5919667}, {"type": "node", "id": 2810664061, "lat": 46.7765564, "lon": 23.5917815}, {"type": "node", "id": 2810664069, "lat": 46.7764486, "lon": 23.5917713}, {"type": "node", "id": 2810664080, "lat": 46.7764584, "lon": 23.5919994}, {"type": "node", "id": 2812975620, "lat": 46.7566764, "lon": 23.5907365}, {"type": "node", "id": 2812975624, "lat": 46.7566887, "lon": 23.5908389}, {"type": "node", "id": 2812975664, "lat": 46.7568008, "lon": 23.5907045}, {"type": "node", "id": 2812975668, "lat": 46.7568131, "lon": 23.5908069}, {"type": "node", "id": 2834526118, "lat": 46.7789722, "lon": 23.5874303, "tags": {"amenity": "clinic", "healthcare": "clinic", "name": "Spitalul Privat de Chirurgie"}}, {"type": "node", "id": 2835710037, "lat": 46.7816502, "lon": 23.5876383, "tags": {"addr:city": "Cluj-Napoca", "addr:country": "RO", "addr:housenumber": "78", "addr:postcode": "400275", "addr:postcode:source": "Date de la Po\u0219ta Rom\u00e2n\u0103, publicate sub Licen\u021ba pentru Guvernare Deschis\u0103 v1.0 la http://date.gov.ro/organization/posta-romana", "addr:street": "Strada Horea", "amenity": "clinic", "email": "terramed@mail.rdscj.ro", "fax": "0264433210", "healthcare": "clinic", "name": "Terra med", "opening_hours": "Mo-Fr 07:00-19:00, Sa 08:00-12:00", "phone": "0264530888, 0264532026", "website": "https://terramedcluj.ro/"}}, {"type": "node", "id": 2845518197, "lat": 46.769788, "lon": 23.5550152}, {"type": "node", "id": 2845518205, "lat": 46.769794, "lon": 23.5551073}, {"type": "node", "id": 2845518237, "lat": 46.7698289, "lon": 23.5551025}, {"type": "node", "id": 2845518241, "lat": 46.7698331, "lon": 23.5551677}, {"type": "node", "id": 2845518389, "lat": 46.7699818, "lon": 23.5549886}, {"type": "node", "id": 2845518395, "lat": 46.769992, "lon": 23.5551459}, {"type": "node", "id": 2860654009, "lat": 46.7838714, "lon": 23.5882637, "tags": {"addr:city": "Cluj-Napoca", "addr:country": "RO", "addr:postcode": "400276", "addr:street": "Strada Craiova", "amenity": "clinic", "healthcare": "clinic", "healthcare:speciality": "general", "level": "0", "name": "Regina Maria - Punct de recoltare analize", "operator": "Regina Maria"}}, {"type": "node", "id": 3484415593, "lat": 46.759909, "lon": 23.5923883, "tags": {"addr:city": "Cluj-Napoca", "addr:housenumber": "75", "addr:postcode": "400098", "addr:postcode:source": "Date de la Po\u0219ta Rom\u00e2n\u0103, publicate sub Licen\u021ba pentru Guvernare Deschis\u0103 v1.0 la http://date.gov.ro/organization/posta-romana", "addr:street": "Strada Republicii", "alt_name": "Clinica Cluj Republicii Medicover", "amenity": "clinic", "healthcare": "clinic", "name": "Medicover", "opening_hours": "Mo-Fr 08:00-20:00", "phone": "+40 264 414 545", "website": "https://www.medicover.ro/"}}, {"type": "node", "id": 3565740748, "lat": 46.7841976, "lon": 23.5939587}, {"type": "node", "id": 3565740750, "lat": 46.7842806, "lon": 23.5940684}, {"type": "node", "id": 3565740752, "lat": 46.7843632, "lon": 23.5941849}, {"type": "node", "id": 3565740753, "lat": 46.7844379, "lon": 23.5943058}, {"type": "node", "id": 3565740755, "lat": 46.7845319, "lon": 23.5944615}, {"type": "node", "id": 3565740757, "lat": 46.78461, "lon": 23.5945899}, {"type": "node", "id": 3623001619, "lat": 46.7744183, "lon": 23.5999358}, {"type": "node", "id": 3623001620, "lat": 46.7745913, "lon": 23.6003296}, {"type": "node", "id": 3623001621, "lat": 46.7746057, "lon": 23.600369}, {"type": "node", "id": 3623047833, "lat": 46.7672743, "lon": 23.5465326}, {"type": "node", "id": 3623047834, "lat": 46.7671806, "lon": 23.5466667}, {"type": "node", "id": 3623047835, "lat": 46.7673, "lon": 23.5468357}, {"type": "node", "id": 3623047836, "lat": 46.7673901, "lon": 23.5466962}, {"type": "node", "id": 3681346043, "lat": 46.7743398, "lon": 23.5999931}, {"type": "node", "id": 3691936925, "lat": 46.775777, "lon": 23.5984728, "tags": {"addr:city": "Cluj-Napoca", "addr:country": "RO", "addr:floor": "1", "amenity": "clinic", "contact:website": "https://www.cosmedica.ro/", "healthcare": "clinic", "healthcare:speciality": "plastic_surgery", "name": "CosMedica"}}, {"type": "node", "id": 3800466012, "lat": 46.7673543, "lon": 23.5818017, "tags": {"addr:city": "Cluj-Napoca", "addr:housenumber": "32", "addr:postcode": "400003", "addr:postcode:source": "Date de la Po\u0219ta Rom\u00e2n\u0103, publicate sub Licen\u021ba pentru Guvernare Deschis\u0103 v1.0 la http://date.gov.ro/organization/posta-romana", "addr:street": "Calea Mo\u021bilor", "amenity": "clinic", "check_date:opening_hours": "2023-03-24", "healthcare": "clinic", "name": "Hyperclinica MedLife", "opening_hours": "Mo-Fr 07:00-21:00; Sa 07:00-15:00", "phone": "0264 960", "website": "https://www.medlife.ro/"}}, {"type": "node", "id": 4036990688, "lat": 46.7430352, "lon": 23.5897429, "tags": {"addr:city": "Cluj-Napoca", "addr:housenumber": "21", "addr:postcode": "400194", "addr:street": "Strada Ana Aslan", "amenity": "clinic", "emergency": "no", "healthcare": "clinic", "name": "Cabinet de nefrologie \u0219i centru de dializ\u0103 Fresenius", "operator": "Fresenius Nephrocare Romania SRL"}}, {"type": "node", "id": 4128054589, "lat": 46.7547233, "lon": 23.580842, "tags": {"amenity": "clinic", "healthcare": "clinic", "name": "Clinica Bendis"}}, {"type": "node", "id": 4128155957, "lat": 46.7552703, "lon": 23.5761978, "tags": {"amenity": "clinic", "healthcare": "clinic", "name": "Medical Cor"}}, {"type": "node", "id": 4128158170, "lat": 46.7748816, "lon": 23.5951202, "tags": {"addr:housenumber": "8", "addr:street": "Strada Constan\u021ba", "amenity": "clinic", "healthcare": "clinic", "name": "Radusan"}}, {"type": "node", "id": 4128268907, "lat": 46.7701927, "lon": 23.6042298, "tags": {"addr:housenumber": "38A", "addr:street": "Strada General Traian Mo\u0219oiu", "amenity": "clinic", "healthcare": "clinic", "healthcare:speciality": "gastroenterology", "name": "Centrul medical gastroenterologie \u0219i hepatologie"}}, {"type": "node", "id": 4128757493, "lat": 46.7577809, "lon": 23.5806823, "tags": {"addr:city": "Cluj-Napoca", "addr:country": "RO", "addr:street": "Strada Sighi\u0219oarei", "amenity": "clinic", "healthcare": "clinic", "name": "Ronda Medical", "opening_hours": "Mo-Fr 09:00-17:00"}}, {"type": "node", "id": 4153861054, "lat": 46.7622961, "lon": 23.6112231, "tags": {"amenity": "clinic", "healthcare": "clinic", "name": "QClinic"}}, {"type": "node", "id": 4178992989, "lat": 46.7662994, "lon": 23.5832335, "tags": {"addr:city": "Cluj-Napoca", "addr:housenumber": "4-6", "addr:postcode": "400006", "addr:street": "Strada Clinicilor", "alt_name": "Institutul Clinic de Urologie \u015fi Transplant Renal din Cluj-Napoca", "amenity": "clinic", "healthcare": "clinic", "name": "Institutul de Urologie"}}, {"type": "node", "id": 4208841123, "lat": 46.7719033, "lon": 23.5888984, "tags": {"addr:city": "Cluj-Napoca", "addr:country": "RO", "addr:floor": "1", "addr:housenumber": "1", "addr:postcode": "400112", "addr:postcode:source": "Date de la Po\u0219ta Rom\u00e2n\u0103, publicate sub Licen\u021ba pentru Guvernare Deschis\u0103 v1.0 la http://date.gov.ro/organization/posta-romana", "addr:street": "Strada \u00c9mile Zola", "amenity": "clinic", "description": "Medicina de familie, Ginecologie, Ecografie, Medicina muncii", "email": "sbirciumihai@yahoo.com", "healthcare": "clinic", "name": "MS Care Dr. Sbirciu", "opening_hours": "Mo-Fr 08:00-20:00", "phone": "0264599447, 0264599444"}}, {"type": "node", "id": 4471425906, "lat": 46.7712586, "lon": 23.5693348, "tags": {"amenity": "clinic", "healthcare": "clinic", "name": "Centrul Medical Raderm"}}, {"type": "node", "id": 4555931804, "lat": 46.778978, "lon": 23.616131, "tags": {"addr:city": "Cluj-Napoca", "addr:housenumber": "3", "addr:postcode": "400612", "addr:postcode:source": "Date de la Po\u0219ta Rom\u00e2n\u0103, publicate sub Licen\u021ba pentru Guvernare Deschis\u0103 v1.0 la http://date.gov.ro/organization/posta-romana", "addr:street": "Strada Aurel Vlaicu", "amenity": "clinic", "healthcare": "clinic", "name": "Med Center", "opening_hours": "Mo-Fr 07:00-18:00"}}, {"type": "node", "id": 4581538690, "lat": 46.7693737, "lon": 23.6182582, "tags": {"amenity": "clinic", "healthcare": "clinic", "name": "Novia Cosmetic Harmony Clinic", "name:ro": "Novia Cosmetic Harmony Clinic", "opening_hours": "Mo-Fr 09:00-19:00; Sa 09:00-13:00"}}, {"type": "node", "id": 4682118873, "lat": 46.7571044, "lon": 23.5857889, "tags": {"addr:city": "Cluj-Napoca", "addr:housenumber": "15C", "addr:postcode": "400487", "addr:street": "Strada Cire\u0219ilor", "amenity": "clinic", "contact:email": "cluj.ciresilor@affidea.com", "contact:fax": "+40 (0)264 455 220", "contact:phone": "+40 21 9338", "contact:website": "https://affidea.ro/centre-medicale/affidea-cluj", "healthcare": "clinic", "healthcare:speciality": "radiology", "name": "Affidea", "opening_hours": "Mo-Fr 08:00-20:00; Sa 09:00-16:00"}}, {"type": "node", "id": 4683857642, "lat": 46.7537773, "lon": 23.5954562, "tags": {"addr:city": "Cluj-Napoca", "addr:housenumber": "140", "addr:street": "Calea Turzii", "amenity": "clinic", "healthcare": "clinic", "healthcare:speciality": "gynaecology", "name": "Novogyn", "operator:type": "private"}}, {"type": "node", "id": 4789447111, "lat": 46.7821362, "lon": 23.5872376, "tags": {"addr:city": "Cluj-Napoca", "addr:housenumber": "75", "addr:street": "Strada Horea", "amenity": "clinic", "description": "Salina artificila", "healthcare": "clinic", "name": "Salina Saltera", "operator": "Salina Saltera", "website": "http://www.salinacluj.ro"}}, {"type": "node", "id": 5318598783, "lat": 46.7785922, "lon": 23.6190639, "tags": {"addr:city": "Cluj-Napoca", "addr:housenumber": "10", "addr:postcode": "400124", "addr:street": "Strada Aurel Vlaicu", "amenity": "clinic", "healthcare": "clinic", "name": "Lavitamed", "opening_hours": "Mo-Fr 06:00-22:00", "phone": "0264-410941"}}, {"type": "node", "id": 5318603937, "lat": 46.7787603, "lon": 23.6156715, "tags": {"addr:city": "Cluj-Napoca", "addr:housenumber": "1", "addr:postcode": "400000", "addr:street": "Strada Aurel Vlaicu", "alt_name": "Synevo - Centrul de recoltare M\u0103r\u0103\u0219ti", "amenity": "clinic", "brand": "Synevo", "brand:wikidata": "Q85968400", "healthcare": "laboratory", "name": "Synevo", "opening_hours": "Mo-Fr 07:00-15:30; Sa 08:00-12:00"}}, {"type": "node", "id": 5564313322, "lat": 46.7719457, "lon": 23.5636769, "tags": {"amenity": "clinic", "healthcare": "clinic", "internet_access": "wlan", "name": "NM Integrative Therapy", "opening_hours": "Mo-Fr 09:00-19:00"}}, {"type": "node", "id": 6358948725, "lat": 46.7593925, "lon": 23.6085625}, {"type": "node", "id": 6358948726, "lat": 46.7593102, "lon": 23.608701}, {"type": "node", "id": 6358948727, "lat": 46.7592427, "lon": 23.6086155}, {"type": "node", "id": 6358948728, "lat": 46.7593249, "lon": 23.608477}, {"type": "node", "id": 6483564613, "lat": 46.7762225, "lon": 23.6114853, "tags": {"amenity": "clinic", "healthcare": "clinic", "healthcare:speciality": "paediatrics", "name": "Centrul de Pediatrie"}}, {"type": "node", "id": 6710408337, "lat": 46.7555329, "lon": 23.5952594, "tags": {"addr:housenumber": "1-3", "addr:street": "Strada Observatorului", "amenity": "clinic", "healthcare": "clinic", "name": "Regina Maria Policlinica Observatorului", "opening_hours": "Mo-Fr 08:00-20:00; Sa 08:00-12:00", "operator": "Regina Maria", "operator:type": "private", "website": "https://www.reginamaria.ro/clinici/policlinica-observatorului", "wheelchair": "yes"}}, {"type": "node", "id": 6710480588, "lat": 46.7589267, "lon": 23.5926513, "tags": {"amenity": "clinic", "healthcare": "clinic", "healthcare:speciality": "plastic_surgery", "name": "Clinica Artis 3", "website": "https://www.artis3.ro/"}}, {"type": "node", "id": 6710504877, "lat": 46.7642818, "lon": 23.5876864, "tags": {"amenity": "clinic", "healthcare": "clinic", "name": "Cardiomed"}}, {"type": "node", "id": 6957837985, "lat": 46.7621819, "lon": 23.5900893, "tags": {"addr:city": "Cluj-Napoca", "addr:country": "RO", "addr:housenumber": "47", "addr:postcode": "400489", "addr:street": "Strada Republicii", "amenity": "clinic", "healthcare": "clinic", "name": "LaurusMedical"}}, {"type": "node", "id": 7612855267, "lat": 46.7971372, "lon": 23.6619953}, {"type": "node", "id": 7612855268, "lat": 46.7967057, "lon": 23.6620274}, {"type": "node", "id": 7612855269, "lat": 46.7966999, "lon": 23.6617483}, {"type": "node", "id": 7612855270, "lat": 46.7968222, "lon": 23.661743}, {"type": "node", "id": 7612855271, "lat": 46.7968247, "lon": 23.6619058}, {"type": "node", "id": 7612855272, "lat": 46.7970161, "lon": 23.661897}, {"type": "node", "id": 7612855273, "lat": 46.7970136, "lon": 23.6617253}, {"type": "node", "id": 7612855274, "lat": 46.7971348, "lon": 23.66172}, {"type": "node", "id": 8257866428, "lat": 46.7626443, "lon": 23.6102657, "tags": {"amenity": "clinic", "healthcare": "clinic", "healthcare:speciality": "cardiology;internal;neurology", "name": "Asteco", "opening_hours": "Mo-Fr 07:00-20:00", "phone": "+40334260034", "website": "http://www.astecomedical.ro"}}, {"type": "node", "id": 8286641455, "lat": 46.7519694, "lon": 23.5887782, "tags": {"addr:city": "Cluj-Napoca", "addr:housenumber": "37", "addr:street": "Strada Mircea Eliade", "amenity": "clinic", "contact:facebook": "https://www.facebook.com/RoNeuroCluj/", "email": "receptie@roneuro.ro", "healthcare": "clinic", "healthcare:speciality": "neurology;cardiology;endocrinology;internal;psychology;psychiatry", "name": "Institutul roNEURO", "opening_hours": "Mo-Fr 09:00-17:00", "phone": "0374 46 22 22", "website": "https://www.roneuro.ro/"}}, {"type": "node", "id": 8823591239, "lat": 46.7844948, "lon": 23.5924834}, {"type": "node", "id": 8823591240, "lat": 46.7844124, "lon": 23.5925117}, {"type": "node", "id": 8823591241, "lat": 46.7839335, "lon": 23.5936413}, {"type": "node", "id": 8823591242, "lat": 46.7846379, "lon": 23.5946493}, {"type": "node", "id": 8823591243, "lat": 46.7847274, "lon": 23.5945538}, {"type": "node", "id": 8823591244, "lat": 46.7847638, "lon": 23.5946352}, {"type": "node", "id": 8823591245, "lat": 46.7852049, "lon": 23.594338}, {"type": "node", "id": 8823591246, "lat": 46.7851491, "lon": 23.5940796}, {"type": "node", "id": 8823591247, "lat": 46.7844552, "lon": 23.5924793}, {"type": "node", "id": 8831134409, "lat": 46.7761492, "lon": 23.5928567}, {"type": "node", "id": 9204646014, "lat": 46.7681919, "lon": 23.6307308, "tags": {"addr:city": "Cluj-Napoca", "amenity": "clinic", "healthcare": "clinic", "name": "Ortho Implant"}}, {"type": "node", "id": 9524595170, "lat": 46.7603074, "lon": 23.5556476, "tags": {"amenity": "clinic", "healthcare": "clinic", "name": "Physio Medica"}}, {"type": "node", "id": 9554183922, "lat": 46.7744806, "lon": 23.5912925, "tags": {"amenity": "clinic", "healthcare": "clinic", "name": "Clinica Napoca"}}, {"type": "node", "id": 9780899914, "lat": 46.7843439, "lon": 23.6478724, "tags": {"amenity": "clinic", "healthcare": "clinic", "healthcare:speciality": "obstetrics", "name": "Biogyn"}}, {"type": "node", "id": 9798529861, "lat": 46.7672718, "lon": 23.5805677, "tags": {"addr:housenumber": "3", "addr:street": "Strada Mihai Eminescu", "amenity": "clinic", "description": "Skin care clinic", "healthcare": "clinic", "name": "Derma Elite", "opening_hours": "Mo-Fr 08:00-20:30; Sa 08:00-14:00", "phone": "0264705757", "website": "https://dermaelite.ro/"}}, {"type": "node", "id": 9903741099, "lat": 46.7804024, "lon": 23.6141863, "tags": {"amenity": "clinic", "brand": "Synlab", "brand:wikidata": "Q2376015", "healthcare": "laboratory", "healthcare:speciality": "biology", "name": "Synlab"}}, {"type": "node", "id": 10035781462, "lat": 46.7745634, "lon": 23.6283127, "tags": {"amenity": "clinic", "healthcare": "clinic", "name": "Ares Cardiomed"}}, {"type": "node", "id": 10113383091, "lat": 46.7878664, "lon": 23.5948873, "tags": {"addr:city": "Cluj-Napoca", "addr:country": "RO", "addr:housenumber": "21", "addr:postcode": "400267", "addr:street": "Strada G\u0103rii", "alt_name": "Clinica Cluj Liberty Medicover", "amenity": "clinic", "healthcare": "clinic", "name": "Medicover"}}, {"type": "node", "id": 10282098387, "lat": 46.7753027, "lon": 23.5913714, "tags": {"alt_name": "Regina Maria Punct de recoltare Cluj-Napoca Mihai Viteazu", "amenity": "clinic", "healthcare": "clinic", "name": "Regina Maria"}}, {"type": "node", "id": 10282322145, "lat": 46.7862801, "lon": 23.6120336, "tags": {"amenity": "clinic", "healthcare": "clinic", "name": "Cuore"}}, {"type": "node", "id": 10581273515, "lat": 46.7837131, "lon": 23.6094583, "tags": {"amenity": "clinic", "healthcare": "clinic", "name": "Telus Care"}}, {"type": "node", "id": 10581273516, "lat": 46.7834719, "lon": 23.6090018, "tags": {"amenity": "clinic", "healthcare": "clinic", "healthcare:speciality": "urology", "name": "UroPoint"}}, {"type": "node", "id": 10696562368, "lat": 46.7642582, "lon": 23.6022969, "tags": {"amenity": "clinic", "healthcare": "clinic", "name": "Clinica Duman"}}, {"type": "node", "id": 10696894226, "lat": 46.7550831, "lon": 23.5585031, "tags": {"amenity": "clinic", "healthcare": "clinic", "name": "Union Medical"}}, {"type": "node", "id": 10750292361, "lat": 46.7559049, "lon": 23.5580353, "tags": {"amenity": "clinic", "healthcare": "clinic", "name": "Rheumed Clinic"}}, {"type": "node", "id": 10803867230, "lat": 46.754104, "lon": 23.5849043, "tags": {"amenity": "clinic", "healthcare": "clinic", "name": "Regina Maria"}}, {"type": "node", "id": 11054495716, "lat": 46.7697664, "lon": 23.5833365}, {"type": "node", "id": 11054495717, "lat": 46.7697729, "lon": 23.5834365}, {"type": "node", "id": 11054495718, "lat": 46.7697548, "lon": 23.5834405}, {"type": "node", "id": 11054495724, "lat": 46.76984, "lon": 23.5833491}, {"type": "node", "id": 11173598955, "lat": 46.7685337, "lon": 23.5618389}, {"type": "node", "id": 11173598956, "lat": 46.7683161, "lon": 23.5618849}, {"type": "node", "id": 11173598957, "lat": 46.7683396, "lon": 23.5621223}, {"type": "node", "id": 11173598958, "lat": 46.7684562, "lon": 23.5620977}, {"type": "node", "id": 11173598959, "lat": 46.7684529, "lon": 23.5620653}, {"type": "node", "id": 11173598960, "lat": 46.7685541, "lon": 23.5620439}, {"type": "node", "id": 11185320968, "lat": 46.7557639, "lon": 23.5778193, "tags": {"addr:housenumber": "44", "addr:street": "Strada Zorilor", "amenity": "clinic", "healthcare": "clinic", "name": "MEDSTAR Policlinica Zorilor", "phone": "0264917", "website": "https://medstar.ro/"}}, {"type": "node", "id": 11254642052, "lat": 46.7606442, "lon": 23.5918414, "tags": {"amenity": "clinic", "contact:email": "ct-clinic@affidea.com", "contact:phone": "+40 364 401 706;+40 364 435 545;+40 773 798 287", "contact:website": "https://affidea.ro/centre-medicale/affidea-ct-clinic", "name": "Affidea", "opening_hours": "Mo-Fr 08:00-20:00"}}, {"type": "node", "id": 11377629672, "lat": 46.7559914, "lon": 23.6048276}, {"type": "node", "id": 11377629673, "lat": 46.7557847, "lon": 23.6049778}, {"type": "node", "id": 11377629674, "lat": 46.7558189, "lon": 23.6050782}, {"type": "node", "id": 11377629675, "lat": 46.7560256, "lon": 23.604928}, {"type": "node", "id": 11417046195, "lat": 46.753716, "lon": 23.5841323, "tags": {"amenity": "clinic", "healthcare": "clinic", "name": "Centru Medical Anastasios"}}, {"type": "node", "id": 11491276269, "lat": 46.7547894, "lon": 23.5833076, "tags": {"addr:city": "Cluj-Napoca", "addr:housenumber": "54", "addr:street": "Strada Viilor", "amenity": "clinic", "healthcare": "clinic", "name": "Centrul Artisal"}}, {"type": "node", "id": 11499542200, "lat": 46.7631142, "lon": 23.5560591, "tags": {"amenity": "clinic", "healthcare": "clinic", "healthcare:speciality": "physiatry", "name": "Transilvania Recovery Centre"}}, {"type": "node", "id": 11773423021, "lat": 46.765881, "lon": 23.587542, "tags": {"amenity": "clinic", "healthcare": "clinic", "healthcare:speciality": "ophthalmology", "name": "Cabinet Oftalmologie", "phone": "0723242000"}}, {"type": "node", "id": 11832157125, "lat": 46.7572578, "lon": 23.5630442, "tags": {"amenity": "clinic", "healthcare": "clinic", "name": "Happydent"}}, {"type": "way", "id": 108068958, "nodes": [1240567976, 1240567918, 1240567822, 1240567839, 1240567906, 1240567985, 1240568042, 1240567933, 1240567976], "tags": {"ENCLOSED_AREA": "0.000626 sq km", "PERIMETER": "112.49 m", "addr:city": "Cluj-Napoca", "addr:country": "RO", "addr:housenumber": "43", "addr:postcode": "400337", "addr:postcode:source": "Date de la Po\u0219ta Rom\u00e2n\u0103, publicate sub Licen\u021ba pentru Guvernare Deschis\u0103 v1.0 la http://date.gov.ro/organization/posta-romana", "addr:street": "Strada Victor Babe\u0219", "alt_name": "Spitalul de Neurologie, Psihiatrie \u0219i Neurochirurgie", "amenity": "clinic", "building": "yes", "emergency": "yes", "healthcare": "clinic", "name": "Clinica de Neurologie, Psihiatrie \u0219i Neurochirurgie"}}, {"type": "way", "id": 202291030, "nodes": [2122637916, 2122637915, 2122637913, 2122637911, 2122637910, 2122637909, 2122637904, 2122637901, 2122637902, 2122637884, 2122637890, 2122637907, 2122637908, 2122637918, 2122637914, 2122637916], "tags": {"addr:city": "Cluj-Napoca", "addr:housenumber": "17", "addr:street": "Strada Republicii", "amenity": "clinic", "building": "yes", "check_date": "2024-05-10", "healthcare": "clinic", "healthcare:speciality": "neurology;gynaecology;paediatrics;cardiology;internal;psychiatry;dermatology", "name": "Cardiomed", "opening_hours": "Mo-Fr 08:00-20:00", "website": "http://wwe.cardiomedcluj.ro", "wheelchair": "no"}}, {"type": "way", "id": 210311549, "nodes": [2203971940, 2203971941, 2203971934, 2203971935, 2203971927, 2203971926, 2203971932, 2203971933, 2203971940], "tags": {"addr:city": "Cluj-Napoca", "addr:country": "RO", "addr:housenumber": "9", "addr:postcode": "400438", "addr:street": "Aleea B\u0103i\u021ba", "amenity": "clinic", "building": "yes", "emergency": "no", "healthcare": "clinic", "name": "Dispensar Gheorgheni"}}, {"type": "way", "id": 225526914, "nodes": [2342981974, 2342981959, 2342981958, 2342981970, 2342981992, 2342981963, 2342981974], "tags": {"addr:city": "Cluj-Napoca", "addr:country": "RO", "addr:street": "Strada Observatorului", "amenity": "clinic", "building": "yes", "healthcare": "clinic", "name": "Centrul Medical Transilvania"}}, {"type": "way", "id": 242341004, "nodes": [2498314100, 2498314096, 2498314099, 2498314101, 2498314100], "tags": {"addr:city": "Cluj-Napoca", "addr:country": "RO", "amenity": "clinic", "healthcare": "clinic", "name": "Pediatrie III"}}, {"type": "way", "id": 242341005, "nodes": [2498314102, 2498314103, 2498314104, 2498314105, 2498314106, 2498314107, 2498314102], "tags": {"amenity": "clinic", "healthcare": "clinic", "name": "Policlinica CFR"}}, {"type": "way", "id": 243157296, "nodes": [2505837896, 2505837898, 2505837899, 2505837901, 2505837896], "tags": {"addr:city": "Cluj-Napoca", "addr:country": "RO", "amenity": "clinic", "building": "yes", "healthcare": "clinic", "name": "Policlinica Radusan"}}, {"type": "way", "id": 270175092, "nodes": [2752327003, 2752327005, 2752327007, 2752327009, 2752327003], "tags": {"addr:city": "Cluj-Napoca", "addr:country": "RO", "addr:housenumber": "57", "addr:postcode": "400029", "addr:postcode:source": "Date de la Po\u0219ta Rom\u00e2n\u0103, publicate sub Licen\u021ba pentru Guvernare Deschis\u0103 v1.0 la http://date.gov.ro/organization/posta-romana", "addr:street": "Strada Cardinal Iuliu Hossu", "amenity": "clinic", "building": "house", "building:levels": "2", "healthcare": "clinic", "name": "Centrul Medical HalmaSan", "roof:levels": "1", "roof:shape": "pyramidal"}}, {"type": "way", "id": 275145849, "nodes": [2798010111, 2798010156, 2798010347, 2798009200, 2798010111], "tags": {"addr:city": "Cluj-Napoca", "addr:country": "RO", "addr:housenumber": "2-4", "addr:postcode": "400006", "addr:street": "Strada Clinicilor", "alt_name": "Centrul Clinic de Diabet Zaharat, Nutri\u021bie \u0219i Boli metabolice;Centrul de DZNBM", "amenity": "clinic", "building": "yes", "healthcare": "clinic", "name": "Centrul Medical de Diabet", "wheelchair": "yes"}}, {"type": "way", "id": 275147040, "nodes": [2798040285, 2798040237, 2798038365, 11054495718, 11054495717, 11054495716, 11054495724, 2798038356, 2798040285], "tags": {"addr:city": "Cluj-Napoca", "addr:country": "RO", "addr:housenumber": "11", "addr:street": "Strada Cardinal Iuliu Hossu", "amenity": "clinic", "building": "yes", "healthcare": "clinic", "name": "Dermavision", "name:ro": "Dermavision"}}, {"type": "way", "id": 275159820, "nodes": [2798127888, 2798127604, 2798127811, 2798127990, 2798127888], "tags": {"addr:city": "Cluj-Napoca", "addr:country": "RO", "addr:housenumber": "13", "addr:postcode": "400372", "addr:postcode:source": "Date de la Po\u0219ta Rom\u00e2n\u0103, publicate sub Licen\u021ba pentru Guvernare Deschis\u0103 v1.0 la http://date.gov.ro/organization/posta-romana", "addr:street": "Calea M\u0103n\u0103\u0219tur", "amenity": "clinic", "building": "yes", "building:levels": "2", "healthcare": "clinic", "name": "Clinica Iris", "opening_hours": "Mo-Th 08:00-19:00; Fr 08:00-18:00"}}, {"type": "way", "id": 275161905, "nodes": [2798163716, 2798163780, 2798163925, 2798164131, 2798164146, 2798163723, 2798163976, 2798163716], "tags": {"addr:city": "Cluj-Napoca", "addr:country": "RO", "addr:street": "Calea Mo\u021bilor", "amenity": "clinic", "building": "yes", "healthcare": "clinic", "name": "Centru Medical Interservisan", "opening_hours": "Mo-Fr 08:00-20:00; Sa 08:00-14:00"}}, {"type": "way", "id": 275170294, "nodes": [2798272519, 2798272533, 2798273145, 2798273091, 2798272519], "tags": {"addr:city": "Cluj-Napoca", "addr:country": "RO", "addr:housenumber": "28", "addr:postcode": "400380", "addr:street": "Strada Ilie M\u0103celaru", "amenity": "clinic", "building": "yes", "contact:email": "medical@medsancluj.ro", "contact:phone": "+40 264 597 603;+40 372 714 685;+40 770 594 756", "contact:website": "https://affidea.ro/centre-medicale/medsan-cluj-consultatii-medicale-de-specialitate-si-analize-de-laborator", "healthcare": "clinic", "name": "Affidea", "opening_hours": "Mo-Fr 08:00-18:00"}}, {"type": "way", "id": 275177661, "nodes": [2798364975, 2798364976, 2798364979, 2798364969, 2798364991, 2798364953, 2798364981, 2798364983, 2798364968, 2798364958, 2798366007, 2798366006, 2798366008, 2798364975], "tags": {"addr:city": "Cluj-Napoca", "addr:country": "RO", "amenity": "clinic", "building": "yes", "healthcare": "clinic", "name": "Clinica de medicina muncii"}}, {"type": "way", "id": 276472347, "nodes": [2810663856, 2810663848, 2810663838, 2810663825, 2810663810, 2810663806, 2810663583, 2810663576, 2810663551, 2810663543, 2810663529, 2810663537, 2810663503, 2810663506, 2810663495, 2810663498, 2810663481, 2810663505, 8831134409, 2810663857, 2810663852, 2810663856], "tags": {"addr:city": "Cluj-Napoca", "addr:country": "RO", "addr:street": "Strada Croitorilor", "amenity": "clinic", "building": "yes", "emergency": "yes", "healthcare": "clinic", "name": "Clinica Medical\u0103 \u0219i Chirurgie 3"}}, {"type": "way", "id": 276472349, "nodes": [3681346043, 2810662416, 2810662485, 2810662503, 2810662470, 2810662466, 2810662459, 2810662438, 2810662437, 2810662433, 2810662441, 3623001619, 3681346043], "tags": {"addr:city": "Cluj-Napoca", "addr:country": "RO", "addr:housenumber": "2", "addr:postcode": "400125", "addr:postcode:source": "Date de la Po\u0219ta Rom\u00e2n\u0103, publicate sub Licen\u021ba pentru Guvernare Deschis\u0103 v1.0 la http://date.gov.ro/organization/posta-romana", "addr:street": "Strada Paris", "amenity": "clinic", "building": "yes", "healthcare": "clinic", "name": "Spitalul Clinic de Adul\u021bi - Sec\u021bia Clinic\u0103 Obstetric\u0103-Ginecologie II Dominic Stanca"}}, {"type": "way", "id": 276472734, "nodes": [2810662482, 2810662493, 2810662568, 2810662508, 2810662499, 2810662506, 2810662490, 2810662454, 2810662446, 2810662469, 2810662482], "tags": {"addr:city": "Cluj-Napoca", "addr:country": "RO", "addr:housenumber": "7", "addr:postcode": "400158", "addr:postcode:source": "Date de la Po\u0219ta Rom\u00e2n\u0103, publicate sub Licen\u021ba pentru Guvernare Deschis\u0103 v1.0 la http://date.gov.ro/organization/posta-romana", "addr:street": "Strada Constan\u021ba", "amenity": "clinic", "building": "yes", "healthcare": "clinic", "name": "Radioterapie", "opening_hours": "Mo 8:00-14:00; Tu-Fr 8:00-14:00; We-Th 13:00-19:00"}}, {"type": "way", "id": 276703731, "nodes": [2812975664, 2812975620, 2812975624, 2812975668, 2812975664], "tags": {"addr:city": "Cluj-Napoca", "addr:country": "RO", "addr:housenumber": "27", "addr:street": "Strada Rene Descartes", "amenity": "clinic", "building": "yes", "email": "office@clinica-vasculara.ro", "healthcare": "clinic", "healthcare:speciality": "vascular_surgery", "name": "Venart", "opening_hours": "Mo-Fr 08:00-20:00", "phone": "+40 364 140 261", "website": "https://www.clinica-vasculara.ro/"}}, {"type": "way", "id": 280437245, "nodes": [2845518389, 2845518395, 2845518241, 2845518237, 2845518205, 2845518197, 2845518389], "tags": {"addr:city": "Cluj-Napoca", "addr:country": "RO", "addr:housenumber": "2", "addr:postcode": "400295", "addr:postcode:source": "Date de la Po\u0219ta Rom\u00e2n\u0103, publicate sub Licen\u021ba pentru Guvernare Deschis\u0103 v1.0 la http://date.gov.ro/organization/posta-romana", "addr:street": "Strada Mora \u0218tefan", "amenity": "clinic", "building": "yes", "healthcare": "clinic", "name": "Policlinica Grigorescu", "name:ro": "Policlinica Grigorescu"}}, {"type": "way", "id": 356907830, "nodes": [3623047833, 3623047834, 3623047835, 3623047836, 3623047833], "tags": {"addr:city": "Cluj-Napoca", "addr:country": "RO", "addr:housenumber": "172", "addr:postcode": "400331", "addr:postcode:source": "Date de la Po\u0219ta Rom\u00e2n\u0103, publicate sub Licen\u021ba pentru Guvernare Deschis\u0103 v1.0 la http://date.gov.ro/organization/posta-romana", "addr:street": "Strada Donath", "amenity": "clinic", "building": "yes", "healthcare": "clinic", "name": "Spitalul Clinic de Urgen\u021b\u0103 pentru Copii Cluj-Napoca - Neonatologie-Prematuri"}}, {"type": "way", "id": 364025255, "nodes": [3623001619, 2810662449, 2810662507, 2810662537, 2810662462, 2810662496, 2810662505, 2810662514, 3623001620, 3623001621, 2810662453, 3681346043, 3623001619], "tags": {"addr:city": "Cluj-Napoca", "addr:country": "RO", "addr:housenumber": "53-55", "addr:postcode": "400124", "addr:postcode:source": "Date de la Po\u0219ta Rom\u00e2n\u0103, publicate sub Licen\u021ba pentru Guvernare Deschis\u0103 v1.0 la http://date.gov.ro/organization/posta-romana", "addr:street": "Bulevardul 21 Decembrie 1989", "amenity": "clinic", "building": "yes", "healthcare": "clinic", "name": "Spitalul Clinic de Adul\u021bi - Sec\u021bia Clinic\u0103 Obstetric\u0103-Ginecologie II Dominic Stanca"}}, {"type": "way", "id": 364696731, "nodes": [2810664080, 2810664060, 2810664029, 2810664069, 2810664056, 2810663899, 2810663864, 2810664014, 2810663889, 2810663531, 2810663485, 2810663595, 2810663802, 2810663881, 2810664061, 2810664080], "tags": {"addr:city": "Cluj-Napoca", "addr:housenumber": "16", "addr:postcode": "400152", "addr:street": "Strada Ia\u0219ilor", "amenity": "clinic", "building": "yes", "healthcare": "clinic", "name": "Clinica Chirurgie III", "website": "https://www.clinicachirurgie3.ro/"}}, {"type": "way", "id": 679092448, "nodes": [6358948728, 6358948727, 6358948726, 6358948725, 6358948728], "tags": {"addr:city": "Cluj-Napoca", "addr:housenumber": "11A", "addr:postcode": "400475", "addr:street": "Strada M\u0103cinului", "amenity": "clinic", "building": "yes", "healthcare": "clinic", "healthcare:speciality": "dermatology;gynaecology;plastic_surgery", "name": "Med'Art", "opening_hours": "Mo-Fr 09:00-21:00; Sa-Su off", "phone": "+40264333407", "website": "https://med-art.ro/"}}, {"type": "way", "id": 815007980, "nodes": [7612855267, 7612855268, 7612855269, 7612855270, 7612855271, 7612855272, 7612855273, 7612855274, 7612855267], "tags": {"addr:city": "Cluj-Napoca", "addr:housenumber": "96-98", "addr:street": "Bulevardul Muncii", "air_conditioning": "yes", "amenity": "clinic", "building": "yes", "healthcare": "clinic", "healthcare:speciality": "oncology", "name": "Medisprof Cancer Center", "name:ro": "Medisprof Cancer Center", "opening_hours": "Mo-Fr 07:00-21:00"}}, {"type": "way", "id": 953294491, "nodes": [8823591239, 8823591247, 8823591240, 8823591241, 3565740748, 3565740750, 3565740752, 3565740753, 3565740755, 3565740757, 8823591242, 8823591243, 8823591244, 8823591245, 8823591246, 8823591239], "tags": {"addr:city": "Cluj-Napoca", "addr:housenumber": "126", "addr:postcode": "400205", "addr:postcode:source": "Date de la Po\u0219ta Rom\u00e2n\u0103, publicate sub Licen\u021ba pentru Guvernare Deschis\u0103 v1.0 la http://date.gov.ro/organization/posta-romana", "addr:street": "Strada Decebal", "amenity": "clinic", "healthcare": "clinic", "name": "Clinica de Psihiatrie pentru Ergoterapie", "name:hu": "Ergoter\u00e1pi\u00e1s Pszichi\u00e1triai Klinika", "name:ro": "Clinica de Psihiatrie pentru Ergoterapie"}}, {"type": "way", "id": 1205711144, "nodes": [11173598955, 11173598956, 11173598957, 11173598958, 11173598959, 11173598960, 11173598955], "tags": {"addr:city": "Cluj-Napoca", "addr:housenumber": "32", "addr:street": "Strada Iancu de Hunedoara", "amenity": "clinic", "building": "yes", "healthcare": "clinic", "name": "Regina Maria Policlinica E. Grigorescu"}}, {"type": "way", "id": 1226936558, "nodes": [11377629675, 11377629674, 11377629673, 11377629672, 11377629675], "tags": {"addr:city": "Cluj-Napoca", "addr:housenumber": "40G", "addr:postcode": "400504", "addr:street": "Strada Predeal", "amenity": "clinic", "building": "yes", "name": "Di'Art Clinic and Consultant"}}]}