{"version": 0.6, "generator": "Overpass API 0.7.62.1 084b4234", "osm3s": {"timestamp_osm_base": "2024-05-24T08:19:24Z", "copyright": "The data included in this document is from www.openstreetmap.org. The data is made available under ODbL."}, "elements": [{"type": "node", "id": 9659561585, "lat": 16.5857458, "lon": -14.6559397, "tags": {"addr:full": "Alwar / ndioum", "amenity": "doctors", "beds": "2", "contact:phone": "773233681", "electricity": "grid", "emergency": "yes", "healthcare": "doctor;pharmacy", "healthcare:equipment": "imaging equipment", "insurance:health": "public", "name": "post\u00e9 de sante alwar", "opening_hours": "24/7", "operational_status": "operational", "operator": "Minist\u00e8re de la sant\u00e9 et de l'action sociale", "operator:type": "public", "source": "#senegal #covid-19 #emergency-health-data-validation #healthsites", "staff_count:nurses": "1", "water_source": "water works", "wheelchair": "limited"}}, {"type": "node", "id": 9659561598, "lat": 16.6374678, "lon": -14.8015645, "tags": {"addr:full": "Saint Louis", "amenity": "hospital", "beds": "7", "contact:phone": "773752110", "electricity": "grid", "emergency": "no", "healthcare": "hospital", "insurance:health": "public", "name": "poste de sante mboyo", "opening_hours": "24/7", "operational_status": "operational", "operator": "Minist\u00e8re de la sant\u00e9 et de l'action sociale", "operator:type": "public", "staff_count:doctors": "1", "staff_count:nurses": "1", "water_source": "powered pump", "wheelchair": "yes"}}]}