{"version": 0.6, "generator": "Overpass API 0.7.62.1 084b4234", "osm3s": {"timestamp_osm_base": "2024-05-23T16:08:34Z", "copyright": "The data included in this document is from www.openstreetmap.org. The data is made available under ODbL."}, "elements": [{"type": "node", "id": 4133568966, "lat": 44.3790385, "lon": 26.1683898, "tags": {"amenity": "clinic", "healthcare": "clinic", "name": "Dispensarul Popesti-Leordeni"}}, {"type": "node", "id": 4476877594, "lat": 44.3741348, "lon": 26.1503949, "tags": {"amenity": "clinic", "healthcare": "clinic", "name": "Green Medical", "name:en": "Green Medical", "name:ro": "Green Medical", "opening_hours": "Mo-Su 10:00-20:00"}}, {"type": "node", "id": 5485438121, "lat": 44.3668135, "lon": 26.1509478, "tags": {"addr:street": "Drumul Fermei", "amenity": "clinic", "healthcare": "clinic", "name": "Apollo Med Center"}}, {"type": "node", "id": 9882649177, "lat": 44.3763837, "lon": 26.1580287, "tags": {"addr:city": "Pope\u0219ti-Leordeni", "addr:street": "Strada Alexandru Conduratu", "amenity": "clinic", "healthcare": "clinic", "name": "Eucriss Sano Med"}}, {"type": "node", "id": 10212545547, "lat": 44.3790148, "lon": 26.1688193, "tags": {"addr:city": "Pope\u0219ti-Leordeni", "addr:street": "Strada \u0218colii", "amenity": "clinic", "healthcare": "clinic", "name": "Clinica Viva"}}, {"type": "node", "id": 11648615433, "lat": 44.3797019, "lon": 26.1679343, "tags": {"addr:city": "Pope\u0219ti-Leordeni", "addr:street": "\u0218oseaua Olteni\u021bei", "amenity": "clinic", "healthcare": "clinic", "name": "Clinica Medical\u0103 Biolife"}}]}