{"version": 0.6, "generator": "Overpass API 0.7.62.1 084b4234", "osm3s": {"timestamp_osm_base": "2024-05-23T15:32:01Z", "copyright": "The data included in this document is from www.openstreetmap.org. The data is made available under ODbL."}, "elements": [{"type": "node", "id": 492067831, "lat": 44.9165847, "lon": 26.0371658}, {"type": "node", "id": 492067833, "lat": 44.9166233, "lon": 26.0373721}, {"type": "node", "id": 492067835, "lat": 44.9161405, "lon": 26.0375522}, {"type": "node", "id": 492067838, "lat": 44.9161019, "lon": 26.037346}, {"type": "node", "id": 493242719, "lat": 44.9411824, "lon": 26.0196215}, {"type": "node", "id": 493242721, "lat": 44.9413994, "lon": 26.0191356}, {"type": "node", "id": 881888020, "lat": 44.9455239, "lon": 26.0182004}, {"type": "node", "id": 1110418483, "lat": 44.9413728, "lon": 26.0191952}, {"type": "node", "id": 1110418794, "lat": 44.9413164, "lon": 26.0197409}, {"type": "node", "id": 1110418863, "lat": 44.9415116, "lon": 26.0193038}, {"type": "node", "id": 1110418929, "lat": 44.9414442, "lon": 26.0192437}, {"type": "node", "id": 1122008243, "lat": 44.9413373, "lon": 26.0196941}, {"type": "node", "id": 1122008310, "lat": 44.9414912, "lon": 26.0193494}, {"type": "node", "id": 1146976266, "lat": 44.9455488, "lon": 26.0183735}, {"type": "node", "id": 1146976280, "lat": 44.9456254, "lon": 26.0183106}, {"type": "node", "id": 1146976343, "lat": 44.9454738, "lon": 26.0182942}, {"type": "node", "id": 1146976562, "lat": 44.9456102, "lon": 26.0183467}, {"type": "node", "id": 1146976583, "lat": 44.9455816, "lon": 26.0183156}, {"type": "node", "id": 1286834017, "lat": 44.9390574, "lon": 26.0222406}, {"type": "node", "id": 1286834018, "lat": 44.9390634, "lon": 26.0219577}, {"type": "node", "id": 1286834029, "lat": 44.9391586, "lon": 26.0221257}, {"type": "node", "id": 1286834033, "lat": 44.9389565, "lon": 26.0220739}, {"type": "node", "id": 4043412910, "lat": 44.9426483, "lon": 26.0173783, "tags": {"amenity": "clinic", "name": "Elit Medical"}}, {"type": "node", "id": 4043412913, "lat": 44.9436812, "lon": 26.0180381, "tags": {"amenity": "clinic", "name": "Almedica Berlin", "source": "survey"}}, {"type": "node", "id": 4043412915, "lat": 44.9439534, "lon": 26.015841, "tags": {"amenity": "clinic", "atm": "yes", "healthcare": "clinic", "name": "Elit Medical", "source": "survey"}}, {"type": "node", "id": 4043412919, "lat": 44.9430717, "lon": 26.0173354, "tags": {"amenity": "clinic", "name": "Clinica Mc Gral", "source": "survey"}}, {"type": "node", "id": 4045414137, "lat": 44.9446706, "lon": 26.0145197, "tags": {"amenity": "clinic", "name": "Al Medica Berlin", "source": "survey"}}, {"type": "node", "id": 4045414139, "lat": 44.9446771, "lon": 26.014164, "tags": {"amenity": "clinic", "healthcare": "clinic", "name": "Clinica Uromed", "phone": "+40244514264", "source": "survey"}}, {"type": "node", "id": 5208081921, "lat": 44.9411852, "lon": 26.0201048, "tags": {"addr:city": "Ploie\u0219ti", "addr:housenumber": "15-17", "addr:postcode": "100009", "addr:street": "Bulevardul Republicii", "amenity": "clinic", "healthcare": "clinic", "name": "Hyperclinica MedLife", "phone": "0244474922", "website": "https://www.medlife.ro/hyperclinica-medlife-ploiesti"}}, {"type": "node", "id": 5219899207, "lat": 44.9470392, "lon": 26.0242602, "tags": {"addr:city": "Ploie\u0219ti", "addr:housenumber": "59", "addr:postcode": "100154", "addr:street": "Strada Roman\u0103", "amenity": "clinic", "email": "cmidorison@yahoo.com", "healthcare": "clinic", "healthcare:speciality": "general;gynaecology;radiology", "name": "Dorison", "opening_hours": "Mo-Fr 09:00-18:00", "operator": "Ghita Minodora Crisanda", "phone": "+40244543310"}}, {"type": "node", "id": 6533490240, "lat": 44.9458316, "lon": 26.0087299}, {"type": "node", "id": 6533490241, "lat": 44.9459541, "lon": 26.0088814}, {"type": "node", "id": 6533490243, "lat": 44.9458956, "lon": 26.0086309}, {"type": "node", "id": 6536653301, "lat": 44.9366178, "lon": 26.0301716}, {"type": "node", "id": 6536653302, "lat": 44.9366381, "lon": 26.0301663}, {"type": "node", "id": 6536653303, "lat": 44.9365072, "lon": 26.0302006}, {"type": "node", "id": 6536653304, "lat": 44.9364896, "lon": 26.0300666}, {"type": "node", "id": 6536653305, "lat": 44.9366209, "lon": 26.0300349}, {"type": "node", "id": 6536653704, "lat": 44.9354978, "lon": 26.0205818}, {"type": "node", "id": 6536653707, "lat": 44.9355129, "lon": 26.0208162}, {"type": "node", "id": 6536653708, "lat": 44.9355926, "lon": 26.020757}, {"type": "node", "id": 6536653709, "lat": 44.9354415, "lon": 26.0208096}, {"type": "node", "id": 6536653710, "lat": 44.9354395, "lon": 26.0205938}, {"type": "node", "id": 6536653711, "lat": 44.9355827, "lon": 26.0205691}, {"type": "node", "id": 6885028907, "lat": 44.9260776, "lon": 25.9943823}, {"type": "node", "id": 6885028908, "lat": 44.9258463, "lon": 25.994127}, {"type": "node", "id": 6885028909, "lat": 44.9257418, "lon": 25.9943158}, {"type": "node", "id": 6885028910, "lat": 44.9259731, "lon": 25.9945712}, {"type": "node", "id": 7387605129, "lat": 44.9462055, "lon": 26.0218859}, {"type": "node", "id": 7387605130, "lat": 44.946214, "lon": 26.0217633}, {"type": "node", "id": 8184089396, "lat": 44.9321186, "lon": 26.0063774}, {"type": "node", "id": 8184089397, "lat": 44.9323387, "lon": 26.0062634}, {"type": "node", "id": 8184089398, "lat": 44.9322583, "lon": 26.0059538}, {"type": "node", "id": 8184089399, "lat": 44.9320349, "lon": 26.0060696}, {"type": "node", "id": 8184089400, "lat": 44.9320465, "lon": 26.0061142}, {"type": "node", "id": 8184089401, "lat": 44.93202, "lon": 26.0061279}, {"type": "node", "id": 8184089402, "lat": 44.9320544, "lon": 26.0062607}, {"type": "node", "id": 8184089403, "lat": 44.9320843, "lon": 26.0062453}, {"type": "node", "id": 8199981729, "lat": 44.9391752, "lon": 26.032289}, {"type": "node", "id": 8199981730, "lat": 44.939209, "lon": 26.0323876}, {"type": "node", "id": 8199981731, "lat": 44.9389494, "lon": 26.0326125}, {"type": "node", "id": 8199981732, "lat": 44.9388589, "lon": 26.0326094}, {"type": "node", "id": 8199981733, "lat": 44.9388622, "lon": 26.0324847}, {"type": "node", "id": 8199981734, "lat": 44.9389647, "lon": 26.0324908}, {"type": "node", "id": 8199981735, "lat": 44.9389756, "lon": 26.0323152}, {"type": "node", "id": 8222759415, "lat": 44.9307703, "lon": 26.0269777, "tags": {"amenity": "clinic", "healthcare": "clinic", "name": "Clinica Medicover Ploie\u0219ti"}}, {"type": "node", "id": 8226338618, "lat": 44.9354362, "lon": 26.0205556}, {"type": "node", "id": 8226338619, "lat": 44.9354937, "lon": 26.0205436}, {"type": "node", "id": 8226338620, "lat": 44.9355463, "lon": 26.0207594}, {"type": "node", "id": 8423338866, "lat": 44.9462091, "lon": 26.0090403}, {"type": "node", "id": 8423338867, "lat": 44.9461774, "lon": 26.0094695}, {"type": "node", "id": 8423338868, "lat": 44.9458467, "lon": 26.0090893}, {"type": "node", "id": 8423338869, "lat": 44.9461967, "lon": 26.0091567, "tags": {"barrier": "gate"}}, {"type": "node", "id": 8423338871, "lat": 44.9462342, "lon": 26.0088637}, {"type": "node", "id": 8423338872, "lat": 44.9459689, "lon": 26.008525}, {"type": "node", "id": 8511641687, "lat": 44.932191, "lon": 26.0026659}, {"type": "node", "id": 8511641688, "lat": 44.9322139, "lon": 26.0027308}, {"type": "node", "id": 8511641689, "lat": 44.9320838, "lon": 26.0028223}, {"type": "node", "id": 8511641690, "lat": 44.9320774, "lon": 26.002804}, {"type": "node", "id": 8511641691, "lat": 44.9320334, "lon": 26.002835}, {"type": "node", "id": 8511641692, "lat": 44.932017, "lon": 26.0027883}, {"type": "node", "id": 8518447795, "lat": 44.935227, "lon": 26.0259665, "tags": {"addr:city": "Ploie\u0219ti", "addr:housenumber": "18", "addr:street": "Bulevardul Independen\u021bei", "alt_name": "Centru 3 Spitalul de Pediatrie Ploie\u0219ti", "amenity": "clinic", "building": "yes", "healthcare": "clinic", "name": "Policlinica De Copii Ploie\u0219ti", "operator": "Spitalul de Pediatrie Ploie\u0219ti", "operator:type": "public"}}, {"type": "node", "id": 8520326826, "lat": 44.9390987, "lon": 26.0220204}, {"type": "node", "id": 8520326827, "lat": 44.9390839, "lon": 26.0219944}, {"type": "node", "id": 8520326828, "lat": 44.9390976, "lon": 26.0219783}, {"type": "node", "id": 8520326829, "lat": 44.9391122, "lon": 26.0220031}, {"type": "node", "id": 8520326830, "lat": 44.9389846, "lon": 26.0221203, "tags": {"entrance": "yes"}}, {"type": "node", "id": 8561096573, "lat": 44.9461485, "lon": 26.0214076}, {"type": "node", "id": 8561096574, "lat": 44.9462467, "lon": 26.0214092}, {"type": "node", "id": 8561096575, "lat": 44.9461102, "lon": 26.0218858}, {"type": "node", "id": 8561096580, "lat": 44.9460635, "lon": 26.0214046}, {"type": "node", "id": 8561096581, "lat": 44.9460984, "lon": 26.021403}, {"type": "node", "id": 8561096585, "lat": 44.946033, "lon": 26.021802}, {"type": "node", "id": 8561096586, "lat": 44.9460308, "lon": 26.0218864}, {"type": "node", "id": 8565880323, "lat": 44.9388763, "lon": 26.0009647}, {"type": "node", "id": 8565880324, "lat": 44.938779, "lon": 26.0010066}, {"type": "node", "id": 8565880325, "lat": 44.938808, "lon": 26.0011412}, {"type": "node", "id": 8565880326, "lat": 44.9389053, "lon": 26.0010993}, {"type": "node", "id": 8566081547, "lat": 44.9374507, "lon": 25.9969326, "tags": {"amenity": "clinic", "healthcare": "clinic", "name": "Iris Medical"}}, {"type": "node", "id": 8572353399, "lat": 44.9424703, "lon": 26.0336969}, {"type": "node", "id": 8572353400, "lat": 44.9424323, "lon": 26.0337077}, {"type": "node", "id": 8572353401, "lat": 44.9423506, "lon": 26.0337681}, {"type": "node", "id": 8572353402, "lat": 44.9424001, "lon": 26.0339129}, {"type": "node", "id": 8572353403, "lat": 44.9424191, "lon": 26.0339303}, {"type": "node", "id": 8572353404, "lat": 44.9424428, "lon": 26.0339263}, {"type": "node", "id": 8572353405, "lat": 44.9424713, "lon": 26.0340336}, {"type": "node", "id": 8572353406, "lat": 44.942532, "lon": 26.0340081}, {"type": "node", "id": 8572353407, "lat": 44.942589, "lon": 26.0339598}, {"type": "node", "id": 8572353408, "lat": 44.9425444, "lon": 26.0338485}, {"type": "node", "id": 8572353409, "lat": 44.9424997, "lon": 26.0338793}, {"type": "node", "id": 8579734745, "lat": 44.9365249, "lon": 26.0300573}, {"type": "node", "id": 8579734746, "lat": 44.9365766, "lon": 26.0300465}, {"type": "node", "id": 8579734747, "lat": 44.9365741, "lon": 26.0300272}, {"type": "node", "id": 8579734748, "lat": 44.9365227, "lon": 26.0300406}, {"type": "node", "id": 8796524111, "lat": 44.9414886, "lon": 26.0191443}, {"type": "node", "id": 8796524112, "lat": 44.9413684, "lon": 26.0190372}, {"type": "node", "id": 8817488681, "lat": 44.9413458, "lon": 26.0190878}, {"type": "node", "id": 8817488682, "lat": 44.9414007, "lon": 26.0190659, "tags": {"entrance": "yes"}}, {"type": "node", "id": 11254642059, "lat": 44.9281478, "lon": 25.9908226, "tags": {"amenity": "clinic", "contact:email": "ploiesti@affidea.com", "contact:phone": "+40 21 9338", "contact:website": "https://affidea.ro/centre-medicale/affidea-hiperdia-ploiesti-vest", "name": "Affidea", "opening_hours": "Mo-Fr 08:00-20:00"}}, {"type": "node", "id": 11468808795, "lat": 44.9083085, "lon": 25.9889191}, {"type": "node", "id": 11468808796, "lat": 44.9082045, "lon": 25.9890199}, {"type": "node", "id": 11468808797, "lat": 44.9082659, "lon": 25.9891509}, {"type": "node", "id": 11468808798, "lat": 44.90837, "lon": 25.9890447}, {"type": "node", "id": 11586576859, "lat": 44.9522675, "lon": 26.0119932, "tags": {"amenity": "clinic", "contact:email": "ploiesti@affidea.com", "contact:phone": "+40 21 9338", "contact:website": "https://affidea.ro/", "name": "Affidea", "opening_hours": "Mo-Fr 08:00-20:00"}}, {"type": "way", "id": 40548016, "nodes": [492067831, 492067833, 492067835, 492067838, 492067831], "tags": {"addr:city": "Ploie\u0219ti", "alt_name": "Policlinia M.A.I.", "amenity": "clinic", "building": "hospital", "healthcare": "clinic", "name": "Centrul Medical de Diagnostic si Tratament Ambulatoriu Ploie\u0219ti", "operator": "Direc\u021bia Medical\u0103 a Ministerului Afacerilor Interne"}}, {"type": "way", "id": 95809371, "nodes": [1110418863, 1110418929, 8796524111, 8817488682, 8796524112, 8817488681, 493242721, 1110418483, 493242719, 1110418794, 1122008243, 1122008310, 1110418863], "tags": {"addr:city": "Ploie\u0219ti", "addr:housenumber": "6", "addr:postcode": "100010", "addr:postcode:source": "Date de la Po\u0219ta Rom\u00e2n\u0103, publicate sub Licen\u021ba pentru Guvernare Deschis\u0103 v1.0 la http://date.gov.ro/organization/posta-romana", "addr:street": "Strada Cuza Vod\u0103", "amenity": "clinic", "building": "yes", "healthcare": "clinic", "name": "Gral", "opening_hours": "Mo-Sa 07:00-20:00"}}, {"type": "way", "id": 99157852, "nodes": [1146976280, 1146976562, 1146976583, 1146976266, 1146976343, 881888020, 1146976280], "tags": {"addr:housename": "Centru de recoltare Synevo", "amenity": "clinic", "building": "yes", "contact:phone": "0244 545 384", "contact:website": "http://www.synevo.ro/", "healthcare": "clinic", "name": "Centru de recoltare Synevo", "opening_hours": "Mo-Fr 07:00 - 18:00"}}, {"type": "way", "id": 113510324, "nodes": [1286834029, 1286834017, 8520326830, 1286834033, 1286834018, 8520326827, 8520326828, 8520326829, 8520326826, 1286834029], "tags": {"addr:city": "Ploie\u0219ti", "addr:housenumber": "20", "addr:street": "Strada M\u0103r\u0103\u0219e\u0219ti", "amenity": "clinic", "building": "yes", "healthcare": "clinic"}}, {"type": "way", "id": 696099691, "nodes": [6536653305, 6536653302, 6536653301, 6536653303, 6536653304, 8579734745, 8579734748, 8579734747, 8579734746, 6536653305], "tags": {"amenity": "clinic", "building": "yes", "healthcare": "clinic"}}, {"type": "way", "id": 696099796, "nodes": [6536653711, 6536653708, 8226338620, 6536653707, 6536653709, 6536653710, 8226338618, 8226338619, 6536653704, 6536653711], "tags": {"addr:city": "Ploie\u0219ti", "addr:housenumber": "30", "addr:street": "Strada Rudului", "amenity": "clinic", "building": "yes", "healthcare": "clinic", "name": "DacMed - Centru Medical", "website": "http://www.dacmed.ro/"}}, {"type": "way", "id": 735131484, "nodes": [6885028907, 6885028908, 6885028909, 6885028910, 6885028907], "tags": {"addr:city": "Ploie\u0219ti", "addr:housenumber": "12", "addr:postcode": "107592", "addr:street": "Strada Libert\u0103\u021bii", "amenity": "clinic", "building": "yes", "healthcare": "clinic", "name": "Clinica de dializ\u0103 Reper"}}, {"type": "way", "id": 879779656, "nodes": [8184089396, 8184089397, 8184089398, 8184089399, 8184089400, 8184089401, 8184089402, 8184089403, 8184089396], "tags": {"addr:city": "Ploie\u0219ti", "addr:housenumber": "185", "addr:street": "Strada M\u0103r\u0103\u0219e\u0219ti", "amenity": "clinic", "building": "hospital", "healthcare": "clinic", "name": "Policlinica Complex Cioceanu", "website": "https://ro.polomap.com/ploie%C8%99ti/8145"}}, {"type": "way", "id": 881738442, "nodes": [8199981729, 8199981730, 8199981731, 8199981732, 8199981733, 8199981734, 8199981735, 8199981729], "tags": {"addr:city": "Ploie\u0219ti", "addr:housenumber": "4", "addr:street": "Strada Avram Iancu", "amenity": "clinic", "building": "hospital", "healthcare": "clinic", "name": "Centrul de Dializ\u0103 \u0219i Nefrologie Fresenius", "operator": "NephroCare", "website": "https://nephrocare.ro/"}}, {"type": "way", "id": 907112945, "nodes": [8423338866, 8423338869, 8423338867, 8423338868, 6533490241, 6533490240, 6533490243, 8423338872, 8423338871, 8423338866], "tags": {"addr:city": "Ploie\u0219ti", "addr:housenumber": "43", "addr:postcode": "100349", "addr:street": "Strada Clemen\u021bei", "amenity": "clinic", "barrier": "fence", "healthcare": "clinic", "name": "Centrul Medical MEDIURG", "opening_hours": "24/7"}}, {"type": "way", "id": 916419816, "nodes": [8511641687, 8511641688, 8511641689, 8511641690, 8511641691, 8511641692, 8511641687], "tags": {"amenity": "clinic", "building": "yes", "healthcare": "clinic", "name": "Clinica Medliv"}}, {"type": "way", "id": 922160611, "nodes": [8561096586, 8561096575, 7387605129, 7387605130, 8561096574, 8561096573, 8561096581, 8561096580, 8561096585, 8561096586], "tags": {"addr:city": "Ploie\u0219ti", "addr:housenumber": "5", "addr:street": "Strada Decebal", "amenity": "clinic", "healthcare": "clinic", "name": "Policlinica cu Plat\u0103"}}, {"type": "way", "id": 922739835, "nodes": [8565880323, 8565880324, 8565880325, 8565880326, 8565880323], "tags": {"addr:city": "Ploie\u0219ti", "addr:housenumber": "8", "addr:street": "Strada Zimbrului", "amenity": "clinic", "building": "yes", "healthcare": "clinic", "name": "Policlinica Euromed"}}, {"type": "way", "id": 923449100, "nodes": [8572353399, 8572353400, 8572353401, 8572353402, 8572353403, 8572353404, 8572353405, 8572353406, 8572353407, 8572353408, 8572353409, 8572353399], "tags": {"amenity": "clinic", "building": "yes", "healthcare": "clinic", "name": "Veromedica", "website": "https://urbo.ro/centre-medicale/veromedica-80248"}}, {"type": "way", "id": 1235465631, "nodes": [11468808795, 11468808796, 11468808797, 11468808798, 11468808795], "tags": {"addr:city": "Ploie\u0219ti", "addr:street": "\u0218oseaua Buftea", "amenity": "clinic", "building": "yes", "healthcare": "clinic"}}]}