{"version": 0.6, "generator": "Overpass API 0.7.62.1 084b4234", "osm3s": {"timestamp_osm_base": "2024-05-23T15:35:08Z", "copyright": "The data included in this document is from www.openstreetmap.org. The data is made available under ODbL."}, "elements": [{"type": "node", "id": 352852973, "lat": 46.5424333, "lon": 24.5554199}, {"type": "node", "id": 352856030, "lat": 46.542296, "lon": 24.5555657}, {"type": "node", "id": 352858507, "lat": 46.5422949, "lon": 24.5553999}, {"type": "node", "id": 352859030, "lat": 46.5423056, "lon": 24.555525}, {"type": "node", "id": 352860047, "lat": 46.5422686, "lon": 24.5556941}, {"type": "node", "id": 352860712, "lat": 46.5423081, "lon": 24.5555757}, {"type": "node", "id": 352861857, "lat": 46.5422618, "lon": 24.5555159}, {"type": "node", "id": 352862262, "lat": 46.5423186, "lon": 24.5557336}, {"type": "node", "id": 1835869517, "lat": 46.5446754, "lon": 24.5814026}, {"type": "node", "id": 1835869521, "lat": 46.5446947, "lon": 24.5813351}, {"type": "node", "id": 1835869522, "lat": 46.5446819, "lon": 24.5813589}, {"type": "node", "id": 1835869523, "lat": 46.5446819, "lon": 24.5814445}, {"type": "node", "id": 1835869524, "lat": 46.5447023, "lon": 24.5814734}, {"type": "node", "id": 1835869525, "lat": 46.5447163, "lon": 24.5813224}, {"type": "node", "id": 1835869526, "lat": 46.5447356, "lon": 24.5814954}, {"type": "node", "id": 1835869540, "lat": 46.5447548, "lon": 24.581267}, {"type": "node", "id": 1835869542, "lat": 46.5447542, "lon": 24.5815226}, {"type": "node", "id": 1835869545, "lat": 46.5447682, "lon": 24.5815633}, {"type": "node", "id": 1835869546, "lat": 46.5447822, "lon": 24.5815794}, {"type": "node", "id": 1835869548, "lat": 46.5448096, "lon": 24.5815909}, {"type": "node", "id": 1835869552, "lat": 46.5448365, "lon": 24.5815879}, {"type": "node", "id": 1835869553, "lat": 46.5448616, "lon": 24.5815285}, {"type": "node", "id": 1835869554, "lat": 46.544854, "lon": 24.5815616}, {"type": "node", "id": 1835869555, "lat": 46.5448983, "lon": 24.5814705}, {"type": "node", "id": 1835869558, "lat": 46.5449598, "lon": 24.5818583}, {"type": "node", "id": 1835869563, "lat": 46.5450512, "lon": 24.5819937}, {"type": "node", "id": 1835869569, "lat": 46.545087, "lon": 24.5816768}, {"type": "node", "id": 1835869580, "lat": 46.5451784, "lon": 24.5818122}, {"type": "node", "id": 7563577585, "lat": 46.5485682, "lon": 24.5727861, "tags": {"addr:city": "T\u00e2rgu Mure\u0219", "addr:housenumber": "42", "addr:street": "Strada Mihai Viteazul", "amenity": "clinic", "healthcare": "clinic", "name": "Policlina Carit-San Medical", "name:en": "Carti-San Hospital", "name:ro": "Policlina Carit-San Medical", "opening_hours": "Mo-Fr 07:00-20:00", "phone": "0265269172", "website": "https://www.caritsanmed.ro/"}}, {"type": "node", "id": 7853500585, "lat": 46.5388354, "lon": 24.5683519, "tags": {"addr:city": "T\u00e2rgu Mure\u0219", "addr:housenumber": "91", "addr:postcode": "540445", "addr:street": "Bulevardul 1 Decembrie 1918", "amenity": "clinic", "healthcare": "clinic", "name": "Clinica SANTE", "opening_hours": "Mo-Fr 07:00-18:00; Sa 08:00-14:00", "phone": "0265220998", "website": "https://clinica-sante.ro/"}}, {"type": "node", "id": 7853509985, "lat": 46.539691, "lon": 24.5671899, "tags": {"addr:city": "T\u00e2rgu Mure\u0219", "addr:housenumber": "29", "addr:street": "Strada \u0218tefan cel Mare", "amenity": "clinic", "healthcare": "clinic", "name": "Centrul Med. Neuron", "name:ro": "Centrul Med. Neuron", "opening_hours": "Mo-Fr 09:00-17:00", "phone": "0265250199", "website": "https://www.centrulneuron.ro/"}}, {"type": "node", "id": 7853529385, "lat": 46.558209, "lon": 24.5781146, "tags": {"addr:city": "T\u00e2rgu Mure\u0219", "addr:housenumber": "60", "addr:postcode": "540136", "addr:street": "Strada Gheorghe Marinescu", "amenity": "clinic", "healthcare": "clinic", "name": "Clinica SANTE", "opening_hours": "Mo-Fr 07:00-15:30; Sa 08:00-14:00", "phone": "0784271650", "website": "https://clinica-sante.ro/"}}, {"type": "node", "id": 8513108060, "lat": 46.5623789, "lon": 24.5423643}, {"type": "node", "id": 8513108061, "lat": 46.5624895, "lon": 24.5425789}, {"type": "node", "id": 8513108062, "lat": 46.5623715, "lon": 24.5427049}, {"type": "node", "id": 8513108063, "lat": 46.5622664, "lon": 24.542493}, {"type": "node", "id": 8545101155, "lat": 46.5371078, "lon": 24.5901771, "tags": {"amenity": "clinic", "healthcare": "clinic", "name": "Centrul Medical Cutezan\u021bei", "name:ro": "Centrul Medical Cutezan\u021bei"}}, {"type": "node", "id": 9481667427, "lat": 46.5322186, "lon": 24.5919969, "tags": {"addr:city": "T\u00e2rgu Mure\u0219", "addr:housenumber": "271", "addr:postcode": "540510", "addr:street": "Bulevardul 1 Decembrie 1918", "amenity": "clinic", "healthcare": "clinic", "healthcare:speciality": "dermatology", "name": "Skinderma", "opening_hours": "Mo-Fr 14:00-20:00", "phone": "+40770150897"}}, {"type": "node", "id": 9481819801, "lat": 46.5363871, "lon": 24.5820038, "tags": {"addr:city": "T\u00e2rgu Mure\u0219", "addr:housenumber": "209/1", "addr:postcode": "540541", "addr:street": "Bulevardul 1 Decembrie 1918", "amenity": "clinic", "healthcare": "clinic", "healthcare:speciality": "general", "name": "Centrul Medical Provisan", "opening_hours": "Mo-Th 07:00-20:00; Fr 07:00-18:00", "phone": "+40265257735", "website": "http://www.provisan.ro/"}}, {"type": "node", "id": 9481819816, "lat": 46.539459, "lon": 24.5696419, "tags": {"addr:city": "T\u00e2rgu Mure\u0219", "addr:housenumber": "93", "addr:postcode": "540445", "addr:street": "Bulevardul 1 Decembrie 1918", "air_conditioning": "yes", "amenity": "clinic", "healthcare": "clinic", "healthcare:speciality": "general;biochemistry;biology", "name": "MedLife", "opening_hours": "Mo-Fr 08:00-16:00", "payment:cash": "yes", "payment:credit_cards": "yes", "payment:debit_cards": "yes", "phone": "+40733008394", "website": "https://www.medlife.ro"}}, {"type": "node", "id": 9500565508, "lat": 46.5484934, "lon": 24.5653853, "tags": {"addr:city": "T\u00e2rgu Mure\u0219", "addr:housenumber": "5", "addr:postcode": "540089", "addr:street": "Strada Avram Iancu", "amenity": "clinic", "healthcare": "clinic", "healthcare:speciality": "general;cardiology;vascular_surgery;endocrinology;allergology;neurology;pediatric;psychiatry;psychology", "name": "Omniprax", "opening_hours": "Mo-Th 08:00-20:30; Fr 08:00-17:00", "payment:cash": "yes", "payment:credit_cards": "yes", "payment:debit_cards": "yes", "phone": "+40265217135", "website": "http://omniprax.ro/"}}, {"type": "node", "id": 10230620514, "lat": 46.5389345, "lon": 24.5655419, "tags": {"addr:city": "T\u00e2rgu Mure\u0219", "addr:housenumber": "69", "addr:postcode": "540003", "addr:street": "Bulevardul 1 Decembrie 1918", "air_conditioning": "yes", "amenity": "clinic", "healthcare": "clinic", "healthcare:speciality": "cardiology", "name": "Anima Cord", "wheelchair": "yes"}}, {"type": "node", "id": 10232748138, "lat": 46.5347791, "lon": 24.5596175, "tags": {"addr:city": "T\u00e2rgu Mure\u0219", "addr:housenumber": "14", "addr:postcode": "540429", "addr:street": "Strada Par\u00e2ngului", "amenity": "clinic", "healthcare": "clinic", "healthcare:speciality": "stomatology;internal;cardiology;endocrinology;psychology;urology", "name": "Algocalm II", "opening_hours": "Mo-Fr 08:00-20:00", "phone": "0265265490", "website": "https://algocalm.ro/"}}, {"type": "node", "id": 10233104843, "lat": 46.5394801, "lon": 24.5805214, "tags": {"addr:city": "T\u00e2rgu Mure\u0219", "addr:housenumber": "25", "addr:postcode": "540528", "addr:street": "Strada Lalelelor", "amenity": "clinic", "healthcare": "clinic", "healthcare:speciality": "general", "name": "MCA Health Care", "opening_hours": "Mo-Th 07:00-19:00", "phone": "0365882747"}}, {"type": "node", "id": 10233104846, "lat": 46.5484878, "lon": 24.5638074, "tags": {"addr:city": "T\u00e2rgu Mure\u0219", "addr:housenumber": "3", "addr:postcode": "540043", "addr:street": "Strada Mihai Eminescu", "amenity": "clinic", "healthcare": "clinic", "healthcare:speciality": "cardiology;general", "name": "Procardia", "opening_hours": "Mo-Th 07:30-19:00; Fr 07:30-16:00", "phone": "0265210087", "website": "https://www.procardia.org/"}}, {"type": "node", "id": 10233705788, "lat": 46.545523, "lon": 24.5680066, "tags": {"addr:city": "T\u00e2rgu Mure\u0219", "addr:housenumber": "4", "addr:postcode": "540073", "addr:street": "Strada Liceului", "amenity": "clinic", "healthcare": "clinic", "healthcare:speciality": "angiology", "name": "Angio Center", "opening_hours": "Mo-Fr 08:00-20:00", "phone": "+40265233233", "website": "https://angiocenter.ro"}}, {"type": "node", "id": 10237608515, "lat": 46.536405, "lon": 24.5526983, "tags": {"addr:city": "T\u00e2rgu Mure\u0219", "addr:housenumber": "1", "addr:postcode": "540023", "addr:street": "Strada Doroban\u021bilor", "air_conditioning": "yes", "amenity": "clinic", "healthcare": "clinic", "healthcare:speciality": "general;dermatology;physiotherapy;diagnostic_radiology;covid19", "name": "Centrul medical Topmed", "opening_hours": "Mo-Fr 07:00-21:00; Sa 08:00-13:00", "phone": "+40265225002", "website": "https://www.topmed.ro/", "wheelchair": "yes"}}, {"type": "node", "id": 10565461714, "lat": 46.5531158, "lon": 24.5795058, "tags": {"addr:city": "T\u00e2rgu Mure\u0219", "addr:housenumber": "58", "addr:postcode": "540142", "addr:street": "Strada General Ion Dumitrache", "amenity": "clinic", "healthcare": "clinic", "healthcare:speciality": "gynaecology", "name": "NB Med", "phone": "+40735527606", "website": "http://www.nbmed.ro/"}}, {"type": "node", "id": 10769329329, "lat": 46.5468022, "lon": 24.5639397, "tags": {"addr:city": "T\u00e2rgu Mure\u0219", "addr:housenumber": "2", "addr:postcode": "540043", "addr:street": "Strada Revolu\u021biei", "amenity": "clinic", "healthcare": "clinic", "healthcare:speciality": "urology;cardiology;surgery", "name": "ZonaMed", "opening_hours": "Mo-Fr 07:00-19:00", "phone": "+40756204632", "website": "https://zonamed.ro"}}, {"type": "way", "id": 31531057, "nodes": [352856030, 352859030, 352861857, 352858507, 352852973, 352862262, 352860047, 352860712, 352856030], "tags": {"amenity": "clinic", "building": "yes", "building:levels": "1", "healthcare": "clinic", "name": "Hipocrate 2000"}}, {"type": "way", "id": 172709948, "nodes": [1835869540, 1835869555, 1835869553, 1835869554, 1835869552, 1835869548, 1835869546, 1835869545, 1835869542, 1835869526, 1835869524, 1835869523, 1835869517, 1835869522, 1835869521, 1835869525, 1835869540], "tags": {"amenity": "clinic", "building": "yes", "healthcare": "clinic", "healthcare:speciality": "cardiology;recovery;orthopaedics", "name": "Clinica de Recuperare RegenMed"}}, {"type": "way", "id": 172709960, "nodes": [1835869569, 1835869580, 1835869563, 1835869558, 1835869569], "tags": {"amenity": "clinic", "building": "yes", "healthcare": "clinic", "healthcare:speciality": "gastroenterology;cardiology;internal;dermatology;radiology;endocrinology", "name": "Centrul medical LOTUS Life", "opening_hours": "Mo-Fr 08:00-20:00; ", "phone": "+40721232232"}}, {"type": "way", "id": 916597068, "nodes": [8513108060, 8513108061, 8513108062, 8513108063, 8513108060], "tags": {"addr:city": "T\u00e2rgu Mure\u0219", "addr:housenumber": "30B", "addr:postcode": "540272", "addr:street": "Strada Agricultorilor", "amenity": "clinic", "building": "yes", "healthcare": "clinic", "healthcare:speciality": "general;dentistry", "name": "Holomed", "opening_hours": "Mo-Fr 08:00-20:00", "operator": "SC Mirvaldent SRL", "operator:type": "private"}}]}