{"version": 0.6, "generator": "Overpass API 0.7.62.1 084b4234", "osm3s": {"timestamp_osm_base": "2024-05-24T08:21:30Z", "copyright": "The data included in this document is from www.openstreetmap.org. The data is made available under ODbL."}, "elements": [{"type": "node", "id": 4486155953, "lat": 15.6594151, "lon": -13.2623186}, {"type": "node", "id": 4486155954, "lat": 15.6598058, "lon": -13.2609693}, {"type": "node", "id": 4486155955, "lat": 15.6619731, "lon": -13.2616279}, {"type": "node", "id": 4486155956, "lat": 15.6615442, "lon": -13.2629161}, {"type": "node", "id": 4579193210, "lat": 15.6047561, "lon": -13.3300308}, {"type": "node", "id": 4579193211, "lat": 15.6037599, "lon": -13.3292734}, {"type": "node", "id": 4579193212, "lat": 15.6030596, "lon": -13.330247}, {"type": "node", "id": 4579193213, "lat": 15.604211, "lon": -13.3310235}, {"type": "node", "id": 4602358970, "lat": 15.6596004, "lon": -13.2616788, "tags": {"barrier": "gate"}}, {"type": "node", "id": 4602359291, "lat": 15.6611507, "lon": -13.2628139}, {"type": "node", "id": 5568708368, "lat": 15.6046471, "lon": -13.3299489}, {"type": "node", "id": 7609498721, "lat": 15.4859668, "lon": -13.1853718}, {"type": "node", "id": 7609498722, "lat": 15.4858407, "lon": -13.1854304}, {"type": "node", "id": 7609498723, "lat": 15.4858059, "lon": -13.1853853}, {"type": "node", "id": 7609498724, "lat": 15.4856408, "lon": -13.1854575}, {"type": "node", "id": 7609498725, "lat": 15.4856234, "lon": -13.1855297}, {"type": "node", "id": 7609498726, "lat": 15.4853973, "lon": -13.1856379}, {"type": "node", "id": 7609498727, "lat": 15.4853582, "lon": -13.1856109}, {"type": "node", "id": 7609498728, "lat": 15.485193, "lon": -13.1856831}, {"type": "node", "id": 7609498729, "lat": 15.4848322, "lon": -13.1848936}, {"type": "node", "id": 7609498730, "lat": 15.484001, "lon": -13.1853021}, {"type": "node", "id": 7609498731, "lat": 15.4836321, "lon": -13.1844999}, {"type": "node", "id": 7609498732, "lat": 15.4852621, "lon": -13.1837168}, {"type": "node", "id": 10860572060, "lat": 15.4971791, "lon": -13.2111877, "tags": {"addr:city": "Sinthiane", "amenity": "clinic", "beds": "0", "electricity": "grid", "insurance:health": "no", "name": "Poste de Sante de Sinthiane", "opening_hours": "24/7", "operational_status": "operational", "operator:type": "public", "source": "#senegal #Public Health #Sunu Wer Gye Yaram #WNAH #Healthsites", "water_source": "water_works", "wheelchair": "yes"}}, {"type": "node", "id": 10860572068, "lat": 15.6605149, "lon": -13.2618979, "tags": {"addr:city": "matam", "amenity": "hospital", "beds": "0", "electricity": "grid", "healthcare": "hospital", "insurance:health": "yes", "name": "Hopital regionale de Matam", "opening_hours": "24/7", "operational_status": "operational", "operator:type": "public", "source": "#senegal #Public Health #Sunu Wer Gye Yaram #WNAH #Healthsites", "water_source": "water_works", "wheelchair": "yes"}}, {"type": "node", "id": 10860572070, "lat": 15.531334, "lon": -13.3981886, "tags": {"addr:city": "Danthiady", "amenity": "clinic", "beds": "6", "electricity": "grid", "insurance:health": "no", "name": "Poste de Sante Danthiady", "opening_hours": "24/7", "operational_status": "operational", "operator:type": "public", "source": "#senegal #Public Health #Sunu Wer Gye Yaram #WNAH #Healthsites", "water_source": "water_works", "wheelchair": "yes"}}, {"type": "node", "id": 10860572072, "lat": 15.6079505, "lon": -13.3358684, "tags": {"addr:city": "municipal moderne", "amenity": "clinic", "beds": "6", "electricity": "grid", "healthcare": "clinic", "insurance:health": "no", "name": "Poste de sante Moderne", "opening_hours": "24/7", "operational_status": "operational", "operator:type": "public", "source": "#senegal #Public Health #Sunu Wer Gye Yaram #WNAH #Healthsites", "water_source": "water_works", "wheelchair": "no"}}, {"type": "node", "id": 10860572074, "lat": 15.3692234, "lon": -13.1299661, "tags": {"addr:city": "Sinthiou Bamambe Banadji", "amenity": "clinic", "beds": "2", "electricity": "grid", "insurance:health": "no", "name": "Poste paramedical de Sinthiou Bamambe", "opening_hours": "24/7", "operational_status": "operational", "operator:type": "private", "source": "#senegal #Public Health #Sunu Wer Gye Yaram #WNAH #Healthsites", "water_source": "tank", "wheelchair": "yes"}}, {"type": "node", "id": 10860572077, "lat": 15.4367181, "lon": -13.1835655, "tags": {"addr:city": "Foumihara Demboube", "amenity": "clinic", "beds": "0", "electricity": "grid", "insurance:health": "yes", "name": "Poste de sante de Foumihara Demboube", "opening_hours": "Mo-Sat 09:00-21:00", "operational_status": "operational", "operator:type": "public", "source": "#senegal #Public Health #Sunu Wer Gye Yaram #WNAH #Healthsites", "water_source": "water_works", "wheelchair": "yes"}}, {"type": "node", "id": 10860572093, "lat": 15.5628316, "lon": -13.1035608, "tags": {"addr:city": "Odebere", "amenity": "clinic", "beds": "10", "electricity": "grid", "healthcare": "clinic", "insurance:health": "no", "name": "Poste de sante de Odobere", "opening_hours": "24/7", "operational_status": "operational", "operator:type": "public", "source": "#senegal #Public Health #Sunu Wer Gye Yaram #WNAH #Healthsites", "water_source": "water_works", "wheelchair": "yes"}}, {"type": "node", "id": 10860572098, "lat": 15.611484, "lon": -13.3214944, "tags": {"addr:city": "Ourosogui", "amenity": "clinic", "beds": "0", "electricity": "grid", "healthcare": "clinic", "insurance:health": "yes", "name": "Clinique Dentaire le Fouta", "opening_hours": "Mo-Sat 09:00-17:00", "operational_status": "operational", "operator:type": "private", "source": "#senegal #Public Health #Sunu Wer Gye Yaram #WNAH #Healthsites", "water_source": "water_works", "wheelchair": "no"}}, {"type": "node", "id": 10860572109, "lat": 15.6038666, "lon": -13.3298457, "tags": {"addr:city": "Ourossogui", "amenity": "hospital", "beds": "65", "electricity": "grid", "healthcare": "hospital", "insurance:health": "yes", "name": "Centre Hospitalier Regional de Ourossogui", "opening_hours": "24/7", "operational_status": "operational", "operator:type": "public", "source": "#senegal #Public Health #Sunu Wer Gye Yaram #WNAH #Healthsites", "water_source": "water_works", "wheelchair": "yes"}}, {"type": "node", "id": 10860572111, "lat": 15.3683501, "lon": -13.1302463, "tags": {"addr:city": "Sinthiou bamambe banadji", "amenity": "clinic", "beds": "0", "electricity": "grid", "insurance:health": "yes", "name": "Poste de sante de Sinthiou Bamambe Banadji", "opening_hours": "24/7", "operational_status": "operational", "operator:type": "public", "source": "#senegal #Public Health #Sunu Wer Gye Yaram #WNAH #Healthsites", "water_source": "water_works", "wheelchair": "yes"}}, {"type": "node", "id": 10860572113, "lat": 15.686871, "lon": -13.3750627, "tags": {"addr:city": "Matam", "amenity": "clinic", "insurance:health": "unknown", "name": "poste de sante Sinthioumogo", "operational_status": "non_operational", "operator:type": "public", "source": "#senegal #Public Health #Sunu Wer Gye Yaram #WNAH #Healthsites", "wheelchair": "unknown"}}, {"type": "node", "id": 10860572119, "lat": 15.4717529, "lon": -13.3641297, "tags": {"addr:city": "Belinaybe", "amenity": "clinic", "beds": "0", "electricity": "grid", "insurance:health": "no", "name": "Poste de sante de Belinaybe", "opening_hours": "24/7", "operational_status": "operational", "operator:type": "public", "source": "#senegal #Public Health #Sunu Wer Gye Yaram #WNAH #Healthsites", "water_source": "water_works", "wheelchair": "yes"}}, {"type": "node", "id": 10860572125, "lat": 15.3873557, "lon": -13.1539112, "tags": {"addr:city": "Seno palel", "amenity": "clinic", "beds": "9", "electricity": "grid", "insurance:health": "yes", "name": "Poste de sante de Seno Palel", "opening_hours": "24/7", "operational_status": "operational", "operator:type": "public", "source": "#senegal #Public Health #Sunu Wer Gye Yaram #WNAH #Healthsites", "water_source": "water_works", "wheelchair": "yes"}}, {"type": "node", "id": 10860572134, "lat": 15.5175094, "lon": -13.1089168, "tags": {"addr:city": "Thially", "amenity": "clinic", "beds": "15", "electricity": "grid", "healthcare": "clinic", "insurance:health": "no", "name": "Poste de sante de Thially", "opening_hours": "24/7", "operational_status": "operational", "operator:type": "public", "source": "#senegal #Public Health #Sunu Wer Gye Yaram #WNAH #Healthsites", "water_source": "water_works", "wheelchair": "yes"}}, {"type": "node", "id": 10860572136, "lat": 15.6026485, "lon": -13.3265983, "tags": {"addr:city": "Ourossogui", "amenity": "clinic", "beds": "5", "electricity": "grid", "healthcare": "clinic", "insurance:health": "no", "name": "Poste de sante de Ourossogui", "opening_hours": "24/7", "operational_status": "operational", "operator:type": "public", "source": "#senegal #Public Health #Sunu Wer Gye Yaram #WNAH #Healthsites", "water_source": "water_works", "wheelchair": "yes"}}, {"type": "node", "id": 10860572137, "lat": 15.6494236, "lon": -13.3474253, "tags": {"addr:city": "Boynagui", "amenity": "clinic", "beds": "9", "electricity": "grid", "insurance:health": "no", "name": "Poste de sante de Boynadji", "opening_hours": "24/7", "operational_status": "operational", "operator:type": "public", "source": "#senegal #Public Health #Sunu Wer Gye Yaram #WNAH #Healthsites", "water_source": "water_works", "wheelchair": "no"}}, {"type": "node", "id": 10860572146, "lat": 15.6813173, "lon": -13.2362439, "tags": {"addr:city": "Diamel", "amenity": "clinic", "beds": "5", "electricity": "grid", "healthcare": "clinic", "insurance:health": "yes", "name": "Poste de Sante de Diamel", "opening_hours": "24/7", "operational_status": "operational", "operator:type": "public", "source": "#senegal #Public Health #Sunu Wer Gye Yaram #WNAH #Healthsites", "water_source": "water_works", "wheelchair": "yes"}}, {"type": "node", "id": 10860572176, "lat": 15.692473, "lon": -13.4130802, "tags": {"addr:city": "Taiba", "amenity": "clinic", "beds": "20", "electricity": "grid", "insurance:health": "yes", "name": "Poste de sante Taiba", "opening_hours": "24/7", "operational_status": "operational", "operator:type": "public", "source": "#senegal #Public Health #Sunu Wer Gye Yaram #WNAH #Healthsites", "water_source": "water_works", "wheelchair": "yes"}}, {"type": "node", "id": 10860572204, "lat": 15.4292636, "lon": -13.178058, "tags": {"addr:city": "Wouro sidy", "amenity": "clinic", "beds": "0", "electricity": "grid", "insurance:health": "yes", "name": "Poste de sante Wouro Sidy", "opening_hours": "24/7", "operational_status": "operational", "operator:type": "public", "source": "#senegal #Public Health #Sunu Wer Gye Yaram #WNAH #Healthsites", "water_source": "water_works", "wheelchair": "yes"}}, {"type": "node", "id": 10860572205, "lat": 15.7095745, "lon": -13.2782929, "tags": {"addr:city": "Tiguere", "amenity": "clinic", "beds": "8", "electricity": "grid", "insurance:health": "no", "name": "Poste de sante de Tiguere", "opening_hours": "24/7", "operational_status": "operational", "operator:type": "public", "source": "#senegal #Public Health #Sunu Wer Gye Yaram #WNAH #Healthsites", "water_source": "water_works", "wheelchair": "yes"}}, {"type": "node", "id": 10860572214, "lat": 15.4428585, "lon": -13.131137, "tags": {"addr:city": "Soringho", "amenity": "clinic", "beds": "10", "electricity": "grid", "insurance:health": "no", "name": "Poste de sante de Soringho", "opening_hours": "24/7", "operational_status": "operational", "operator:type": "public", "source": "#senegal #Public Health #Sunu Wer Gye Yaram #WNAH #Healthsites", "water_source": "water_works", "wheelchair": "yes"}}, {"type": "node", "id": 10860572236, "lat": 15.392178, "lon": -13.5357043, "tags": {"addr:city": "Dendoudy", "amenity": "clinic", "beds": "8", "electricity": "grid", "insurance:health": "no", "name": "Poste de Sante Dendoudy", "opening_hours": "24/7", "operational_status": "operational", "operator:type": "public", "source": "#senegal #Public Health #Sunu Wer Gye Yaram #WNAH #Healthsites", "water_source": "water_works", "wheelchair": "no"}}, {"type": "node", "id": 10860572238, "lat": 15.539706, "lon": -13.2517981, "tags": {"addr:city": "Diandioly", "amenity": "clinic", "beds": "13", "electricity": "grid", "insurance:health": "yes", "name": "Poste de Sante de Diandioly", "opening_hours": "24/7", "operational_status": "operational", "operator:type": "public", "source": "#senegal #Public Health #Sunu Wer Gye Yaram #WNAH #Healthsites", "water_source": "water_works", "wheelchair": "yes"}}, {"type": "node", "id": 10860572244, "lat": 15.6535257, "lon": -13.2538692, "tags": {"addr:city": "Matam", "amenity": "hospital", "beds": "0", "electricity": "grid", "healthcare": "hospital", "insurance:health": "yes", "name": "Centre de sante Matam", "opening_hours": "24/7", "operational_status": "operational", "operator:type": "public", "source": "#senegal #Public Health #Sunu Wer Gye Yaram #WNAH #Healthsites", "water_source": "water_works", "wheelchair": "yes"}}, {"type": "node", "id": 10860572245, "lat": 15.666253, "lon": -13.257151, "tags": {"addr:city": "Soubalo", "amenity": "clinic", "beds": "12", "electricity": "grid", "healthcare": "clinic", "insurance:health": "no", "name": "Poste de sante Soubalo", "opening_hours": "24/7", "operational_status": "operational", "operator:type": "public", "source": "#senegal #Public Health #Sunu Wer Gye Yaram #WNAH #Healthsites", "water_source": "water_works", "wheelchair": "yes"}}, {"type": "node", "id": 10860572246, "lat": 15.4879523, "lon": -13.1779694, "tags": {"addr:city": "Kanel", "amenity": "clinic", "beds": "0", "electricity": "grid", "insurance:health": "yes", "name": "Poste de sante de Kanel", "opening_hours": "24/7", "operational_status": "operational", "operator:type": "public", "source": "#senegal #Public Health #Sunu Wer Gye Yaram #WNAH #Healthsites", "water_source": "water_works", "wheelchair": "yes"}}, {"type": "way", "id": 451800649, "nodes": [4486155953, 4602358970, 4486155954, 4486155955, 4486155956, 4602359291, 4486155953], "tags": {"amenity": "hospital", "healthcare": "hospital"}}, {"type": "way", "id": 462536655, "nodes": [4579193210, 5568708368, 4579193211, 4579193212, 4579193213, 4579193210], "tags": {"amenity": "hospital", "emergency": "no", "healthcare": "hospital", "name": "Ourossogui Hospital"}}, {"type": "way", "id": 814626444, "nodes": [7609498721, 7609498722, 7609498723, 7609498724, 7609498725, 7609498726, 7609498727, 7609498728, 7609498729, 7609498730, 7609498731, 7609498732, 7609498721], "tags": {"amenity": "hospital", "healthcare": "hospital"}}]}