{"version": 0.6, "generator": "Overpass API 0.7.62.1 084b4234", "osm3s": {"timestamp_osm_base": "2024-05-24T08:21:30Z", "copyright": "The data included in this document is from www.openstreetmap.org. The data is made available under ODbL."}, "elements": [{"type": "node", "id": 3649602071, "lat": 16.1519046, "lon": -13.5066714}, {"type": "node", "id": 3649602075, "lat": 16.1503639, "lon": -13.5057326}, {"type": "node", "id": 3649602082, "lat": 16.1506968, "lon": -13.5087532}, {"type": "node", "id": 3649602086, "lat": 16.1502338, "lon": -13.5080815}, {"type": "node", "id": 3649602089, "lat": 16.1492308, "lon": -13.507777}, {"type": "node", "id": 3649602091, "lat": 16.149407, "lon": -13.5073699}, {"type": "node", "id": 3649602094, "lat": 16.149473, "lon": -13.5084183}, {"type": "node", "id": 4608637098, "lat": 16.1496721, "lon": -13.5069183, "tags": {"barrier": "gate"}}, {"type": "node", "id": 4608637105, "lat": 16.1497271, "lon": -13.5068239, "tags": {"barrier": "gate"}}, {"type": "node", "id": 4609578805, "lat": 16.1514011, "lon": -13.5063646}, {"type": "node", "id": 4609578816, "lat": 16.1515868, "lon": -13.5072192}, {"type": "node", "id": 4609578825, "lat": 16.151149, "lon": -13.506211}, {"type": "node", "id": 10860572053, "lat": 15.8726202, "lon": -13.4773194, "tags": {"addr:city": "Mboloyel", "amenity": "clinic", "beds": "7", "electricity": "grid", "healthcare": "clinic", "insurance:health": "no", "name": "Poste de sante de Mboloyel", "opening_hours": "24/7", "operational_status": "operational", "operator:type": "public", "source": "#senegal #Public Health #Sunu Wer Gye Yaram #WNAH #Healthsites", "water_source": "water_works", "wheelchair": "yes"}}, {"type": "node", "id": 10860572054, "lat": 15.8857998, "lon": -13.4910336, "tags": {"addr:city": "Boki Diawe 1", "amenity": "clinic", "beds": "15", "electricity": "grid", "healthcare": "clinic", "insurance:health": "no", "name": "Poste de sante de Boki Diawe", "opening_hours": "24/7", "operational_status": "operational", "operator:type": "public", "source": "#senegal #Public Health #Sunu Wer Gye Yaram #WNAH #Healthsites", "water_source": "water_works", "wheelchair": "yes"}}, {"type": "node", "id": 10860572057, "lat": 15.7421637, "lon": -13.3910063, "tags": {"addr:city": "Nabadji", "amenity": "clinic", "beds": "28", "electricity": "grid", "insurance:health": "no", "name": "Poste de Sante de Nabadji Civol", "opening_hours": "Mo-Su 08:00-18:00", "operational_status": "operational", "operator:type": "public", "source": "#senegal #Public Health #Sunu Wer Gye Yaram #WNAH #Healthsites", "water_source": "water_works", "wheelchair": "yes"}}, {"type": "node", "id": 10860572065, "lat": 15.8918035, "lon": -13.4874867, "tags": {"addr:city": "Bokkidiawe 2", "amenity": "clinic", "beds": "5", "electricity": "grid", "healthcare": "clinic", "insurance:health": "no", "name": "Poste de sante de Bokidiawe 2", "opening_hours": "24/7", "operational_status": "operational", "operator:type": "public", "source": "#senegal #Public Health #Sunu Wer Gye Yaram #WNAH #Healthsites", "water_source": "water_works", "wheelchair": "no"}}, {"type": "node", "id": 10860572075, "lat": 15.8072005, "lon": -13.4104067, "tags": {"addr:city": "Ndouloumadji Dembe", "amenity": "clinic", "beds": "12", "electricity": "grid", "healthcare": "clinic", "insurance:health": "no", "name": "Poste de sante Ndouloumadji Dembe", "opening_hours": "24/7", "operational_status": "operational", "operator:type": "public", "source": "#senegal #Public Health #Sunu Wer Gye Yaram #WNAH #Healthsites", "water_source": "water_works", "wheelchair": "no"}}, {"type": "node", "id": 10860572103, "lat": 16.0734355, "lon": -13.4880543, "tags": {"addr:city": "Gaol", "amenity": "clinic", "beds": "14", "electricity": "generator", "healthcare": "clinic", "insurance:health": "yes", "name": "Poste de Sante Gaol", "opening_hours": "24/7", "operational_status": "operational", "operator:type": "public", "source": "#senegal #Public Health #Sunu Wer Gye Yaram #WNAH #Healthsites", "water_source": "pump", "wheelchair": "yes"}}, {"type": "node", "id": 10860572114, "lat": 15.8998844, "lon": -13.3433964, "tags": {"addr:city": "Sadel", "amenity": "clinic", "beds": "3", "electricity": "grid", "healthcare": "clinic", "insurance:health": "yes", "name": "Poste Sante Sadel", "opening_hours": "24/7", "operational_status": "operational", "operator:type": "public", "source": "#senegal #Public Health #Sunu Wer Gye Yaram #WNAH #Healthsites", "water_source": "water_works", "wheelchair": "yes"}}, {"type": "node", "id": 10860572117, "lat": 15.9405519, "lon": -13.3508475, "tags": {"addr:city": "Nguidjilone", "amenity": "clinic", "beds": "23", "electricity": "grid", "healthcare": "clinic", "insurance:health": "no", "name": "Poste de sante Nguidjilone", "opening_hours": "24/7", "operational_status": "operational", "operator:type": "public", "source": "#senegal #Public Health #Sunu Wer Gye Yaram #WNAH #Healthsites", "water_source": "water_works", "wheelchair": "yes"}}, {"type": "node", "id": 10860572122, "lat": 15.8827404, "lon": -13.4223288, "tags": {"addr:city": "Mbakhna", "amenity": "clinic", "beds": "6", "electricity": "grid", "healthcare": "clinic", "insurance:health": "no", "name": "Poste de sante de Mbakhna", "opening_hours": "Mo-Sat 09:00-21:00", "operational_status": "operational", "operator:type": "public", "source": "#senegal #Public Health #Sunu Wer Gye Yaram #WNAH #Healthsites", "water_source": "water_works", "wheelchair": "yes"}}, {"type": "node", "id": 10860572132, "lat": 15.8744672, "lon": -13.5578458, "tags": {"addr:city": "Goudoude Diobe", "amenity": "clinic", "beds": "6", "electricity": "grid", "insurance:health": "no", "name": "Poste de sante Goudoude Diobe", "opening_hours": "24/7", "operational_status": "operational", "operator:type": "public", "source": "#senegal #Public Health #Sunu Wer Gye Yaram #WNAH #Healthsites", "water_source": "water_works", "wheelchair": "no"}}, {"type": "node", "id": 10860572149, "lat": 15.9360791, "lon": -13.3595165, "tags": {"addr:city": "Sare liou", "amenity": "clinic", "beds": "0", "electricity": "grid", "healthcare": "clinic", "insurance:health": "no", "name": "Poste de Sare Liou", "opening_hours": "24/7", "operational_status": "operational", "operator:type": "public", "source": "#senegal #Public Health #Sunu Wer Gye Yaram #WNAH #Healthsites", "water_source": "water_works", "wheelchair": "yes"}}, {"type": "node", "id": 10860572150, "lat": 16.1402201, "lon": -13.4915644, "tags": {"addr:city": "Gourel oumar ly", "amenity": "clinic", "beds": "13", "electricity": "grid", "insurance:health": "no", "name": "Poste de sante Gourel Oumar Ly", "opening_hours": "24/7", "operational_status": "operational", "operator:type": "public", "source": "#senegal #Public Health #Sunu Wer Gye Yaram #WNAH #Healthsites", "water_source": "water_works", "wheelchair": "yes"}}, {"type": "node", "id": 10860572157, "lat": 15.9685303, "lon": -13.3698743, "tags": {"addr:city": "Aly Oury", "amenity": "clinic", "beds": "7", "electricity": "grid", "healthcare": "clinic", "insurance:health": "no", "name": "Poste de sante de Aly Oury", "opening_hours": "24/7", "operational_status": "operational", "operator:type": "public", "source": "#senegal #Public Health #Sunu Wer Gye Yaram #WNAH #Healthsites", "water_source": "water_works", "wheelchair": "yes"}}, {"type": "node", "id": 10860572162, "lat": 15.8307161, "lon": -13.4557497, "tags": {"addr:city": "Ouro Alpha", "amenity": "clinic", "beds": "12", "electricity": "grid", "healthcare": "clinic", "insurance:health": "no", "name": "Poste de sante de Ouro Alpha", "opening_hours": "24/7", "operational_status": "operational", "operator:type": "public", "source": "#senegal #Public Health #Sunu Wer Gye Yaram #WNAH #Healthsites", "water_source": "water_works", "wheelchair": "yes"}}, {"type": "node", "id": 10860572163, "lat": 16.0659584, "lon": -13.4144799, "tags": {"addr:city": "Diammel Gawdal", "amenity": "clinic", "healthcare": "clinic", "insurance:health": "unknown", "name": "poste de sante Diammel Gawdal", "operational_status": "non_operational", "operator:type": "public", "source": "#senegal #Public Health #Sunu Wer Gye Yaram #WNAH #Healthsites", "wheelchair": "unknown"}}, {"type": "node", "id": 10860572169, "lat": 15.8418159, "lon": -13.3105739, "tags": {"addr:city": "Woudourou", "amenity": "clinic", "beds": "10", "electricity": "grid", "healthcare": "clinic", "insurance:health": "no", "name": "Poste de sante de Woudourou", "opening_hours": "24/7", "operational_status": "operational", "operator:type": "public", "source": "#senegal #Public Health #Sunu Wer Gye Yaram #WNAH #Healthsites", "water_source": "water_works", "wheelchair": "yes"}}, {"type": "node", "id": 10860572174, "lat": 15.7699612, "lon": -13.4728918, "tags": {"addr:city": "Thiarene", "amenity": "clinic", "beds": "25", "electricity": "grid", "healthcare": "clinic", "insurance:health": "yes", "name": "Poste de sante de Thiarene", "opening_hours": "24/7", "operational_status": "operational", "operator:type": "public", "source": "#senegal #Public Health #Sunu Wer Gye Yaram #WNAH #Healthsites", "water_source": "water_works", "wheelchair": "yes"}}, {"type": "node", "id": 10860572197, "lat": 16.0916797, "lon": -13.515073, "tags": {"addr:city": "Diongto", "amenity": "clinic", "beds": "6", "electricity": "grid", "healthcare": "clinic", "insurance:health": "no", "name": "Poste de sante Diongto", "opening_hours": "24/7", "operational_status": "operational", "operator:type": "public", "source": "#senegal #Public Health #Sunu Wer Gye Yaram #WNAH #Healthsites", "water_source": "water_works", "wheelchair": "no"}}, {"type": "node", "id": 10860572206, "lat": 15.9155171, "lon": -13.5151669, "tags": {"addr:city": "Dabia", "amenity": "clinic", "beds": "8", "electricity": "grid", "insurance:health": "no", "name": "poste de sante Dabia", "opening_hours": "24/7", "operational_status": "operational", "operator:type": "public", "source": "#senegal #Public Health #Sunu Wer Gye Yaram #WNAH #Healthsites", "water_source": "water_works", "wheelchair": "no"}}, {"type": "node", "id": 10860572235, "lat": 15.9229103, "lon": -13.5290363, "tags": {"addr:city": "Kobilo", "amenity": "clinic", "beds": "6", "electricity": "grid", "insurance:health": "no", "name": "Poste de sante de Kobilo", "opening_hours": "24/7", "operational_status": "operational", "operator:type": "public", "source": "#senegal #Public Health #Sunu Wer Gye Yaram #WNAH #Healthsites", "water_source": "well", "wheelchair": "yes"}}, {"type": "node", "id": 10860572239, "lat": 15.8208522, "lon": -13.4315926, "tags": {"addr:city": "Ndouloumadjy Founebe", "amenity": "clinic", "beds": "8", "electricity": "grid", "healthcare": "clinic", "insurance:health": "yes", "name": "Poste Sante Ndouloumadjy Founebe", "opening_hours": "24/7", "operational_status": "operational", "operator:type": "public", "source": "#senegal #Public Health #Sunu Wer Gye Yaram #WNAH #Healthsites", "water_source": "water_works", "wheelchair": "no"}}, {"type": "node", "id": 10860572259, "lat": 16.0148546, "lon": -13.3808796, "tags": {"addr:city": "Dondou", "amenity": "clinic", "beds": "8", "electricity": "grid", "healthcare": "clinic", "insurance:health": "yes", "name": "Poste de Sante de Dondou", "opening_hours": "24/7", "operational_status": "operational", "operator:type": "public", "source": "#senegal #Public Health #Sunu Wer Gye Yaram #WNAH #Healthsites", "water_source": "pump", "wheelchair": "yes"}}, {"type": "way", "id": 360412328, "nodes": [3649602082, 4609578816, 3649602071, 4609578805, 4609578825, 3649602075, 4608637105, 4608637098, 3649602091, 3649602089, 3649602094, 3649602086, 3649602082], "tags": {"addr:city": "\u0643\u064a\u0647\u064a\u062f\u064a", "amenity": "hospital", "barrier": "wall", "emergency": "yes", "healthcare": "hospital", "name": "\u0645\u0633\u062a\u0634\u0641\u0649 \u0643\u064a\u0647\u064a\u062f\u064a", "name:ar": "\u0645\u0633\u062a\u0634\u0641\u0649 \u0643\u064a\u0647\u064a\u062f\u064a", "name:de": "Krankenhaus Kaihaidi", "name:en": "Kaihaidi Hospital", "name:fr": "H\u00f4pital de Ka\u00e9di", "wikidata": "Q144829"}}]}